longitude,latitude,lacounty:ain,streetnumber,streetname,addr:unit,postcode,city,source
-118.4397747,33.35477046,7480043023,0,Middle Ranch,,90704,Avalon,http://egis3.lacounty.gov/dataportal/2012/06/19/la-county-address-points/
-118.499912,33.44098545,7480040021,1,Banning Harbor Road,,90704,Avalon,http://egis3.lacounty.gov/dataportal/2012/06/19/la-county-address-points/
-118.331626,33.35459774,,1,Camino De Flores,,90704,Avalon,http://egis3.lacounty.gov/dataportal/2012/06/19/la-county-address-points/
-118.3277884,33.34628192,7480022010,1,Crescent Avenue,,90704,Avalon,http://egis3.lacounty.gov/dataportal/2012/06/19/la-county-address-points/
-118.3260353,33.34871709,7480021002,1,Casino Way,,90704,Avalon,http://egis3.lacounty.gov/dataportal/2012/06/19/la-county-address-points/
-118.3226224,33.34302164,7480005025,1,Lower Terrace Road,,90704,Avalon,http://egis3.lacounty.gov/dataportal/2012/06/19/la-county-address-points/
-118.3253401,33.33941695,7480003009,1,Wrigley Terrace Road,,90704,Avalon,http://egis3.lacounty.gov/dataportal/2012/06/19/la-county-address-points/
-118.3313828,33.33972212,7480002026,1,Cabrillo Drive,,90704,Avalon,http://egis3.lacounty.gov/dataportal/2012/06/19/la-county-address-points/
-118.3323655,33.34133422,7480001026,1,Banning Drive,,90704,Avalon,http://egis3.lacounty.gov/dataportal/2012/06/19/la-county-address-points/
-118.3293114,33.35066469,7480001001,1,Descanso Canyon Road,,90704,Avalon,http://egis3.lacounty.gov/dataportal/2012/06/19/la-county-address-points/
-118.325488,33.34044222,,1,Canyon Terrace Road,,90704,Avalon,http://egis3.lacounty.gov/dataportal/2012/06/19/la-county-address-points/
-118.3223703,33.34220283,7480009038,2,Upper Terrace Road,B,90704,Avalon,http://egis3.lacounty.gov/dataportal/2012/06/19/la-county-address-points/
-118.3223703,33.34220283,7480009037,2,Upper Terrace Road,A,90704,Avalon,http://egis3.lacounty.gov/dataportal/2012/06/19/la-county-address-points/
-118.3314373,33.35450194,,2,Camino De Flores,,90704,Avalon,http://egis3.lacounty.gov/dataportal/2012/06/19/la-county-address-points/
-118.3308842,33.33958552,7480002027,2,Cabrillo Drive,,90704,Avalon,http://egis3.lacounty.gov/dataportal/2012/06/19/la-county-address-points/
-118.3254271,33.34056163,,2,Canyon Terrace Road,,90704,Avalon,http://egis3.lacounty.gov/dataportal/2012/06/19/la-county-address-points/
-118.331659,33.35455625,,3,Camino De Flores,,90704,Avalon,http://egis3.lacounty.gov/dataportal/2012/06/19/la-county-address-points/
-118.3255541,33.34048401,7480008032,3,Canyon Terrace Road,,90704,Avalon,http://egis3.lacounty.gov/dataportal/2012/06/19/la-county-address-points/
-118.3314802,33.33968081,7480002025,3,Cabrillo Drive,,90704,Avalon,http://egis3.lacounty.gov/dataportal/2012/06/19/la-county-address-points/
-118.3314643,33.35445624,,4,Camino De Flores,,90704,Avalon,http://egis3.lacounty.gov/dataportal/2012/06/19/la-county-address-points/
-118.3309813,33.33954454,7480002028,4,Cabrillo Drive,,90704,Avalon,http://egis3.lacounty.gov/dataportal/2012/06/19/la-county-address-points/
-118.3255145,33.34052324,,4,Canyon Terrace Road,,90704,Avalon,http://egis3.lacounty.gov/dataportal/2012/06/19/la-county-address-points/
-118.3316839,33.35447845,,5,Camino De Flores,,90704,Avalon,http://egis3.lacounty.gov/dataportal/2012/06/19/la-county-address-points/
-118.3238911,33.34212185,7480010003,5,Lower Terrace Road,,90704,Avalon,http://egis3.lacounty.gov/dataportal/2012/06/19/la-county-address-points/
-118.3257384,33.34023986,7480008038,5,Canyon Terrace Road,,90704,Avalon,http://egis3.lacounty.gov/dataportal/2012/06/19/la-county-address-points/
-118.3318181,33.3395162,7480002024,5,Cabrillo Drive,,90704,Avalon,http://egis3.lacounty.gov/dataportal/2012/06/19/la-county-address-points/
-118.3315165,33.35440118,,6,Camino De Flores,,90704,Avalon,http://egis3.lacounty.gov/dataportal/2012/06/19/la-county-address-points/
-118.3257384,33.34023986,7480008039,6,Canyon Terrace,,90704,Avalon,http://egis3.lacounty.gov/dataportal/2012/06/19/la-county-address-points/
-118.3310974,33.33952643,7480002029,6,Cabrillo Drive,,90704,Avalon,http://egis3.lacounty.gov/dataportal/2012/06/19/la-county-address-points/
-118.3318174,33.35437923,,7,Camino De Flores,,90704,Avalon,http://egis3.lacounty.gov/dataportal/2012/06/19/la-county-address-points/
-118.3278754,33.34646296,7480022053,7,Crescent Avenue,,90704,Avalon,http://egis3.lacounty.gov/dataportal/2012/06/19/la-county-address-points/
-118.3242669,33.34197159,7480010006,7,Lower Terrace Road,,90704,Avalon,http://egis3.lacounty.gov/dataportal/2012/06/19/la-county-address-points/
-118.3257384,33.34023986,7480008040,7,Canyon Terrace Road,,90704,Avalon,http://egis3.lacounty.gov/dataportal/2012/06/19/la-county-address-points/
-118.3317428,33.33961129,7480002023,7,Cabrillo Drive,,90704,Avalon,http://egis3.lacounty.gov/dataportal/2012/06/19/la-county-address-points/
-118.3316487,33.3542386,,8,Camino De Flores,,90704,Avalon,http://egis3.lacounty.gov/dataportal/2012/06/19/la-county-address-points/
-118.3257384,33.34023986,7480008041,8,Canyon Terrace,,90704,Avalon,http://egis3.lacounty.gov/dataportal/2012/06/19/la-county-address-points/
-118.3312393,33.33949475,7480002030,8,Cabrillo Drive,,90704,Avalon,http://egis3.lacounty.gov/dataportal/2012/06/19/la-county-address-points/
-118.3318666,33.3543529,,9,Camino De Flores,,90704,Avalon,http://egis3.lacounty.gov/dataportal/2012/06/19/la-county-address-points/
-118.327822,33.3463775,7480022054,9,Crescent Avenue,,90704,Avalon,http://egis3.lacounty.gov/dataportal/2012/06/19/la-county-address-points/
-118.3316893,33.33968903,7480002022,9,Cabrillo Drive,,90704,Avalon,http://egis3.lacounty.gov/dataportal/2012/06/19/la-county-address-points/
-118.3253291,33.34024328,,9,Canyon Terrace Road,,90704,Avalon,http://egis3.lacounty.gov/dataportal/2012/06/19/la-county-address-points/
-118.3316787,33.35419035,,10,Camino De Flores,,90704,Avalon,http://egis3.lacounty.gov/dataportal/2012/06/19/la-county-address-points/
-118.3313429,33.33944805,7480002031,10,Cabrillo Drive,,90704,Avalon,http://egis3.lacounty.gov/dataportal/2012/06/19/la-county-address-points/
-118.3253291,33.34024328,,10,Canyon Terrace Road,,90704,Avalon,http://egis3.lacounty.gov/dataportal/2012/06/19/la-county-address-points/
-118.3318188,33.35423728,,11,Camino De Flores,,90704,Avalon,http://egis3.lacounty.gov/dataportal/2012/06/19/la-county-address-points/
-118.3248222,33.34163606,7480010039,11,Lower Terrace Road,,90704,Avalon,http://egis3.lacounty.gov/dataportal/2012/06/19/la-county-address-points/
-118.33193,33.33982306,7480002021,11,Cabrillo Drive,,90704,Avalon,http://egis3.lacounty.gov/dataportal/2012/06/19/la-county-address-points/
-118.3253291,33.34024328,,11,Canyon Terrace Road,,90704,Avalon,http://egis3.lacounty.gov/dataportal/2012/06/19/la-county-address-points/
-118.3313017,33.35432996,,12,Camino De Flores,,90704,Avalon,http://egis3.lacounty.gov/dataportal/2012/06/19/la-county-address-points/
-118.3314193,33.33938693,7480002032,12,Cabrillo Drive,,90704,Avalon,http://egis3.lacounty.gov/dataportal/2012/06/19/la-county-address-points/
-118.3253291,33.34024328,,12,Canyon Terrace Road,,90704,Avalon,http://egis3.lacounty.gov/dataportal/2012/06/19/la-county-address-points/
-118.331122,33.35418767,,13,Camino De Flores,,90704,Avalon,http://egis3.lacounty.gov/dataportal/2012/06/19/la-county-address-points/
-118.3249786,33.34148265,7480010037,13,Lower Terrace Road,,90704,Avalon,http://egis3.lacounty.gov/dataportal/2012/06/19/la-county-address-points/
-118.3251547,33.34030238,7480008022,13,Canyon Terrace Road,,90704,Avalon,http://egis3.lacounty.gov/dataportal/2012/06/19/la-county-address-points/
-118.3319879,33.33974377,7480002020,13,Cabrillo Drive,,90704,Avalon,http://egis3.lacounty.gov/dataportal/2012/06/19/la-county-address-points/
-118.3313408,33.35428254,,14,Camino De Flores,,90704,Avalon,http://egis3.lacounty.gov/dataportal/2012/06/19/la-county-address-points/
-118.3251547,33.34030238,7480008023,14,Canyon Terrace Road,,90704,Avalon,http://egis3.lacounty.gov/dataportal/2012/06/19/la-county-address-points/
-118.3314302,33.33926258,7480002033,14,Cabrillo Drive,,90704,Avalon,http://egis3.lacounty.gov/dataportal/2012/06/19/la-county-address-points/
-118.3311571,33.35415462,,15,Camino De Flores,,90704,Avalon,http://egis3.lacounty.gov/dataportal/2012/06/19/la-county-address-points/
-118.3280223,33.34662479,7480022059,15,Crescent Avenue,,90704,Avalon,http://egis3.lacounty.gov/dataportal/2012/06/19/la-county-address-points/
-118.3320417,33.33966958,7480002019,15,Cabrillo Drive,,90704,Avalon,http://egis3.lacounty.gov/dataportal/2012/06/19/la-county-address-points/
-118.3250784,33.34025774,,15,Canyon Terrace Road,,90704,Avalon,http://egis3.lacounty.gov/dataportal/2012/06/19/la-county-address-points/
-118.3313919,33.35422579,,16,Camino De Flores,,90704,Avalon,http://egis3.lacounty.gov/dataportal/2012/06/19/la-county-address-points/
-118.3315539,33.33926054,7480002034,16,Cabrillo Drive,,90704,Avalon,http://egis3.lacounty.gov/dataportal/2012/06/19/la-county-address-points/
-118.3249979,33.3403028,,16,Canyon Terrace Road,,90704,Avalon,http://egis3.lacounty.gov/dataportal/2012/06/19/la-county-address-points/
-118.3312304,33.35411386,,17,Camino De Flores,,90704,Avalon,http://egis3.lacounty.gov/dataportal/2012/06/19/la-county-address-points/
-118.3327613,33.33969026,7480002018,17,Cabrillo Drive,,90704,Avalon,http://egis3.lacounty.gov/dataportal/2012/06/19/la-county-address-points/
-118.3246926,33.34036997,,17,Canyon Terrace Road,,90704,Avalon,http://egis3.lacounty.gov/dataportal/2012/06/19/la-county-address-points/
-118.3315144,33.35412322,,18,Camino De Flores,,90704,Avalon,http://egis3.lacounty.gov/dataportal/2012/06/19/la-county-address-points/
-118.3248253,33.34029949,7480008035,18,Canyon Terrace Road,,90704,Avalon,http://egis3.lacounty.gov/dataportal/2012/06/19/la-county-address-points/
-118.331641,33.33916049,7480002035,18,Cabrillo Drive,,90704,Avalon,http://egis3.lacounty.gov/dataportal/2012/06/19/la-county-address-points/
-118.3313296,33.35398263,,19,Camino De Flores,,90704,Avalon,http://egis3.lacounty.gov/dataportal/2012/06/19/la-county-address-points/
-118.3327194,33.33979152,7480002017,19,Cabrillo Drive,,90704,Avalon,http://egis3.lacounty.gov/dataportal/2012/06/19/la-county-address-points/
-118.3248184,33.34026158,,19,Canyon Terrace Road,,90704,Avalon,http://egis3.lacounty.gov/dataportal/2012/06/19/la-county-address-points/
-118.3315716,33.35409095,,20,Camino De Flores,,90704,Avalon,http://egis3.lacounty.gov/dataportal/2012/06/19/la-county-address-points/
-118.331733,33.33918272,7480002036,20,Cabrillo Drive,,90704,Avalon,http://egis3.lacounty.gov/dataportal/2012/06/19/la-county-address-points/
-118.3247598,33.340329,,20,Canyon Terrace Road,,90704,Avalon,http://egis3.lacounty.gov/dataportal/2012/06/19/la-county-address-points/
-118.3313586,33.35393693,,21,Camino De Flores,,90704,Avalon,http://egis3.lacounty.gov/dataportal/2012/06/19/la-county-address-points/
-118.332688,33.3398812,7480002016,21,Cabrillo Drive,,90704,Avalon,http://egis3.lacounty.gov/dataportal/2012/06/19/la-county-address-points/
-118.3249491,33.3400824,,21,Canyon Terrace Road,,90704,Avalon,http://egis3.lacounty.gov/dataportal/2012/06/19/la-county-address-points/
-118.3315188,33.35396352,,22,Camino De Flores,,90704,Avalon,http://egis3.lacounty.gov/dataportal/2012/06/19/la-county-address-points/
-118.3318233,33.33926425,7480002037,22,Cabrillo Drive,,90704,Avalon,http://egis3.lacounty.gov/dataportal/2012/06/19/la-county-address-points/
-118.3248914,33.3401627,,22,Canyon Terrace Road,,90704,Avalon,http://egis3.lacounty.gov/dataportal/2012/06/19/la-county-address-points/
-118.32507,33.34004344,7480008028,23,Canyon Terrace Road,,90704,Avalon,http://egis3.lacounty.gov/dataportal/2012/06/19/la-county-address-points/
-118.3330651,33.33971276,7480002013,23,Cabrillo Drive,,90704,Avalon,http://egis3.lacounty.gov/dataportal/2012/06/19/la-county-address-points/
-118.3319247,33.33929177,7480002038,24,Cabrillo Drive,,90704,Avalon,http://egis3.lacounty.gov/dataportal/2012/06/19/la-county-address-points/
-118.3249084,33.34013832,,24,Canyon Terrace Road,,90704,Avalon,http://egis3.lacounty.gov/dataportal/2012/06/19/la-county-address-points/
-118.3249001,33.3406672,7480050001,25,Lower Terrace Road,,90704,Avalon,http://egis3.lacounty.gov/dataportal/2012/06/19/la-county-address-points/
-118.3330292,33.33980483,7480002014,25,Cabrillo Drive,,90704,Avalon,http://egis3.lacounty.gov/dataportal/2012/06/19/la-county-address-points/
-118.3310375,33.3539564,,26,Camino De Flores,,90704,Avalon,http://egis3.lacounty.gov/dataportal/2012/06/19/la-county-address-points/
-118.3249293,33.34062403,7480050002,26,Wrigley Terrace Road,,90704,Avalon,http://egis3.lacounty.gov/dataportal/2012/06/19/la-county-address-points/
-118.3320217,33.33933077,7480002039,26,Cabrillo Drive,,90704,Avalon,http://egis3.lacounty.gov/dataportal/2012/06/19/la-county-address-points/
-118.331001,33.35388638,,27,Camino De Flores,,90704,Avalon,http://egis3.lacounty.gov/dataportal/2012/06/19/la-county-address-points/
-118.3249669,33.34058267,7480050003,27,Lower Terrace Road,,90704,Avalon,http://egis3.lacounty.gov/dataportal/2012/06/19/la-county-address-points/
-118.332995,33.33989744,7480002015,27,Cabrillo Drive,,90704,Avalon,http://egis3.lacounty.gov/dataportal/2012/06/19/la-county-address-points/
-118.3309645,33.35382565,,28,Camino De Flores,,90704,Avalon,http://egis3.lacounty.gov/dataportal/2012/06/19/la-county-address-points/
-118.3247884,33.34058986,7480050004,28,Wrigley Terrace Road,,90704,Avalon,http://egis3.lacounty.gov/dataportal/2012/06/19/la-county-address-points/
-118.332148,33.33937994,7480002040,28,Cabrillo Drive,,90704,Avalon,http://egis3.lacounty.gov/dataportal/2012/06/19/la-county-address-points/
-118.330921,33.35376494,,29,Camino De Flores,,90704,Avalon,http://egis3.lacounty.gov/dataportal/2012/06/19/la-county-address-points/
-118.324722,33.34058214,7480050005,29,Lower Terrace Road,,90704,Avalon,http://egis3.lacounty.gov/dataportal/2012/06/19/la-county-address-points/
-118.3332746,33.33981296,7480002012,29,Cabrillo Drive,,90704,Avalon,http://egis3.lacounty.gov/dataportal/2012/06/19/la-county-address-points/
-118.3310898,33.35394528,,30,Camino De Flores,,90704,Avalon,http://egis3.lacounty.gov/dataportal/2012/06/19/la-county-address-points/
-118.3246636,33.34057564,7480050006,30,Wrigley Terrace Road,,90704,Avalon,http://egis3.lacounty.gov/dataportal/2012/06/19/la-county-address-points/
-118.3322524,33.33941656,7480002041,30,Cabrillo Drive,,90704,Avalon,http://egis3.lacounty.gov/dataportal/2012/06/19/la-county-address-points/
-118.3310502,33.35386681,,31,Camino De Flores,,90704,Avalon,http://egis3.lacounty.gov/dataportal/2012/06/19/la-county-address-points/
-118.3246051,33.34056883,7480050007,31,Lower Terrace Road,,90704,Avalon,http://egis3.lacounty.gov/dataportal/2012/06/19/la-county-address-points/
-118.3333683,33.33985227,7480002011,31,Cabrillo Drive,,90704,Avalon,http://egis3.lacounty.gov/dataportal/2012/06/19/la-county-address-points/
-118.3310077,33.35380187,,32,Camino De Flores,,90704,Avalon,http://egis3.lacounty.gov/dataportal/2012/06/19/la-county-address-points/
-118.3245379,33.34056867,7480050008,32,Wrigley Terrace Road,,90704,Avalon,http://egis3.lacounty.gov/dataportal/2012/06/19/la-county-address-points/
-118.3324109,33.33944909,7480002042,32,Cabrillo Drive,,90704,Avalon,http://egis3.lacounty.gov/dataportal/2012/06/19/la-county-address-points/
-118.3309682,33.35374537,,33,Camino De Flores,,90704,Avalon,http://egis3.lacounty.gov/dataportal/2012/06/19/la-county-address-points/
-118.3242805,33.34042748,7480050009,33,Avalon Terrace Road,,90704,Avalon,http://egis3.lacounty.gov/dataportal/2012/06/19/la-county-address-points/
-118.3242805,33.34042748,7480050009,33,Canyon Terrace Road,,90704,Avalon,http://egis3.lacounty.gov/dataportal/2012/06/19/la-county-address-points/
-118.3334666,33.33989777,7480002010,33,Cabrillo Drive,,90704,Avalon,http://egis3.lacounty.gov/dataportal/2012/06/19/la-county-address-points/
-118.331136,33.35392403,,34,Camino De Flores,,90704,Avalon,http://egis3.lacounty.gov/dataportal/2012/06/19/la-county-address-points/
-118.3242332,33.34038741,7480050010,34,Wrigley Terrace Road,,90704,Avalon,http://egis3.lacounty.gov/dataportal/2012/06/19/la-county-address-points/
-118.3226754,33.34223471,7480010030,34,Middle Terrace Road,,90704,Avalon,http://egis3.lacounty.gov/dataportal/2012/06/19/la-county-address-points/
-118.3325139,33.33945602,7480002043,34,Cabrillo Drive,,90704,Avalon,http://egis3.lacounty.gov/dataportal/2012/06/19/la-county-address-points/
-118.3310924,33.35384726,,35,Camino De Flores,,90704,Avalon,http://egis3.lacounty.gov/dataportal/2012/06/19/la-county-address-points/
-118.3241923,33.34034268,7480050011,35,Canyon Terrace Road,,90704,Avalon,http://egis3.lacounty.gov/dataportal/2012/06/19/la-county-address-points/
-118.3241923,33.34034268,7480050011,35,Avalon Terrace Road,,90704,Avalon,http://egis3.lacounty.gov/dataportal/2012/06/19/la-county-address-points/
-118.3234232,33.34172062,7480009015,35,Lower Terrace Road,,90704,Avalon,http://egis3.lacounty.gov/dataportal/2012/06/19/la-county-address-points/
-118.3335746,33.33995047,7480002009,35,Cabrillo Drive,,90704,Avalon,http://egis3.lacounty.gov/dataportal/2012/06/19/la-county-address-points/
-118.3310499,33.35378317,,36,Camino De Flores,,90704,Avalon,http://egis3.lacounty.gov/dataportal/2012/06/19/la-county-address-points/
-118.3241286,33.34027814,7480050012,36,Wrigley Terrace Road,,90704,Avalon,http://egis3.lacounty.gov/dataportal/2012/06/19/la-county-address-points/
-118.3326249,33.3394583,7480002044,36,Cabrillo Drive,,90704,Avalon,http://egis3.lacounty.gov/dataportal/2012/06/19/la-county-address-points/
-118.3316217,33.35506328,,36,Playa Azul,,90704,Avalon,http://egis3.lacounty.gov/dataportal/2012/06/19/la-county-address-points/
-118.3310104,33.35372751,,37,Camino De Flores,,90704,Avalon,http://egis3.lacounty.gov/dataportal/2012/06/19/la-county-address-points/
-118.3240829,33.34023703,7480050013,37,Avalon Terrace Road,,90704,Avalon,http://egis3.lacounty.gov/dataportal/2012/06/19/la-county-address-points/
-118.3240829,33.34023703,7480050013,37,Canyon Terrace Road,,90704,Avalon,http://egis3.lacounty.gov/dataportal/2012/06/19/la-county-address-points/
-118.3336776,33.34005003,7480002008,37,Cabrillo Drive,,90704,Avalon,http://egis3.lacounty.gov/dataportal/2012/06/19/la-county-address-points/
-118.3315041,33.35511008,,37,Playa Azul,,90704,Avalon,http://egis3.lacounty.gov/dataportal/2012/06/19/la-county-address-points/
-118.3311853,33.35391122,,38,Camino De Flores,,90704,Avalon,http://egis3.lacounty.gov/dataportal/2012/06/19/la-county-address-points/
-118.3240425,33.34020087,7480050014,38,Wrigley Terrace Road,,90704,Avalon,http://egis3.lacounty.gov/dataportal/2012/06/19/la-county-address-points/
-118.3327537,33.3394611,7480002045,38,Cabrillo Drive,,90704,Avalon,http://egis3.lacounty.gov/dataportal/2012/06/19/la-county-address-points/
-118.3313774,33.35515014,,38,Playa Azul,,90704,Avalon,http://egis3.lacounty.gov/dataportal/2012/06/19/la-county-address-points/
-118.3311387,33.35383024,,39,Camino De Flores,,90704,Avalon,http://egis3.lacounty.gov/dataportal/2012/06/19/la-county-address-points/
-118.324002,33.34016472,7480050015,39,Wrigley Terrace Road,,90704,Avalon,http://egis3.lacounty.gov/dataportal/2012/06/19/la-county-address-points/
-118.3235235,33.34172931,7480009016,39,Lower Terrace Road,,90704,Avalon,http://egis3.lacounty.gov/dataportal/2012/06/19/la-county-address-points/
-118.3316481,33.35510292,,39,Playa Azul,,90704,Avalon,http://egis3.lacounty.gov/dataportal/2012/06/19/la-county-address-points/
-118.3310941,33.35376023,,40,Camino De Flores,,90704,Avalon,http://egis3.lacounty.gov/dataportal/2012/06/19/la-county-address-points/
-118.3239618,33.34012874,7480050016,40,Avalon Terrace Road,,90704,Avalon,http://egis3.lacounty.gov/dataportal/2012/06/19/la-county-address-points/
-118.3239618,33.34012874,7480050016,40,Canyon Terrace Road,,90704,Avalon,http://egis3.lacounty.gov/dataportal/2012/06/19/la-county-address-points/
-118.3328631,33.33946576,7480002046,40,Cabrillo Drive,,90704,Avalon,http://egis3.lacounty.gov/dataportal/2012/06/19/la-county-address-points/
-118.3315264,33.35514972,,40,Playa Azul,,90704,Avalon,http://egis3.lacounty.gov/dataportal/2012/06/19/la-county-address-points/
-118.3310577,33.35370542,,41,Camino De Flores,,90704,Avalon,http://egis3.lacounty.gov/dataportal/2012/06/19/la-county-address-points/
-118.323916,33.34008755,7480050017,41,Wrigley Terrace Road,,90704,Avalon,http://egis3.lacounty.gov/dataportal/2012/06/19/la-county-address-points/
-118.3314038,33.35519231,,41,Playa Azul,,90704,Avalon,http://egis3.lacounty.gov/dataportal/2012/06/19/la-county-address-points/
-118.3312032,33.35385709,,42,Camino De Flores,,90704,Avalon,http://egis3.lacounty.gov/dataportal/2012/06/19/la-county-address-points/
-118.323768,33.34024329,7480050018,42,Avalon Terrace Road,,90704,Avalon,http://egis3.lacounty.gov/dataportal/2012/06/19/la-county-address-points/
-118.323768,33.34024329,7480050018,42,Canyon Terrace Road,,90704,Avalon,http://egis3.lacounty.gov/dataportal/2012/06/19/la-county-address-points/
-118.3232108,33.34163749,7480009013,42,Upper Terrace Road,,90704,Avalon,http://egis3.lacounty.gov/dataportal/2012/06/19/la-county-address-points/
-118.3329686,33.33947403,7480002047,42,Cabrillo Drive,,90704,Avalon,http://egis3.lacounty.gov/dataportal/2012/06/19/la-county-address-points/
-118.3316675,33.35517299,,42,Playa Azul,,90704,Avalon,http://egis3.lacounty.gov/dataportal/2012/06/19/la-county-address-points/
-118.3311617,33.35378117,,43,Camino De Flores,,90704,Avalon,http://egis3.lacounty.gov/dataportal/2012/06/19/la-county-address-points/
-118.323716,33.34020756,7480050019,43,Wrigley Terrace Road,,90704,Avalon,http://egis3.lacounty.gov/dataportal/2012/06/19/la-county-address-points/
-118.3315539,33.35521724,,43,Playa Azul,,90704,Avalon,http://egis3.lacounty.gov/dataportal/2012/06/19/la-county-address-points/
-118.3311181,33.35372046,,44,Camino De Flores,,90704,Avalon,http://egis3.lacounty.gov/dataportal/2012/06/19/la-county-address-points/
-118.3236704,33.34017613,7480050020,44,Avalon Terrace Road,,90704,Avalon,http://egis3.lacounty.gov/dataportal/2012/06/19/la-county-address-points/
-118.3236704,33.34017613,7480050020,44,Canyon Terrace Road,,90704,Avalon,http://egis3.lacounty.gov/dataportal/2012/06/19/la-county-address-points/
-118.3331211,33.33949524,7480002048,44,Cabrillo Drive,,90704,Avalon,http://egis3.lacounty.gov/dataportal/2012/06/19/la-county-address-points/
-118.3314382,33.3552522,,44,Playa Azul,,90704,Avalon,http://egis3.lacounty.gov/dataportal/2012/06/19/la-county-address-points/
-118.3312464,33.35382318,,45,Camino De Flores,,90704,Avalon,http://egis3.lacounty.gov/dataportal/2012/06/19/la-county-address-points/
-118.3236249,33.34014489,7480050021,45,Wrigley Terrace Road,,90704,Avalon,http://egis3.lacounty.gov/dataportal/2012/06/19/la-county-address-points/
-118.3239751,33.34168017,7480009035,45,Lower Terrace Road,,90704,Avalon,http://egis3.lacounty.gov/dataportal/2012/06/19/la-county-address-points/
-118.3309735,33.35535149,,45,Gaviota,,90704,Avalon,http://egis3.lacounty.gov/dataportal/2012/06/19/la-county-address-points/
-118.3317049,33.35522527,,45,Playa Azul,,90704,Avalon,http://egis3.lacounty.gov/dataportal/2012/06/19/la-county-address-points/
-118.3312109,33.35375569,,46,Camino De Flores,,90704,Avalon,http://egis3.lacounty.gov/dataportal/2012/06/19/la-county-address-points/
-118.3235793,33.34011347,7480050022,46,Avalon Terrace Road,,90704,Avalon,http://egis3.lacounty.gov/dataportal/2012/06/19/la-county-address-points/
-118.3235793,33.34011347,7480050022,46,Canyon Terrace Road,,90704,Avalon,http://egis3.lacounty.gov/dataportal/2012/06/19/la-county-address-points/
-118.3229012,33.34161282,7480009010,46,Upper Terrace Road,,90704,Avalon,http://egis3.lacounty.gov/dataportal/2012/06/19/la-county-address-points/
-118.3332215,33.33951737,7480002049,46,Cabrillo Drive,,90704,Avalon,http://egis3.lacounty.gov/dataportal/2012/06/19/la-county-address-points/
-118.3308753,33.35521151,,46,Gaviota,,90704,Avalon,http://egis3.lacounty.gov/dataportal/2012/06/19/la-county-address-points/
-118.3315783,33.35526871,,46,Playa Azul,,90704,Avalon,http://egis3.lacounty.gov/dataportal/2012/06/19/la-county-address-points/
-118.3311613,33.35368485,,47,Camino De Flores,,90704,Avalon,http://egis3.lacounty.gov/dataportal/2012/06/19/la-county-address-points/
-118.3235273,33.34007775,7480050023,47,Wrigley Terrace Road,,90704,Avalon,http://egis3.lacounty.gov/dataportal/2012/06/19/la-county-address-points/
-118.3309916,33.35533539,,47,Gaviota,,90704,Avalon,http://egis3.lacounty.gov/dataportal/2012/06/19/la-county-address-points/
-118.3314747,33.35530786,,47,Playa Azul,,90704,Avalon,http://egis3.lacounty.gov/dataportal/2012/06/19/la-county-address-points/
-118.3312886,33.3538087,,48,Camino De Flores,,90704,Avalon,http://egis3.lacounty.gov/dataportal/2012/06/19/la-county-address-points/
-118.3233713,33.34021136,7480050024,48,Canyon Terrace Road,,90704,Avalon,http://egis3.lacounty.gov/dataportal/2012/06/19/la-county-address-points/
-118.3233713,33.34021136,7480050024,48,Avalon Terrace Road,,90704,Avalon,http://egis3.lacounty.gov/dataportal/2012/06/19/la-county-address-points/
-118.3333303,33.33954677,7480002050,48,Cabrillo Drive,,90704,Avalon,http://egis3.lacounty.gov/dataportal/2012/06/19/la-county-address-points/
-118.3307701,33.35507662,,48,Gaviota,,90704,Avalon,http://egis3.lacounty.gov/dataportal/2012/06/19/la-county-address-points/
-118.3312217,33.35369905,,49,Camino De Flores,,90704,Avalon,http://egis3.lacounty.gov/dataportal/2012/06/19/la-county-address-points/
-118.323425,33.34024516,7480050025,49,Wrigley Terrace Road,,90704,Avalon,http://egis3.lacounty.gov/dataportal/2012/06/19/la-county-address-points/
-118.3241784,33.34155828,7480009032,49,Lower Terrace Road,,90704,Avalon,http://egis3.lacounty.gov/dataportal/2012/06/19/la-county-address-points/
-118.3308954,33.35520132,,49,Gaviota,,90704,Avalon,http://egis3.lacounty.gov/dataportal/2012/06/19/la-county-address-points/
-118.3310921,33.35478593,,49,Playa Azul,,90704,Avalon,http://egis3.lacounty.gov/dataportal/2012/06/19/la-county-address-points/
-118.3313126,33.35376385,,50,Camino De Flores,,90704,Avalon,http://egis3.lacounty.gov/dataportal/2012/06/19/la-county-address-points/
-118.3234723,33.34027444,7480050026,50,Avalon Terrace Road,,90704,Avalon,http://egis3.lacounty.gov/dataportal/2012/06/19/la-county-address-points/
-118.3234723,33.34027444,7480050026,50,Canyon Terrace Road,,90704,Avalon,http://egis3.lacounty.gov/dataportal/2012/06/19/la-county-address-points/
-118.3230496,33.3416154,7480009029,50,Upper Terrace Road,,90704,Avalon,http://egis3.lacounty.gov/dataportal/2012/06/19/la-county-address-points/
-118.3334464,33.3395824,7480002051,50,Cabrillo Drive,,90704,Avalon,http://egis3.lacounty.gov/dataportal/2012/06/19/la-county-address-points/
-118.3310107,33.35532435,,50,Gaviota,,90704,Avalon,http://egis3.lacounty.gov/dataportal/2012/06/19/la-county-address-points/
-118.3310124,33.35473715,,50,Playa Azul,,90704,Avalon,http://egis3.lacounty.gov/dataportal/2012/06/19/la-county-address-points/
-118.331269,33.35368878,,51,Camino De Flores,,90704,Avalon,http://egis3.lacounty.gov/dataportal/2012/06/19/la-county-address-points/
-118.3235195,33.34030411,7480050027,51,Wrigley Terrace Road,,90704,Avalon,http://egis3.lacounty.gov/dataportal/2012/06/19/la-county-address-points/
-118.3308133,33.35505453,,51,Gaviota,,90704,Avalon,http://egis3.lacounty.gov/dataportal/2012/06/19/la-county-address-points/
-118.3309538,33.35469929,,51,Playa Azul,,90704,Avalon,http://egis3.lacounty.gov/dataportal/2012/06/19/la-county-address-points/
-118.3308239,33.35366297,,52,Camino De Flores,,90704,Avalon,http://egis3.lacounty.gov/dataportal/2012/06/19/la-county-address-points/
-118.3235669,33.34033373,7480050028,52,Avalon Terrace Road,,90704,Avalon,http://egis3.lacounty.gov/dataportal/2012/06/19/la-county-address-points/
-118.3235669,33.34033373,7480050028,52,Canyon Terrace Road,,90704,Avalon,http://egis3.lacounty.gov/dataportal/2012/06/19/la-county-address-points/
-118.3335583,33.33962177,7480002052,52,Cabrillo Drive,,90704,Avalon,http://egis3.lacounty.gov/dataportal/2012/06/19/la-county-address-points/
-118.3309204,33.35515478,,52,Gaviota,,90704,Avalon,http://egis3.lacounty.gov/dataportal/2012/06/19/la-county-address-points/
-118.3308892,33.35465469,,52,Playa Azul,,90704,Avalon,http://egis3.lacounty.gov/dataportal/2012/06/19/la-county-address-points/
-118.3307442,33.35361588,,53,Camino De Flores,,90704,Avalon,http://egis3.lacounty.gov/dataportal/2012/06/19/la-county-address-points/
-118.3236907,33.34038462,7480050078,53,Wrigley Terrace Road,,90704,Avalon,http://egis3.lacounty.gov/dataportal/2012/06/19/la-county-address-points/
-118.3242768,33.34146461,7480009033,53,Lower Terrace Road,,90704,Avalon,http://egis3.lacounty.gov/dataportal/2012/06/19/la-county-address-points/
-118.3310267,33.35531332,,53,Gaviota,,90704,Avalon,http://egis3.lacounty.gov/dataportal/2012/06/19/la-county-address-points/
-118.3311383,33.35474779,,53,Playa Azul,,90704,Avalon,http://egis3.lacounty.gov/dataportal/2012/06/19/la-county-address-points/
-118.3306564,33.35356796,,54,Camino De Flores,,90704,Avalon,http://egis3.lacounty.gov/dataportal/2012/06/19/la-county-address-points/
-118.3229139,33.33935114,7480050030,54,Avalon Terrace Road,,90704,Avalon,http://egis3.lacounty.gov/dataportal/2012/06/19/la-county-address-points/
-118.3336723,33.33966613,7480002053,54,Cabrillo Drive,,90704,Avalon,http://egis3.lacounty.gov/dataportal/2012/06/19/la-county-address-points/
-118.3310377,33.35528034,,54,Gaviota,,90704,Avalon,http://egis3.lacounty.gov/dataportal/2012/06/19/la-county-address-points/
-118.3310525,33.3546931,,54,Playa Azul,,90704,Avalon,http://egis3.lacounty.gov/dataportal/2012/06/19/la-county-address-points/
-118.3305858,33.35353436,,55,Camino De Flores,,90704,Avalon,http://egis3.lacounty.gov/dataportal/2012/06/19/la-county-address-points/
-118.3228502,33.33937929,7480050031,55,Avalon Terrace Road,,90704,Avalon,http://egis3.lacounty.gov/dataportal/2012/06/19/la-county-address-points/
-118.3309528,33.35519355,,55,Gaviota,,90704,Avalon,http://egis3.lacounty.gov/dataportal/2012/06/19/la-county-address-points/
-118.3309849,33.35465274,,55,Playa Azul,,90704,Avalon,http://egis3.lacounty.gov/dataportal/2012/06/19/la-county-address-points/
-118.330853,33.35362656,,56,Camino De Flores,,90704,Avalon,http://egis3.lacounty.gov/dataportal/2012/06/19/la-county-address-points/
-118.3229697,33.33952346,7480050032,56,Avalon Terrace Road,,90704,Avalon,http://egis3.lacounty.gov/dataportal/2012/06/19/la-county-address-points/
-118.3116757,33.33516076,7480045022,56,Pebbly Beach Road,,90704,Avalon,http://egis3.lacounty.gov/dataportal/2012/06/19/la-county-address-points/
-118.3337673,33.33970396,7480002054,56,Cabrillo Drive,,90704,Avalon,http://egis3.lacounty.gov/dataportal/2012/06/19/la-county-address-points/
-118.3312546,33.35540056,,56,Gaviota,,90704,Avalon,http://egis3.lacounty.gov/dataportal/2012/06/19/la-county-address-points/
-118.3309283,33.35461065,,56,Playa Azul,,90704,Avalon,http://egis3.lacounty.gov/dataportal/2012/06/19/la-county-address-points/
-118.3307662,33.35357611,,57,Camino De Flores,,90704,Avalon,http://egis3.lacounty.gov/dataportal/2012/06/19/la-county-address-points/
-118.3230162,33.3395643,7480050033,57,Wrigley Terrace Road,,90704,Avalon,http://egis3.lacounty.gov/dataportal/2012/06/19/la-county-address-points/
-118.3314745,33.35552077,,57,Gaviota,,90704,Avalon,http://egis3.lacounty.gov/dataportal/2012/06/19/la-county-address-points/
-118.3311612,33.35468436,,57,Playa Azul,,90704,Avalon,http://egis3.lacounty.gov/dataportal/2012/06/19/la-county-address-points/
-118.3306774,33.3535282,,58,Camino De Flores,,90704,Avalon,http://egis3.lacounty.gov/dataportal/2012/06/19/la-county-address-points/
-118.323057,33.33960009,7480050034,58,Avalon Terrace Road,,90704,Avalon,http://egis3.lacounty.gov/dataportal/2012/06/19/la-county-address-points/
-118.3338677,33.33975778,7480002800,58,Cabrillo Drive,,90704,Avalon,http://egis3.lacounty.gov/dataportal/2012/06/19/la-county-address-points/
-118.3313983,33.35559449,,58,Gaviota,,90704,Avalon,http://egis3.lacounty.gov/dataportal/2012/06/19/la-county-address-points/
-118.3310734,33.35463559,,58,Playa Azul,,90704,Avalon,http://egis3.lacounty.gov/dataportal/2012/06/19/la-county-address-points/
-118.3306088,33.35349121,,59,Camino De Flores,,90704,Avalon,http://egis3.lacounty.gov/dataportal/2012/06/19/la-county-address-points/
-118.3230979,33.33963586,7480050035,59,Wrigley Terrace Road,,90704,Avalon,http://egis3.lacounty.gov/dataportal/2012/06/19/la-county-address-points/
-118.331304,33.35568178,,59,Gaviota,,90704,Avalon,http://egis3.lacounty.gov/dataportal/2012/06/19/la-county-address-points/
-118.3309897,33.35459105,,59,Playa Azul,,90704,Avalon,http://egis3.lacounty.gov/dataportal/2012/06/19/la-county-address-points/
-118.330876,33.3535927,,60,Camino De Flores,,90704,Avalon,http://egis3.lacounty.gov/dataportal/2012/06/19/la-county-address-points/
-118.3231441,33.33967654,7480050036,60,Avalon Terrace Road,,90704,Avalon,http://egis3.lacounty.gov/dataportal/2012/06/19/la-county-address-points/
-118.3315109,33.35555193,,60,Gaviota,,90704,Avalon,http://egis3.lacounty.gov/dataportal/2012/06/19/la-county-address-points/
-118.3311973,33.35464793,,60,Playa Azul,,90704,Avalon,http://egis3.lacounty.gov/dataportal/2012/06/19/la-county-address-points/
-118.3307912,33.35354055,,61,Camino De Flores,,90704,Avalon,http://egis3.lacounty.gov/dataportal/2012/06/19/la-county-address-points/
-118.3232026,33.33955811,7480050037,61,Wrigley Terrace Road,,90704,Avalon,http://egis3.lacounty.gov/dataportal/2012/06/19/la-county-address-points/
-118.3314548,33.35561461,,61,Gaviota,,90704,Avalon,http://egis3.lacounty.gov/dataportal/2012/06/19/la-county-address-points/
-118.3311135,33.35458902,,61,Playa Azul,,90704,Avalon,http://egis3.lacounty.gov/dataportal/2012/06/19/la-county-address-points/
-118.3306944,33.35349266,,62,Camino De Flores,,90704,Avalon,http://egis3.lacounty.gov/dataportal/2012/06/19/la-county-address-points/
-118.3232472,33.33952171,7480050038,62,Avalon Terrace Road,,90704,Avalon,http://egis3.lacounty.gov/dataportal/2012/06/19/la-county-address-points/
-118.3313494,33.35571038,,62,Gaviota,,90704,Avalon,http://egis3.lacounty.gov/dataportal/2012/06/19/la-county-address-points/
-118.3310348,33.35454699,,62,Playa Azul,,90704,Avalon,http://egis3.lacounty.gov/dataportal/2012/06/19/la-county-address-points/
-118.3306349,33.3534565,,63,Camino De Flores,,90704,Avalon,http://egis3.lacounty.gov/dataportal/2012/06/19/la-county-address-points/
-118.3232972,33.33948638,7480050039,63,Wrigley Terrace Road,,90704,Avalon,http://egis3.lacounty.gov/dataportal/2012/06/19/la-county-address-points/
-118.3315443,33.35558479,,63,Gaviota,,90704,Avalon,http://egis3.lacounty.gov/dataportal/2012/06/19/la-county-address-points/
-118.330479,33.35479354,,63,Playa Azul,,90704,Avalon,http://egis3.lacounty.gov/dataportal/2012/06/19/la-county-address-points/
-118.330898,33.35355209,,64,Camino De Flores,,90704,Avalon,http://egis3.lacounty.gov/dataportal/2012/06/19/la-county-address-points/
-118.3234641,33.33956172,7480050040,64,Avalon Terrace Road,,90704,Avalon,http://egis3.lacounty.gov/dataportal/2012/06/19/la-county-address-points/
-118.3314871,33.35564663,,64,Gaviota,,90704,Avalon,http://egis3.lacounty.gov/dataportal/2012/06/19/la-county-address-points/
-118.3305255,33.3548289,,64,Playa Azul,,90704,Avalon,http://egis3.lacounty.gov/dataportal/2012/06/19/la-county-address-points/
-118.3308152,33.35349993,,65,Camino De Flores,,90704,Avalon,http://egis3.lacounty.gov/dataportal/2012/06/19/la-county-address-points/
-118.3234271,33.33960865,7480050041,65,Wrigley Terrace Road,,90704,Avalon,http://egis3.lacounty.gov/dataportal/2012/06/19/la-county-address-points/
-118.3313848,33.35574154,,65,Gaviota,,90704,Avalon,http://egis3.lacounty.gov/dataportal/2012/06/19/la-county-address-points/
-118.3305931,33.35487349,,65,Playa Azul,,90704,Avalon,http://egis3.lacounty.gov/dataportal/2012/06/19/la-county-address-points/
-118.3307164,33.35345289,,66,Camino De Flores,,90704,Avalon,http://egis3.lacounty.gov/dataportal/2012/06/19/la-county-address-points/
-118.3233948,33.33965009,7480050042,66,Avalon Terrace Road,,90704,Avalon,http://egis3.lacounty.gov/dataportal/2012/06/19/la-county-address-points/
-118.3315856,33.35560664,,66,Gaviota,,90704,Avalon,http://egis3.lacounty.gov/dataportal/2012/06/19/la-county-address-points/
-118.3306194,33.35490552,,66,Playa Azul,,90704,Avalon,http://egis3.lacounty.gov/dataportal/2012/06/19/la-county-address-points/
-118.3306569,33.3534218,,67,Camino De Flores,,90704,Avalon,http://egis3.lacounty.gov/dataportal/2012/06/19/la-county-address-points/
-118.3233626,33.33969136,7480050043,67,Wrigley Terrace Road,,90704,Avalon,http://egis3.lacounty.gov/dataportal/2012/06/19/la-county-address-points/
-118.3315114,33.35568373,,67,Gaviota,,90704,Avalon,http://egis3.lacounty.gov/dataportal/2012/06/19/la-county-address-points/
-118.33067,33.35496706,,67,Playa Azul,,90704,Avalon,http://egis3.lacounty.gov/dataportal/2012/06/19/la-county-address-points/
-118.3308958,33.35349802,,68,Camino De Flores,,90704,Avalon,http://egis3.lacounty.gov/dataportal/2012/06/19/la-county-address-points/
-118.3233304,33.33973282,7480050044,68,Canyon Terrace Road,,90704,Avalon,http://egis3.lacounty.gov/dataportal/2012/06/19/la-county-address-points/
-118.3314232,33.35576762,,68,Gaviota,,90704,Avalon,http://egis3.lacounty.gov/dataportal/2012/06/19/la-county-address-points/
-118.3305018,33.35470476,,68,Playa Azul,,90704,Avalon,http://egis3.lacounty.gov/dataportal/2012/06/19/la-county-address-points/
-118.330814,33.35344924,,69,Camino De Flores,,90704,Avalon,http://egis3.lacounty.gov/dataportal/2012/06/19/la-county-address-points/
-118.3232933,33.33977961,7480050045,69,Wrigley Terrace Road,,90704,Avalon,http://egis3.lacounty.gov/dataportal/2012/06/19/la-county-address-points/
-118.331616,33.35564205,,69,Gaviota,,90704,Avalon,http://egis3.lacounty.gov/dataportal/2012/06/19/la-county-address-points/
-118.3305646,33.35480006,,69,Playa Azul,,90704,Avalon,http://egis3.lacounty.gov/dataportal/2012/06/19/la-county-address-points/
-118.3307283,33.35340808,,70,Camino De Flores,,90704,Avalon,http://egis3.lacounty.gov/dataportal/2012/06/19/la-county-address-points/
-118.3234685,33.33989023,7480050046,70,Canyon Terrace Road,,90704,Avalon,http://egis3.lacounty.gov/dataportal/2012/06/19/la-county-address-points/
-118.3234685,33.33989023,7480050046,70,Avalon Terrace Road,,90704,Avalon,http://egis3.lacounty.gov/dataportal/2012/06/19/la-county-address-points/
-118.3315418,33.35572083,,70,Gaviota,,90704,Avalon,http://egis3.lacounty.gov/dataportal/2012/06/19/la-county-address-points/
-118.3306272,33.35484129,,70,Playa Azul,,90704,Avalon,http://egis3.lacounty.gov/dataportal/2012/06/19/la-county-address-points/
-118.3309238,33.3534633,,71,Camino De Flores,,90704,Avalon,http://egis3.lacounty.gov/dataportal/2012/06/19/la-county-address-points/
-118.3235073,33.33984934,7480050047,71,Wrigley Terrace Road,,90704,Avalon,http://egis3.lacounty.gov/dataportal/2012/06/19/la-county-address-points/
-118.3314816,33.35577169,,71,Gaviota,,90704,Avalon,http://egis3.lacounty.gov/dataportal/2012/06/19/la-county-address-points/
-118.3306535,33.35486656,,71,Playa Azul,,90704,Avalon,http://egis3.lacounty.gov/dataportal/2012/06/19/la-county-address-points/
-118.3308431,33.35341452,,72,Camino De Flores,,90704,Avalon,http://egis3.lacounty.gov/dataportal/2012/06/19/la-county-address-points/
-118.3235491,33.33980535,7480050048,72,Canyon Terrace Road,,90704,Avalon,http://egis3.lacounty.gov/dataportal/2012/06/19/la-county-address-points/
-118.3235491,33.33980535,7480050048,72,Avalon Terrace Road,,90704,Avalon,http://egis3.lacounty.gov/dataportal/2012/06/19/la-county-address-points/
-118.3316644,33.3556774,,72,Gaviota,,90704,Avalon,http://egis3.lacounty.gov/dataportal/2012/06/19/la-county-address-points/
-118.3306697,33.35488764,,72,Playa Azul,,90704,Avalon,http://egis3.lacounty.gov/dataportal/2012/06/19/la-county-address-points/
-118.3307533,33.35337422,,73,Camino De Flores,,90704,Avalon,http://egis3.lacounty.gov/dataportal/2012/06/19/la-county-address-points/
-118.3237603,33.33986706,7480050049,73,Wrigley Terrace Road,,90704,Avalon,http://egis3.lacounty.gov/dataportal/2012/06/19/la-county-address-points/
-118.331544,33.35578503,,73,Gaviota,,90704,Avalon,http://egis3.lacounty.gov/dataportal/2012/06/19/la-county-address-points/
-118.3307222,33.35494664,,73,Playa Azul,,90704,Avalon,http://egis3.lacounty.gov/dataportal/2012/06/19/la-county-address-points/
-118.3309579,33.35343448,,74,Camino De Flores,,90704,Avalon,http://egis3.lacounty.gov/dataportal/2012/06/19/la-county-address-points/
-118.3237894,33.33982087,7480050050,74,Avalon Terrace Road,,90704,Avalon,http://egis3.lacounty.gov/dataportal/2012/06/19/la-county-address-points/
-118.3237894,33.33982087,7480050050,74,Canyon Terrace Road,,90704,Avalon,http://egis3.lacounty.gov/dataportal/2012/06/19/la-county-address-points/
-118.3317059,33.35572966,,74,Gaviota,,90704,Avalon,http://egis3.lacounty.gov/dataportal/2012/06/19/la-county-address-points/
-118.330556,33.35466068,,74,Playa Azul,,90704,Avalon,http://egis3.lacounty.gov/dataportal/2012/06/19/la-county-address-points/
-118.3308762,33.35338064,,75,Camino De Flores,,90704,Avalon,http://egis3.lacounty.gov/dataportal/2012/06/19/la-county-address-points/
-118.3238212,33.33977137,7480050051,75,Wrigley Terrace Road,,90704,Avalon,http://egis3.lacounty.gov/dataportal/2012/06/19/la-county-address-points/
-118.3315966,33.35583558,,75,,,90704,Avalon,http://egis3.lacounty.gov/dataportal/2012/06/19/la-county-address-points/
-118.3305705,33.35474767,,75,Playa Azul,,90704,Avalon,http://egis3.lacounty.gov/dataportal/2012/06/19/la-county-address-points/
-118.3307814,33.35333865,,76,Camino De Flores,,90704,Avalon,http://egis3.lacounty.gov/dataportal/2012/06/19/la-county-address-points/
-118.3239932,33.33984864,7480050052,76,Avalon Terrace Road,,90704,Avalon,http://egis3.lacounty.gov/dataportal/2012/06/19/la-county-address-points/
-118.3239932,33.33984864,7480050052,76,Canyon Terrace Road,,90704,Avalon,http://egis3.lacounty.gov/dataportal/2012/06/19/la-county-address-points/
-118.3256835,33.3352741,7480003009,76,Wrigley Road,,90704,Avalon,http://egis3.lacounty.gov/dataportal/2012/06/19/la-county-address-points/
-118.3319985,33.35536724,,76,Gaviota,,90704,Avalon,http://egis3.lacounty.gov/dataportal/2012/06/19/la-county-address-points/
-118.3306522,33.35479306,,76,Playa Azul,,90704,Avalon,http://egis3.lacounty.gov/dataportal/2012/06/19/la-county-address-points/
-118.3309991,33.35340987,,77,Camino De Flores,,90704,Avalon,http://egis3.lacounty.gov/dataportal/2012/06/19/la-county-address-points/
-118.3239594,33.33989721,7480050053,77,Wrigley Terrace Road,,90704,Avalon,http://egis3.lacounty.gov/dataportal/2012/06/19/la-county-address-points/
-118.3318849,33.35541994,,77,Gaviota,,90704,Avalon,http://egis3.lacounty.gov/dataportal/2012/06/19/la-county-address-points/
-118.3307237,33.35480385,,77,Playa Azul,,90704,Avalon,http://egis3.lacounty.gov/dataportal/2012/06/19/la-county-address-points/
-118.3308912,33.35335863,,78,Camino De Flores,,90704,Avalon,http://egis3.lacounty.gov/dataportal/2012/06/19/la-county-address-points/
-118.323928,33.33994226,7480050054,78,Canyon Terrace Road,,90704,Avalon,http://egis3.lacounty.gov/dataportal/2012/06/19/la-county-address-points/
-118.323928,33.33994226,7480050054,78,Avalon Terrace Road,,90704,Avalon,http://egis3.lacounty.gov/dataportal/2012/06/19/la-county-address-points/
-118.3317693,33.35546588,,78,Gaviota,,90704,Avalon,http://egis3.lacounty.gov/dataportal/2012/06/19/la-county-address-points/
-118.3307681,33.35483921,,78,Playa Azul,,90704,Avalon,http://egis3.lacounty.gov/dataportal/2012/06/19/la-county-address-points/
-118.3307993,33.35329129,,79,Camino De Flores,,90704,Avalon,http://egis3.lacounty.gov/dataportal/2012/06/19/la-county-address-points/
-118.324157,33.33992785,7480050055,79,Avalon Terrace Road,,90704,Avalon,http://egis3.lacounty.gov/dataportal/2012/06/19/la-county-address-points/
-118.324157,33.33992785,7480050055,79,Canyon Terrace Road,,90704,Avalon,http://egis3.lacounty.gov/dataportal/2012/06/19/la-county-address-points/
-118.3320248,33.35541026,,79,Gaviota,,90704,Avalon,http://egis3.lacounty.gov/dataportal/2012/06/19/la-county-address-points/
-118.3307855,33.35489831,,79,Playa Azul,,90704,Avalon,http://egis3.lacounty.gov/dataportal/2012/06/19/la-county-address-points/
-118.3309818,33.35334993,,80,Camino De Flores,,90704,Avalon,http://egis3.lacounty.gov/dataportal/2012/06/19/la-county-address-points/
-118.3242221,33.33993809,7480050056,80,Wrigley Terrace Road,,90704,Avalon,http://egis3.lacounty.gov/dataportal/2012/06/19/la-county-address-points/
-118.3319082,33.35545705,,80,Gaviota,,90704,Avalon,http://egis3.lacounty.gov/dataportal/2012/06/19/la-county-address-points/
-118.3307205,33.35449125,,80,Playa Azul,,90704,Avalon,http://egis3.lacounty.gov/dataportal/2012/06/19/la-county-address-points/
-118.3308577,33.35328691,,81,Camino De Flores,,90704,Avalon,http://egis3.lacounty.gov/dataportal/2012/06/19/la-county-address-points/
-118.3242886,33.33994527,7480050057,81,Canyon Terrace Road,,90704,Avalon,http://egis3.lacounty.gov/dataportal/2012/06/19/la-county-address-points/
-118.3242886,33.33994527,7480050057,81,Avalon Terrace Road,,90704,Avalon,http://egis3.lacounty.gov/dataportal/2012/06/19/la-county-address-points/
-118.3318007,33.35550128,,81,Gaviota,,90704,Avalon,http://egis3.lacounty.gov/dataportal/2012/06/19/la-county-address-points/
-118.3307141,33.354411,,81,Playa Azul,,90704,Avalon,http://egis3.lacounty.gov/dataportal/2012/06/19/la-county-address-points/
-118.3242992,33.34015343,7480050058,82,Wrigley Terrace Road,,90704,Avalon,http://egis3.lacounty.gov/dataportal/2012/06/19/la-county-address-points/
-118.3320451,33.355444,,82,Gaviota,,90704,Avalon,http://egis3.lacounty.gov/dataportal/2012/06/19/la-county-address-points/
-118.3306926,33.35432995,,82,Playa Azul,,90704,Avalon,http://egis3.lacounty.gov/dataportal/2012/06/19/la-county-address-points/
-118.3243483,33.34011472,7480050059,83,Upper Terrace Road,,90704,Avalon,http://egis3.lacounty.gov/dataportal/2012/06/19/la-county-address-points/
-118.3319295,33.35549417,,83,Gaviota,,90704,Avalon,http://egis3.lacounty.gov/dataportal/2012/06/19/la-county-address-points/
-118.3306783,33.35425987,,83,Playa Azul,,90704,Avalon,http://egis3.lacounty.gov/dataportal/2012/06/19/la-county-address-points/
-118.3243914,33.34008102,7480050060,84,Wrigley Terrace Road,,90704,Avalon,http://egis3.lacounty.gov/dataportal/2012/06/19/la-county-address-points/
-118.331825,33.3555443,,84,Gaviota,,90704,Avalon,http://egis3.lacounty.gov/dataportal/2012/06/19/la-county-address-points/
-118.3307697,33.35447337,,84,Playa Azul,,90704,Avalon,http://egis3.lacounty.gov/dataportal/2012/06/19/la-county-address-points/
-118.3244343,33.34004729,7480050061,85,Canyon Terrace Road,,90704,Avalon,http://egis3.lacounty.gov/dataportal/2012/06/19/la-county-address-points/
-118.3244343,33.34004729,7480050061,85,Avalon Terrace Road,,90704,Avalon,http://egis3.lacounty.gov/dataportal/2012/06/19/la-county-address-points/
-118.3320613,33.35548282,,85,Gaviota,,90704,Avalon,http://egis3.lacounty.gov/dataportal/2012/06/19/la-county-address-points/
-118.3307584,33.35440497,,85,Playa Azul,,90704,Avalon,http://egis3.lacounty.gov/dataportal/2012/06/19/la-county-address-points/
-118.3244774,33.34001357,7480050062,86,Wrigley Terrace Road,,90704,Avalon,http://egis3.lacounty.gov/dataportal/2012/06/19/la-county-address-points/
-118.3319548,33.35552789,,86,Gaviota,,90704,Avalon,http://egis3.lacounty.gov/dataportal/2012/06/19/la-county-address-points/
-118.330748,33.35432389,,86,Playa Azul,,90704,Avalon,http://egis3.lacounty.gov/dataportal/2012/06/19/la-county-address-points/
-118.3245276,33.33997776,7480050063,87,Canyon Terrace Road,,90704,Avalon,http://egis3.lacounty.gov/dataportal/2012/06/19/la-county-address-points/
-118.3245276,33.33997776,7480050063,87,Avalon Terrace Road,,90704,Avalon,http://egis3.lacounty.gov/dataportal/2012/06/19/la-county-address-points/
-118.3318442,33.35557129,,87,Gaviota,,90704,Avalon,http://egis3.lacounty.gov/dataportal/2012/06/19/la-county-address-points/
-118.3307356,33.35425126,,87,Playa Azul,,90704,Avalon,http://egis3.lacounty.gov/dataportal/2012/06/19/la-county-address-points/
-118.3247166,33.34004985,7480050064,88,Wrigley Terrace Road,,90704,Avalon,http://egis3.lacounty.gov/dataportal/2012/06/19/la-county-address-points/
-118.3320767,33.35553516,,88,Gaviota,,90704,Avalon,http://egis3.lacounty.gov/dataportal/2012/06/19/la-county-address-points/
-118.330821,33.35446816,,88,Playa Azul,,90704,Avalon,http://egis3.lacounty.gov/dataportal/2012/06/19/la-county-address-points/
-118.3246763,33.34009487,7480050065,89,Canyon Terrace Road,,90704,Avalon,http://egis3.lacounty.gov/dataportal/2012/06/19/la-county-address-points/
-118.3246763,33.34009487,7480050065,89,Avalon Terrace Road,,90704,Avalon,http://egis3.lacounty.gov/dataportal/2012/06/19/la-county-address-points/
-118.3319762,33.35558191,,89,Gaviota,,90704,Avalon,http://egis3.lacounty.gov/dataportal/2012/06/19/la-county-address-points/
-118.3308077,33.35439892,,89,Playa Azul,,90704,Avalon,http://egis3.lacounty.gov/dataportal/2012/06/19/la-county-address-points/
-118.3246407,33.34013437,7480050066,90,Wrigley Terrace Road,,90704,Avalon,http://egis3.lacounty.gov/dataportal/2012/06/19/la-county-address-points/
-118.3307943,33.35431277,,90,Playa Azul,,90704,Avalon,http://egis3.lacounty.gov/dataportal/2012/06/19/la-county-address-points/
-118.3246054,33.34017391,7480050067,91,Upper Terrace Road,,90704,Avalon,http://egis3.lacounty.gov/dataportal/2012/06/19/la-county-address-points/
-118.3307809,33.35424776,,91,Playa Azul,,90704,Avalon,http://egis3.lacounty.gov/dataportal/2012/06/19/la-county-address-points/
-118.3245696,33.34021327,7480050068,92,Wrigley Terrace Road,,90704,Avalon,http://egis3.lacounty.gov/dataportal/2012/06/19/la-county-address-points/
-118.3308772,33.35442069,,92,Playa Azul,,90704,Avalon,http://egis3.lacounty.gov/dataportal/2012/06/19/la-county-address-points/
-118.3245343,33.34025296,7480050069,93,Upper Terrace Road,,90704,Avalon,http://egis3.lacounty.gov/dataportal/2012/06/19/la-county-address-points/
-118.3308679,33.3543413,,93,Playa Azul,,90704,Avalon,http://egis3.lacounty.gov/dataportal/2012/06/19/la-county-address-points/
-118.3244987,33.34029214,7480050070,94,Wrigley Terrace Road,,90704,Avalon,http://egis3.lacounty.gov/dataportal/2012/06/19/la-county-address-points/
-118.3308505,33.35427122,,94,Playa Azul,,90704,Avalon,http://egis3.lacounty.gov/dataportal/2012/06/19/la-county-address-points/
-118.3244621,33.34033827,7480050071,95,Upper Terrace Road,,90704,Avalon,http://egis3.lacounty.gov/dataportal/2012/06/19/la-county-address-points/
-118.3309527,33.35442048,,95,Playa Azul,,90704,Avalon,http://egis3.lacounty.gov/dataportal/2012/06/19/la-county-address-points/
-118.3309313,33.35433267,,96,Playa Azul,,90704,Avalon,http://egis3.lacounty.gov/dataportal/2012/06/19/la-county-address-points/
-118.3309179,33.35426343,,97,Playa Azul,,90704,Avalon,http://egis3.lacounty.gov/dataportal/2012/06/19/la-county-address-points/
-118.3280551,33.34636906,7480022055,100,Hill Street,,90704,Avalon,http://egis3.lacounty.gov/dataportal/2012/06/19/la-county-address-points/
-118.3307799,33.33924073,7480002900,100,Falls Canyon Road,,90704,Avalon,http://egis3.lacounty.gov/dataportal/2012/06/19/la-county-address-points/
-118.329745,33.34601989,7480023022,101,Vieudelou Avenue,,90704,Avalon,http://egis3.lacounty.gov/dataportal/2012/06/19/la-county-address-points/
-118.3233797,33.34296393,7480005005,101,Pebbly Beach Road,,90704,Avalon,http://egis3.lacounty.gov/dataportal/2012/06/19/la-county-address-points/
-118.3307649,33.34035997,7480002080,101,Country Club Drive,,90704,Avalon,http://egis3.lacounty.gov/dataportal/2012/06/19/la-county-address-points/
-118.3295804,33.34632384,7480022062,102,Chimes Tower Road,,90704,Avalon,http://egis3.lacounty.gov/dataportal/2012/06/19/la-county-address-points/
-118.3295937,33.34584043,7480023011,103,Vieudelou Avenue,,90704,Avalon,http://egis3.lacounty.gov/dataportal/2012/06/19/la-county-address-points/
-118.3276132,33.34597097,7480020001,103,Maiden Lane,,90704,Avalon,http://egis3.lacounty.gov/dataportal/2012/06/19/la-county-address-points/
-118.3247619,33.34141015,7480008050,104,Middle Terrace Road,,90704,Avalon,http://egis3.lacounty.gov/dataportal/2012/06/19/la-county-address-points/
-118.3295249,33.34575839,7480023010,105,Vieudelou Avenue,,90704,Avalon,http://egis3.lacounty.gov/dataportal/2012/06/19/la-county-address-points/
-118.3276452,33.34610805,7480020037,105,Crescent Avenue,,90704,Avalon,http://egis3.lacounty.gov/dataportal/2012/06/19/la-county-address-points/
-118.3277365,33.34606564,7480020037,106,Olive Street,,90704,Avalon,http://egis3.lacounty.gov/dataportal/2012/06/19/la-county-address-points/
-118.3246266,33.34155708,7480010015,106,Middle Terrace Road,,90704,Avalon,http://egis3.lacounty.gov/dataportal/2012/06/19/la-county-address-points/
-118.3294488,33.34566865,7480023009,107,Vieudelou Avenue,,90704,Avalon,http://egis3.lacounty.gov/dataportal/2012/06/19/la-county-address-points/
-118.3277281,33.34590731,7480020002,107,Maiden Lane,,90704,Avalon,http://egis3.lacounty.gov/dataportal/2012/06/19/la-county-address-points/
-118.323259,33.34309825,7480005032,107,Pebbly Beach Road,,90704,Avalon,http://egis3.lacounty.gov/dataportal/2012/06/19/la-county-address-points/
-118.3297034,33.34181917,,107,Tremont Street,,90704,Avalon,http://egis3.lacounty.gov/dataportal/2012/06/19/la-county-address-points/
-118.3291718,33.34575702,7480022066,108,Vieudelou Avenue,,90704,Avalon,http://egis3.lacounty.gov/dataportal/2012/06/19/la-county-address-points/
-118.3277439,33.3455763,7480020012,108,Maiden Lane,,90704,Avalon,http://egis3.lacounty.gov/dataportal/2012/06/19/la-county-address-points/
-118.3274747,33.34503704,7480019012,108,Marilla Avenue,,90704,Avalon,http://egis3.lacounty.gov/dataportal/2012/06/19/la-county-address-points/
-118.3253712,33.34306274,7480015002,108,Catalina Avenue,,90704,Avalon,http://egis3.lacounty.gov/dataportal/2012/06/19/la-county-address-points/
-118.3244782,33.34160219,7480010016,108,Middle Terrace Road,,90704,Avalon,http://egis3.lacounty.gov/dataportal/2012/06/19/la-county-address-points/
-118.3293735,33.34557935,7480023008,109,Vieudelou Avenue,,90704,Avalon,http://egis3.lacounty.gov/dataportal/2012/06/19/la-county-address-points/
-118.327819,33.34586171,7480020006,109,Maiden Lane,,90704,Avalon,http://egis3.lacounty.gov/dataportal/2012/06/19/la-county-address-points/
-118.3248113,33.34275474,7480015015,109,Clarissa Avenue,,90704,Avalon,http://egis3.lacounty.gov/dataportal/2012/06/19/la-county-address-points/
-118.3296561,33.34186915,,109,Tremont Street,,90704,Avalon,http://egis3.lacounty.gov/dataportal/2012/06/19/la-county-address-points/
-118.3305902,33.34301921,7480028015,110,Bonita Way,,90704,Avalon,http://egis3.lacounty.gov/dataportal/2012/06/19/la-county-address-points/
-118.3322547,33.34352576,7480025003,110,Las Lomas Drive,,90704,Avalon,http://egis3.lacounty.gov/dataportal/2012/06/19/la-county-address-points/
-118.3290428,33.34652249,7480022063,110,Chimes Tower Road,,90704,Avalon,http://egis3.lacounty.gov/dataportal/2012/06/19/la-county-address-points/
-118.3279951,33.34628707,7480022056,110,Hill Street,,90704,Avalon,http://egis3.lacounty.gov/dataportal/2012/06/19/la-county-address-points/
-118.327897,33.34597936,,110,Olive Street,,90704,Avalon,http://egis3.lacounty.gov/dataportal/2012/06/19/la-county-address-points/
-118.3279547,33.34619506,7480022046,111,Olive Street,,90704,Avalon,http://egis3.lacounty.gov/dataportal/2012/06/19/la-county-address-points/
-118.3282409,33.34653799,7480022002,111,Hill Street,,90704,Avalon,http://egis3.lacounty.gov/dataportal/2012/06/19/la-county-address-points/
-118.3275556,33.34519158,7480020016,111,Marilla Avenue,,90704,Avalon,http://egis3.lacounty.gov/dataportal/2012/06/19/la-county-address-points/
-118.3273847,33.34485106,7480019023,111,Crescent Avenue,,90704,Avalon,http://egis3.lacounty.gov/dataportal/2012/06/19/la-county-address-points/
-118.3264738,33.3438533,7480017001,111,Sumner Avenue,,90704,Avalon,http://egis3.lacounty.gov/dataportal/2012/06/19/la-county-address-points/
-118.3248769,33.34268222,7480015017,111,Clarissa Avenue,,90704,Avalon,http://egis3.lacounty.gov/dataportal/2012/06/19/la-county-address-points/
-118.3296278,33.34192307,,111,Tremont Street,,90704,Avalon,http://egis3.lacounty.gov/dataportal/2012/06/19/la-county-address-points/
-118.3279938,33.34591422,7480020005,112,Olive Street,,90704,Avalon,http://egis3.lacounty.gov/dataportal/2012/06/19/la-county-address-points/
-118.3245664,33.34252293,7480011001,112,Clarissa Avenue,,90704,Avalon,http://egis3.lacounty.gov/dataportal/2012/06/19/la-county-address-points/
-118.3293129,33.3455079,7480023007,113,Vieudelou Avenue,,90704,Avalon,http://egis3.lacounty.gov/dataportal/2012/06/19/la-county-address-points/
-118.3295805,33.34197504,,113,Tremont Street,,90704,Avalon,http://egis3.lacounty.gov/dataportal/2012/06/19/la-county-address-points/
-118.3276538,33.34501001,,114,Marilla Avenue,1,90704,Avalon,http://egis3.lacounty.gov/dataportal/2012/06/19/la-county-address-points/
-118.3276538,33.34501001,,114,Marilla Avenue,2,90704,Avalon,http://egis3.lacounty.gov/dataportal/2012/06/19/la-county-address-points/
-118.3276538,33.34501001,,114,Marilla Avenue,3,90704,Avalon,http://egis3.lacounty.gov/dataportal/2012/06/19/la-county-address-points/
-118.3276538,33.34501001,,114,Marilla Avenue,4,90704,Avalon,http://egis3.lacounty.gov/dataportal/2012/06/19/la-county-address-points/
-118.3281786,33.34627288,7480022015,114,Hill Street,,90704,Avalon,http://egis3.lacounty.gov/dataportal/2012/06/19/la-county-address-points/
-118.3286455,33.3462753,7480022005,114,Chimes Tower Road,,90704,Avalon,http://egis3.lacounty.gov/dataportal/2012/06/19/la-county-address-points/
-118.3281043,33.34585714,7480020030,114,Olive Street,,90704,Avalon,http://egis3.lacounty.gov/dataportal/2012/06/19/la-county-address-points/
-118.3278761,33.34553031,7480020013,114,Maiden Lane,,90704,Avalon,http://egis3.lacounty.gov/dataportal/2012/06/19/la-county-address-points/
-118.3254315,33.34299588,7480015003,114,Catalina Avenue,,90704,Avalon,http://egis3.lacounty.gov/dataportal/2012/06/19/la-county-address-points/
-118.324641,33.34247686,7480011002,114,Clarissa Avenue,,90704,Avalon,http://egis3.lacounty.gov/dataportal/2012/06/19/la-county-address-points/
-118.3280887,33.34614968,7480022016,115,Olive Street,,90704,Avalon,http://egis3.lacounty.gov/dataportal/2012/06/19/la-county-address-points/
-118.3278854,33.34531182,7480020017,115,Marilla Avenue,,90704,Avalon,http://egis3.lacounty.gov/dataportal/2012/06/19/la-county-address-points/
-118.3226023,33.34168568,7480009007,115,Lower Terrace Road,,90704,Avalon,http://egis3.lacounty.gov/dataportal/2012/06/19/la-county-address-points/
-118.3255133,33.34290479,7480015016,116,Catalina Avenue,,90704,Avalon,http://egis3.lacounty.gov/dataportal/2012/06/19/la-county-address-points/
-118.3247097,33.34242335,7480011032,116,Clarissa Avenue,,90704,Avalon,http://egis3.lacounty.gov/dataportal/2012/06/19/la-county-address-points/
-118.327541,33.34473568,7480019013,117,West Whittley Avenue,,90704,Avalon,http://egis3.lacounty.gov/dataportal/2012/06/19/la-county-address-points/
-118.3292415,33.34542246,7480023006,117,Vieudelou Avenue,,90704,Avalon,http://egis3.lacounty.gov/dataportal/2012/06/19/la-county-address-points/
-118.3279629,33.34576958,7480020029,117,Maiden Lane,,90704,Avalon,http://egis3.lacounty.gov/dataportal/2012/06/19/la-county-address-points/
-118.3272409,33.3433404,7480017025,117,Sumner Avenue,,90704,Avalon,http://egis3.lacounty.gov/dataportal/2012/06/19/la-county-address-points/
-118.3249619,33.34258727,7480015018,117,Clarissa Avenue,,90704,Avalon,http://egis3.lacounty.gov/dataportal/2012/06/19/la-county-address-points/
-118.3276314,33.34423327,7480018909,118,West Whittley Avenue,,90704,Avalon,http://egis3.lacounty.gov/dataportal/2012/06/19/la-county-address-points/
-118.3263328,33.34325599,7480016007,118,Sumner Avenue,,90704,Avalon,http://egis3.lacounty.gov/dataportal/2012/06/19/la-county-address-points/
-118.3282071,33.3460882,7480022019,119,Olive Street,,90704,Avalon,http://egis3.lacounty.gov/dataportal/2012/06/19/la-county-address-points/
-118.3283068,33.34560098,7480020028,119,Maiden Lane,,90704,Avalon,http://egis3.lacounty.gov/dataportal/2012/06/19/la-county-address-points/
-118.3250265,33.34251556,7480015010,119,Clarissa Avenue,,90704,Avalon,http://egis3.lacounty.gov/dataportal/2012/06/19/la-county-address-points/
-118.3275735,33.34442586,7480018024,120,West Whittley Avenue,,90704,Avalon,http://egis3.lacounty.gov/dataportal/2012/06/19/la-county-address-points/
-118.3282899,33.34621513,7480022017,120,Hill Street,,90704,Avalon,http://egis3.lacounty.gov/dataportal/2012/06/19/la-county-address-points/
-118.327812,33.34500679,7480019004,120,Marilla Avenue,,90704,Avalon,http://egis3.lacounty.gov/dataportal/2012/06/19/la-county-address-points/
-118.3255912,33.34281836,7480015006,120,Catalina Avenue,,90704,Avalon,http://egis3.lacounty.gov/dataportal/2012/06/19/la-county-address-points/
-118.3276753,33.3447023,7480019014,121,West Whittley Avenue,,90704,Avalon,http://egis3.lacounty.gov/dataportal/2012/06/19/la-county-address-points/
-118.3291659,33.3453333,7480023005,121,Vieudelou Avenue,,90704,Avalon,http://egis3.lacounty.gov/dataportal/2012/06/19/la-county-address-points/
-118.325069,33.34246812,7480015009,121,Clarissa Avenue,,90704,Avalon,http://egis3.lacounty.gov/dataportal/2012/06/19/la-county-address-points/
-118.3284012,33.34615744,7480022018,122,Hill Street,,90704,Avalon,http://egis3.lacounty.gov/dataportal/2012/06/19/la-county-address-points/
-118.3289489,33.34535627,7480020026,122,Vieudelou Avenue,,90704,Avalon,http://egis3.lacounty.gov/dataportal/2012/06/19/la-county-address-points/
-118.3264487,33.3431241,7480016009,122,Sumner Avenue,,90704,Avalon,http://egis3.lacounty.gov/dataportal/2012/06/19/la-county-address-points/
-118.3247708,33.34235751,7480011027,122,Clarissa Avenue,,90704,Avalon,http://egis3.lacounty.gov/dataportal/2012/06/19/la-county-address-points/
-118.3226749,33.34204921,7480010036,122,Middle Terrace Road,,90704,Avalon,http://egis3.lacounty.gov/dataportal/2012/06/19/la-county-address-points/
-118.3290941,33.34524782,7480023021,123,Vieudelou Avenue,,90704,Avalon,http://egis3.lacounty.gov/dataportal/2012/06/19/la-county-address-points/
-118.3283184,33.34603055,7480022020,123,Olive Street,,90704,Avalon,http://egis3.lacounty.gov/dataportal/2012/06/19/la-county-address-points/
-118.3280797,33.34529086,7480020018,123,Marilla Avenue,,90704,Avalon,http://egis3.lacounty.gov/dataportal/2012/06/19/la-county-address-points/
-118.3273441,33.34410377,7480018004,123,Metropole Avenue,,90704,Avalon,http://egis3.lacounty.gov/dataportal/2012/06/19/la-county-address-points/
-118.3227476,33.34165246,7480009028,123,Lower Terrace Road,,90704,Avalon,http://egis3.lacounty.gov/dataportal/2012/06/19/la-county-address-points/
-118.3299726,33.3449437,7480023027,124,,,90704,Avalon,http://egis3.lacounty.gov/dataportal/2012/06/19/la-county-address-points/
-118.3284229,33.34640306,7480022065,124,Chimes Tower Road,,90704,Avalon,http://egis3.lacounty.gov/dataportal/2012/06/19/la-county-address-points/
-118.3248212,33.34230143,7480011028,124,Clarissa Avenue,,90704,Avalon,http://egis3.lacounty.gov/dataportal/2012/06/19/la-county-address-points/
-118.3284272,33.34598219,7480022044,125,Olive Street,,90704,Avalon,http://egis3.lacounty.gov/dataportal/2012/06/19/la-county-address-points/
-118.3274983,33.34399868,7480018009,125,Metropole Avenue,,90704,Avalon,http://egis3.lacounty.gov/dataportal/2012/06/19/la-county-address-points/
-118.3251396,33.34238961,7480015008,125,3rd Street,,90704,Avalon,http://egis3.lacounty.gov/dataportal/2012/06/19/la-county-address-points/
-118.3297539,33.34514944,7480023028,126,,,90704,Avalon,http://egis3.lacounty.gov/dataportal/2012/06/19/la-county-address-points/
-118.3279268,33.34500381,7480019005,126,Marilla Avenue,,90704,Avalon,http://egis3.lacounty.gov/dataportal/2012/06/19/la-county-address-points/
-118.3256207,33.34275399,7480015007,126,Catalina Avenue,,90704,Avalon,http://egis3.lacounty.gov/dataportal/2012/06/19/la-county-address-points/
-118.3248619,33.34226042,7480011006,126,Clarissa Avenue,,90704,Avalon,http://egis3.lacounty.gov/dataportal/2012/06/19/la-county-address-points/
-118.329003,33.34513974,7480023002,127,Vieudelou Avenue,,90704,Avalon,http://egis3.lacounty.gov/dataportal/2012/06/19/la-county-address-points/
-118.328206,33.34526825,7480020019,127,Marilla Avenue,,90704,Avalon,http://egis3.lacounty.gov/dataportal/2012/06/19/la-county-address-points/
-118.3287282,33.34526629,7480020025,128,Vieudelou Avenue,,90704,Avalon,http://egis3.lacounty.gov/dataportal/2012/06/19/la-county-address-points/
-118.3280651,33.34496392,7480019006,128,Marilla Avenue,,90704,Avalon,http://egis3.lacounty.gov/dataportal/2012/06/19/la-county-address-points/
-118.3266093,33.34252594,7480016009,128,Sumner Avenue,,90704,Avalon,http://egis3.lacounty.gov/dataportal/2012/06/19/la-county-address-points/
-118.3248954,33.34222315,7480011007,128,Clarissa Avenue,,90704,Avalon,http://egis3.lacounty.gov/dataportal/2012/06/19/la-county-address-points/
-118.3279119,33.34464377,7480019015,129,West Whittley Avenue,,90704,Avalon,http://egis3.lacounty.gov/dataportal/2012/06/19/la-county-address-points/
-118.3285387,33.34592441,7480022043,129,Olive Street,,90704,Avalon,http://egis3.lacounty.gov/dataportal/2012/06/19/la-county-address-points/
-118.3277568,33.34434536,7480018005,130,West Whittley Avenue,,90704,Avalon,http://egis3.lacounty.gov/dataportal/2012/06/19/la-county-address-points/
-118.3297217,33.3450114,7480023016,130,,,90704,Avalon,http://egis3.lacounty.gov/dataportal/2012/06/19/la-county-address-points/
-118.3282318,33.34493332,7480019007,130,Marilla Avenue,,90704,Avalon,http://egis3.lacounty.gov/dataportal/2012/06/19/la-county-address-points/
-118.3247447,33.34198269,7480011038,130,Clarissa Avenue,,90704,Avalon,http://egis3.lacounty.gov/dataportal/2012/06/19/la-county-address-points/
-118.3228873,33.34187185,7480010050,130,Middle Terrace Road,,90704,Avalon,http://egis3.lacounty.gov/dataportal/2012/06/19/la-county-address-points/
-118.3288133,33.34629723,7480022045,131,Hill Street,,90704,Avalon,http://egis3.lacounty.gov/dataportal/2012/06/19/la-county-address-points/
-118.3278023,33.34381109,7480018009,131,Metropole Avenue,,90704,Avalon,http://egis3.lacounty.gov/dataportal/2012/06/19/la-county-address-points/
-118.3286995,33.34513714,7480020024,132,Vieudelou Avenue,,90704,Avalon,http://egis3.lacounty.gov/dataportal/2012/06/19/la-county-address-points/
-118.3227616,33.34192018,7480010049,132,Middle Terrace Road,,90704,Avalon,http://egis3.lacounty.gov/dataportal/2012/06/19/la-county-address-points/
-118.3289805,33.34498679,7480023001,133,Vieudelou Avenue,,90704,Avalon,http://egis3.lacounty.gov/dataportal/2012/06/19/la-county-address-points/
-118.3233283,33.34167791,7480009014,133,Lower Terrace Road,,90704,Avalon,http://egis3.lacounty.gov/dataportal/2012/06/19/la-county-address-points/
-118.3278792,33.34430755,7480018006,134,West Whittley Avenue,,90704,Avalon,http://egis3.lacounty.gov/dataportal/2012/06/19/la-county-address-points/
-118.3296044,33.34496229,7480023017,134,,,90704,Avalon,http://egis3.lacounty.gov/dataportal/2012/06/19/la-county-address-points/
-118.3287439,33.34596998,7480022024,134,Hill Street,,90704,Avalon,http://egis3.lacounty.gov/dataportal/2012/06/19/la-county-address-points/
-118.3286507,33.34586767,7480022025,135,Olive Street,,90704,Avalon,http://egis3.lacounty.gov/dataportal/2012/06/19/la-county-address-points/
-118.3283337,33.34524537,7480020020,137,Marilla Avenue,,90704,Avalon,http://egis3.lacounty.gov/dataportal/2012/06/19/la-county-address-points/
-118.3280051,33.34431906,7480018007,138,West Whittley Avenue,,90704,Avalon,http://egis3.lacounty.gov/dataportal/2012/06/19/la-county-address-points/
-118.3294851,33.34488838,7480023023,138,,,90704,Avalon,http://egis3.lacounty.gov/dataportal/2012/06/19/la-county-address-points/
-118.32834,33.34453342,7480019016,139,Whittley Avenue,,90704,Avalon,http://egis3.lacounty.gov/dataportal/2012/06/19/la-county-address-points/
-118.3284633,33.34522214,7480020021,145,Marilla Avenue,,90704,Avalon,http://egis3.lacounty.gov/dataportal/2012/06/19/la-county-address-points/
-118.3285467,33.34512299,7480020022,147,Marilla Avenue,,90704,Avalon,http://egis3.lacounty.gov/dataportal/2012/06/19/la-county-address-points/
-118.3230662,33.3421986,7480010031,149,Lower Terrace Road,,90704,Avalon,http://egis3.lacounty.gov/dataportal/2012/06/19/la-county-address-points/
-118.3285864,33.34486822,7480019009,150,Marilla Avenue,,90704,Avalon,http://egis3.lacounty.gov/dataportal/2012/06/19/la-county-address-points/
-118.3236278,33.34198765,7480010022,150,Middle Terrace Road,,90704,Avalon,http://egis3.lacounty.gov/dataportal/2012/06/19/la-county-address-points/
-118.3275973,33.34571652,7480020010,153,Crescent Avenue,,90704,Avalon,http://egis3.lacounty.gov/dataportal/2012/06/19/la-county-address-points/
-118.3237961,33.34176018,7480009019,153,Lower Terrace Road,,90704,Avalon,http://egis3.lacounty.gov/dataportal/2012/06/19/la-county-address-points/
-118.3286506,33.3450657,7480020023,155,Marilla Avenue,,90704,Avalon,http://egis3.lacounty.gov/dataportal/2012/06/19/la-county-address-points/
-118.3275281,33.34562319,7480020011,155,Crescent Avenue,,90704,Avalon,http://egis3.lacounty.gov/dataportal/2012/06/19/la-county-address-points/
-118.3235969,33.34212436,7480010001,155,Lower Terrace Road,,90704,Avalon,http://egis3.lacounty.gov/dataportal/2012/06/19/la-county-address-points/
-118.3237977,33.34199712,7480010021,156,Middle Terrace Road,,90704,Avalon,http://egis3.lacounty.gov/dataportal/2012/06/19/la-county-address-points/
-118.327544,33.34548832,7480020031,159,Crescent Avenue,,90704,Avalon,http://egis3.lacounty.gov/dataportal/2012/06/19/la-county-address-points/
-118.3239875,33.34197765,7480010020,160,Middle Terrace Road,,90704,Avalon,http://egis3.lacounty.gov/dataportal/2012/06/19/la-county-address-points/
-118.3237357,33.34212803,7480010002,161,Lower Terrace Road,,90704,Avalon,http://egis3.lacounty.gov/dataportal/2012/06/19/la-county-address-points/
-118.3231053,33.34186545,7480010040,162,Middle Terrace Road,,90704,Avalon,http://egis3.lacounty.gov/dataportal/2012/06/19/la-county-address-points/
-118.3274035,33.34528403,7480020032,163,Crescent Avenue,,90704,Avalon,http://egis3.lacounty.gov/dataportal/2012/06/19/la-county-address-points/
-118.323368,33.34193984,7480010023,166,Middle Terrace Road,,90704,Avalon,http://egis3.lacounty.gov/dataportal/2012/06/19/la-county-address-points/
-118.3240468,33.342114,7480010004,173,Lower Terrace Road,,90704,Avalon,http://egis3.lacounty.gov/dataportal/2012/06/19/la-county-address-points/
-118.3241854,33.34206971,,175,Lower Terrace Road,,90704,Avalon,http://egis3.lacounty.gov/dataportal/2012/06/19/la-county-address-points/
-118.3243439,33.34167378,7480010017,176,Middle Terrace Road,,90704,Avalon,http://egis3.lacounty.gov/dataportal/2012/06/19/la-county-address-points/
-118.3244319,33.34138264,7480009800,181,Lower Terrace Road,,90704,Avalon,http://egis3.lacounty.gov/dataportal/2012/06/19/la-county-address-points/
-118.3243417,33.34187369,7480010007,183,Lower Terrace Road,,90704,Avalon,http://egis3.lacounty.gov/dataportal/2012/06/19/la-county-address-points/
-118.3244381,33.34178752,7480010008,187,Lower Terrace Road,,90704,Avalon,http://egis3.lacounty.gov/dataportal/2012/06/19/la-county-address-points/
-118.3289149,33.34679641,7480022030,189,Chimes Road,,90704,Avalon,http://egis3.lacounty.gov/dataportal/2012/06/19/la-county-address-points/
-118.3245712,33.3417211,7480010038,191,Lower Terrace,,90704,Avalon,http://egis3.lacounty.gov/dataportal/2012/06/19/la-county-address-points/
-118.3223678,33.34183399,7480009039,197,Lower Terrace Road,,90704,Avalon,http://egis3.lacounty.gov/dataportal/2012/06/19/la-county-address-points/
-118.328726,33.34679475,7480022029,199,Chimes Road,,90704,Avalon,http://egis3.lacounty.gov/dataportal/2012/06/19/la-county-address-points/
-118.3287127,33.34484152,7480019010,200,Marilla Avenue,,90704,Avalon,http://egis3.lacounty.gov/dataportal/2012/06/19/la-county-address-points/
-118.3258422,33.34253632,7480014001,200,Catalina Avenue,,90704,Avalon,http://egis3.lacounty.gov/dataportal/2012/06/19/la-county-address-points/
-118.3254241,33.34231601,7480013001,200,Descanso Avenue,,90704,Avalon,http://egis3.lacounty.gov/dataportal/2012/06/19/la-county-address-points/
-118.3249813,33.34212788,7480011009,200,Clarissa Avenue,,90704,Avalon,http://egis3.lacounty.gov/dataportal/2012/06/19/la-county-address-points/
-118.3242237,33.34177991,7480010018,200,Middle Terrace Road,,90704,Avalon,http://egis3.lacounty.gov/dataportal/2012/06/19/la-county-address-points/
-118.3320985,33.33861642,7480002907,200,Falls Canyon Road,,90704,Avalon,http://egis3.lacounty.gov/dataportal/2012/06/19/la-county-address-points/
-118.3305738,33.34165799,7480002072,200,Tremont Street,,90704,Avalon,http://egis3.lacounty.gov/dataportal/2012/06/19/la-county-address-points/
-118.3281205,33.34379188,,201,Calle Del Sol,A,90704,Avalon,http://egis3.lacounty.gov/dataportal/2012/06/19/la-county-address-points/
-118.3281205,33.34379188,,201,Calle Del Sol,B,90704,Avalon,http://egis3.lacounty.gov/dataportal/2012/06/19/la-county-address-points/
-118.3281205,33.34379188,,201,Calle Del Sol,C,90704,Avalon,http://egis3.lacounty.gov/dataportal/2012/06/19/la-county-address-points/
-118.3281205,33.34379188,,201,Calle Del Sol,D,90704,Avalon,http://egis3.lacounty.gov/dataportal/2012/06/19/la-county-address-points/
-118.3281962,33.34431828,7480027004,201,East Whittley Avenue,,90704,Avalon,http://egis3.lacounty.gov/dataportal/2012/06/19/la-county-address-points/
-118.3256545,33.3424673,7480014031,201,Descanso Avenue,,90704,Avalon,http://egis3.lacounty.gov/dataportal/2012/06/19/la-county-address-points/
-118.3252821,33.34222042,7480013034,201,Clarissa Avenue,,90704,Avalon,http://egis3.lacounty.gov/dataportal/2012/06/19/la-county-address-points/
-118.3250225,33.34208213,7480011010,202,Clarissa Avenue,,90704,Avalon,http://egis3.lacounty.gov/dataportal/2012/06/19/la-county-address-points/
-118.3281892,33.34424136,7480027003,203,East Whittley Avenue,,90704,Avalon,http://egis3.lacounty.gov/dataportal/2012/06/19/la-county-address-points/
-118.3256992,33.34241708,7480014030,203,Descanso Avenue,,90704,Avalon,http://egis3.lacounty.gov/dataportal/2012/06/19/la-county-address-points/
-118.3254718,33.34226276,7480013002,204,Descanso Avenue,,90704,Avalon,http://egis3.lacounty.gov/dataportal/2012/06/19/la-county-address-points/
-118.3250626,33.34203694,7480011011,204,Clarissa Avenue,,90704,Avalon,http://egis3.lacounty.gov/dataportal/2012/06/19/la-county-address-points/
-118.3282501,33.34366002,,205,Calle Del Sol,,90704,Avalon,http://egis3.lacounty.gov/dataportal/2012/06/19/la-county-address-points/
-118.3284934,33.34450661,7480019017,205,West Whittley Avenue,,90704,Avalon,http://egis3.lacounty.gov/dataportal/2012/06/19/la-county-address-points/
-118.327137,33.34314494,7480017026,205,Sumner Avenue,,90704,Avalon,http://egis3.lacounty.gov/dataportal/2012/06/19/la-county-address-points/
-118.3253392,33.34215732,7480013033,205,Clarissa Avenue,,90704,Avalon,http://egis3.lacounty.gov/dataportal/2012/06/19/la-county-address-points/
-118.3279282,33.34408509,7480018909,206,East Whittley Avenue,,90704,Avalon,http://egis3.lacounty.gov/dataportal/2012/06/19/la-county-address-points/
-118.3283899,33.34419622,7480027005,206,West Whittley Avenue,,90704,Avalon,http://egis3.lacounty.gov/dataportal/2012/06/19/la-county-address-points/
-118.3259197,33.34245006,7480014002,206,Catalina Avenue,,90704,Avalon,http://egis3.lacounty.gov/dataportal/2012/06/19/la-county-address-points/
-118.3255152,33.34221467,7480013041,206,Descanso Avenue,,90704,Avalon,http://egis3.lacounty.gov/dataportal/2012/06/19/la-county-address-points/
-118.3250975,33.34199363,7480011034,206,Clarissa Avenue,,90704,Avalon,http://egis3.lacounty.gov/dataportal/2012/06/19/la-county-address-points/
-118.3282501,33.34366002,,207,Calle Del Sol,,90704,Avalon,http://egis3.lacounty.gov/dataportal/2012/06/19/la-county-address-points/
-118.3286216,33.34448164,7480019018,207,West Whittley Avenue,,90704,Avalon,http://egis3.lacounty.gov/dataportal/2012/06/19/la-county-address-points/
-118.3291033,33.34304185,7480030007,207,Beacon Street,,90704,Avalon,http://egis3.lacounty.gov/dataportal/2012/06/19/la-county-address-points/
-118.3257427,33.34236888,7480014029,207,Descanso Avenue,,90704,Avalon,http://egis3.lacounty.gov/dataportal/2012/06/19/la-county-address-points/
-118.3253953,33.34209479,7480013032,207,Clarissa Avenue,,90704,Avalon,http://egis3.lacounty.gov/dataportal/2012/06/19/la-county-address-points/
-118.3214462,33.34118293,7480004007,207,Wrigley Terrace Road,,90704,Avalon,http://egis3.lacounty.gov/dataportal/2012/06/19/la-county-address-points/
-118.3284902,33.34417165,7480027006,208,West Whittley Avenue,,90704,Avalon,http://egis3.lacounty.gov/dataportal/2012/06/19/la-county-address-points/
-118.3259711,33.34239315,7480014003,208,Catalina Avenue,,90704,Avalon,http://egis3.lacounty.gov/dataportal/2012/06/19/la-county-address-points/
-118.32556,33.3421683,7480013004,208,Descanso Avenue,,90704,Avalon,http://egis3.lacounty.gov/dataportal/2012/06/19/la-county-address-points/
-118.3251389,33.34195267,7480011013,208,Clarissa Avenue,,90704,Avalon,http://egis3.lacounty.gov/dataportal/2012/06/19/la-county-address-points/
-118.3282501,33.34366002,,209,Calle Del Sol,,90704,Avalon,http://egis3.lacounty.gov/dataportal/2012/06/19/la-county-address-points/
-118.328162,33.34414333,7480027002,209,East Whittley Avenue,,90704,Avalon,http://egis3.lacounty.gov/dataportal/2012/06/19/la-county-address-points/
-118.3289894,33.3429869,7480030006,209,Beacon Street,,90704,Avalon,http://egis3.lacounty.gov/dataportal/2012/06/19/la-county-address-points/
-118.3258077,33.34229656,7480014028,209,Descanso Avenue,,90704,Avalon,http://egis3.lacounty.gov/dataportal/2012/06/19/la-county-address-points/
-118.3275654,33.34336886,7480017028,210,Metropole Avenue,,90704,Avalon,http://egis3.lacounty.gov/dataportal/2012/06/19/la-county-address-points/
-118.3256102,33.34212345,7480013005,210,Descanso Avenue,,90704,Avalon,http://egis3.lacounty.gov/dataportal/2012/06/19/la-county-address-points/
-118.3251794,33.34190704,7480011014,210,Clarissa Avenue,,90704,Avalon,http://egis3.lacounty.gov/dataportal/2012/06/19/la-county-address-points/
-118.3289563,33.34473074,,210,Marilla Avenue,,90704,Avalon,http://egis3.lacounty.gov/dataportal/2012/06/19/la-county-address-points/
-118.3289563,33.34473074,,211,West Whittley Avenue,,90704,Avalon,http://egis3.lacounty.gov/dataportal/2012/06/19/la-county-address-points/
-118.3279255,33.34351088,7480018043,211,Metropole Avenue,,90704,Avalon,http://egis3.lacounty.gov/dataportal/2012/06/19/la-county-address-points/
-118.3254863,33.34200803,7480013031,211,Clarissa Avenue,,90704,Avalon,http://egis3.lacounty.gov/dataportal/2012/06/19/la-county-address-points/
-118.3285896,33.34414682,7480027007,212,West Whittley Avenue,,90704,Avalon,http://egis3.lacounty.gov/dataportal/2012/06/19/la-county-address-points/
-118.3260223,33.34233608,7480014004,212,Catalina Avenue,,90704,Avalon,http://egis3.lacounty.gov/dataportal/2012/06/19/la-county-address-points/
-118.3256538,33.34207512,7480013006,212,Descanso Avenue,,90704,Avalon,http://egis3.lacounty.gov/dataportal/2012/06/19/la-county-address-points/
-118.3252162,33.34186154,7480011029,212,Clarissa Avenue,,90704,Avalon,http://egis3.lacounty.gov/dataportal/2012/06/19/la-county-address-points/
-118.3289563,33.34473074,,212,Marilla Avenue,,90704,Avalon,http://egis3.lacounty.gov/dataportal/2012/06/19/la-county-address-points/
-118.3289563,33.34473074,,213,West Whittley Avenue,,90704,Avalon,http://egis3.lacounty.gov/dataportal/2012/06/19/la-county-address-points/
-118.3258727,33.34222401,7480014027,213,Descanso Avenue,,90704,Avalon,http://egis3.lacounty.gov/dataportal/2012/06/19/la-county-address-points/
-118.3285671,33.34323018,7480018018,214,Beacon Street,,90704,Avalon,http://egis3.lacounty.gov/dataportal/2012/06/19/la-county-address-points/
-118.3260992,33.34225055,7480014005,214,Catalina Avenue,,90704,Avalon,http://egis3.lacounty.gov/dataportal/2012/06/19/la-county-address-points/
-118.3252579,33.34181958,7480011016,214,Clarissa Avenue,,90704,Avalon,http://egis3.lacounty.gov/dataportal/2012/06/19/la-county-address-points/
-118.3289563,33.34473074,,214,Marilla Avenue,,90704,Avalon,http://egis3.lacounty.gov/dataportal/2012/06/19/la-county-address-points/
-118.3289563,33.34473074,,215,West Whittley Avenue,,90704,Avalon,http://egis3.lacounty.gov/dataportal/2012/06/19/la-county-address-points/
-118.3288898,33.34291498,7480030005,215,Beacon Street,,90704,Avalon,http://egis3.lacounty.gov/dataportal/2012/06/19/la-county-address-points/
-118.3273141,33.3430741,7480017026,215,Sumner Avenue,,90704,Avalon,http://egis3.lacounty.gov/dataportal/2012/06/19/la-county-address-points/
-118.3259162,33.34217581,7480014026,215,Descanso Avenue,,90704,Avalon,http://egis3.lacounty.gov/dataportal/2012/06/19/la-county-address-points/
-118.3255716,33.34189818,7480013030,215,Clarissa Avenue,,90704,Avalon,http://egis3.lacounty.gov/dataportal/2012/06/19/la-county-address-points/
-118.3287049,33.34411848,7480027008,216,West Whittley Avenue,,90704,Avalon,http://egis3.lacounty.gov/dataportal/2012/06/19/la-county-address-points/
-118.3256907,33.34202212,7480013007,216,Descanso Avenue,,90704,Avalon,http://egis3.lacounty.gov/dataportal/2012/06/19/la-county-address-points/
-118.3252953,33.34177419,7480011026,216,Clarissa Avenue,,90704,Avalon,http://egis3.lacounty.gov/dataportal/2012/06/19/la-county-address-points/
-118.3289563,33.34473074,,216,Marilla Avenue,,90704,Avalon,http://egis3.lacounty.gov/dataportal/2012/06/19/la-county-address-points/
-118.3289563,33.34473074,,217,West Whittley Avenue,,90704,Avalon,http://egis3.lacounty.gov/dataportal/2012/06/19/la-county-address-points/
-118.3280216,33.34343438,7480018043,217,Metropole Avenue,,90704,Avalon,http://egis3.lacounty.gov/dataportal/2012/06/19/la-county-address-points/
-118.3272874,33.34288685,7480017020,217,Sumner Avenue,,90704,Avalon,http://egis3.lacounty.gov/dataportal/2012/06/19/la-county-address-points/
-118.3259595,33.34212767,7480014025,217,Descanso Avenue,,90704,Avalon,http://egis3.lacounty.gov/dataportal/2012/06/19/la-county-address-points/
-118.3257318,33.34197335,7480013008,218,Descanso Avenue,,90704,Avalon,http://egis3.lacounty.gov/dataportal/2012/06/19/la-county-address-points/
-118.3253363,33.34173255,7480011018,218,Clarissa Avenue,,90704,Avalon,http://egis3.lacounty.gov/dataportal/2012/06/19/la-county-address-points/
-118.3286759,33.34349041,7480018037,219,Calle Del Sol,,90704,Avalon,http://egis3.lacounty.gov/dataportal/2012/06/19/la-county-address-points/
-118.3281249,33.34404822,7480027001,219,East Whittley Avenue,,90704,Avalon,http://egis3.lacounty.gov/dataportal/2012/06/19/la-county-address-points/
-118.3289563,33.34473074,,219,West Whittley Avenue,,90704,Avalon,http://egis3.lacounty.gov/dataportal/2012/06/19/la-county-address-points/
-118.3273285,33.34284143,7480017019,219,Sumner Avenue,,90704,Avalon,http://egis3.lacounty.gov/dataportal/2012/06/19/la-county-address-points/
-118.326003,33.34207949,7480014024,219,Descanso Avenue,,90704,Avalon,http://egis3.lacounty.gov/dataportal/2012/06/19/la-county-address-points/
-118.3256348,33.34182805,7480013029,219,Clarissa Avenue,,90704,Avalon,http://egis3.lacounty.gov/dataportal/2012/06/19/la-county-address-points/
-118.3288317,33.34408708,7480027009,220,West Whittley Avenue,,90704,Avalon,http://egis3.lacounty.gov/dataportal/2012/06/19/la-county-address-points/
-118.3284363,33.34314753,7480018016,220,Beacon Street,,90704,Avalon,http://egis3.lacounty.gov/dataportal/2012/06/19/la-county-address-points/
-118.3276854,33.34321263,7480017007,220,Metropole Avenue,,90704,Avalon,http://egis3.lacounty.gov/dataportal/2012/06/19/la-county-address-points/
-118.326176,33.34216503,7480014032,220,Catalina Avenue,,90704,Avalon,http://egis3.lacounty.gov/dataportal/2012/06/19/la-county-address-points/
-118.3257754,33.34192521,7480013009,220,Descanso Avenue,,90704,Avalon,http://egis3.lacounty.gov/dataportal/2012/06/19/la-county-address-points/
-118.3253759,33.34168863,7480011019,220,Clarissa Avenue,,90704,Avalon,http://egis3.lacounty.gov/dataportal/2012/06/19/la-county-address-points/
-118.3290688,33.34444651,7480019021,221,West Whittley Avenue,,90704,Avalon,http://egis3.lacounty.gov/dataportal/2012/06/19/la-county-address-points/
-118.3281178,33.34335748,7480018043,221,Metropole Avenue,,90704,Avalon,http://egis3.lacounty.gov/dataportal/2012/06/19/la-county-address-points/
-118.3256844,33.34177276,7480013028,221,Clarissa Avenue,,90704,Avalon,http://egis3.lacounty.gov/dataportal/2012/06/19/la-county-address-points/
-118.3277529,33.34313754,7480017008,222,Metropole Avenue,,90704,Avalon,http://egis3.lacounty.gov/dataportal/2012/06/19/la-county-address-points/
-118.3262275,33.34210806,7480014033,222,Catalina Avenue,,90704,Avalon,http://egis3.lacounty.gov/dataportal/2012/06/19/la-county-address-points/
-118.3258186,33.34187665,7480013010,222,Descanso Avenue,,90704,Avalon,http://egis3.lacounty.gov/dataportal/2012/06/19/la-county-address-points/
-118.3254167,33.34164324,7480011020,222,Clarissa Avenue,,90704,Avalon,http://egis3.lacounty.gov/dataportal/2012/06/19/la-county-address-points/
-118.3291401,33.3448909,7480023019,223,Marilla Avenue,,90704,Avalon,http://egis3.lacounty.gov/dataportal/2012/06/19/la-county-address-points/
-118.3273676,33.34279721,7480017018,223,Sumner Avenue,,90704,Avalon,http://egis3.lacounty.gov/dataportal/2012/06/19/la-county-address-points/
-118.3260462,33.34203098,7480014023,223,Descanso Avenue,,90704,Avalon,http://egis3.lacounty.gov/dataportal/2012/06/19/la-county-address-points/
-118.3262787,33.34205078,7480014039,224,Catalina Avenue,2,90704,Avalon,http://egis3.lacounty.gov/dataportal/2012/06/19/la-county-address-points/
-118.3262787,33.34205078,7480014038,224,Catalina Avenue,1,90704,Avalon,http://egis3.lacounty.gov/dataportal/2012/06/19/la-county-address-points/
-118.3289642,33.34410794,7480027011,224,West Whittley Avenue,,90704,Avalon,http://egis3.lacounty.gov/dataportal/2012/06/19/la-county-address-points/
-118.3258621,33.34182846,7480013011,224,Descanso Avenue,,90704,Avalon,http://egis3.lacounty.gov/dataportal/2012/06/19/la-county-address-points/
-118.3254513,33.34159291,7480012001,224,Clarissa Avenue,,90704,Avalon,http://egis3.lacounty.gov/dataportal/2012/06/19/la-county-address-points/
-118.3289238,33.34401496,7480027800,224 1/2,West Whittley Avenue,,90704,Avalon,http://egis3.lacounty.gov/dataportal/2012/06/19/la-county-address-points/
-118.3292328,33.34438881,7480019022,225,West Whittley Avenue,,90704,Avalon,http://egis3.lacounty.gov/dataportal/2012/06/19/la-county-address-points/
-118.3307659,33.34506919,7480024025,225,Hiawatha Avenue,,90704,Avalon,http://egis3.lacounty.gov/dataportal/2012/06/19/la-county-address-points/
-118.3293314,33.34481452,7480023024,225,Marilla Avenue,,90704,Avalon,http://egis3.lacounty.gov/dataportal/2012/06/19/la-county-address-points/
-118.3282142,33.34328099,7480018044,225,Metropole Avenue,,90704,Avalon,http://egis3.lacounty.gov/dataportal/2012/06/19/la-county-address-points/
-118.3274143,33.34274583,7480017017,225,Sumner Avenue,,90704,Avalon,http://egis3.lacounty.gov/dataportal/2012/06/19/la-county-address-points/
-118.3260897,33.34198277,7480014022,225,Descanso Avenue,,90704,Avalon,http://egis3.lacounty.gov/dataportal/2012/06/19/la-county-address-points/
-118.3257516,33.3416981,7480013027,225,Clarissa Avenue,,90704,Avalon,http://egis3.lacounty.gov/dataportal/2012/06/19/la-county-address-points/
-118.3290879,33.34402135,7480027034,226,West Whittley Avenue,,90704,Avalon,http://egis3.lacounty.gov/dataportal/2012/06/19/la-county-address-points/
-118.3263299,33.34199379,7480014008,226,Catalina Avenue,,90704,Avalon,http://egis3.lacounty.gov/dataportal/2012/06/19/la-county-address-points/
-118.3259055,33.34178026,7480013012,226,Descanso Avenue,,90704,Avalon,http://egis3.lacounty.gov/dataportal/2012/06/19/la-county-address-points/
-118.3254789,33.34154099,7480012015,226,Clarissa Avenue,,90704,Avalon,http://egis3.lacounty.gov/dataportal/2012/06/19/la-county-address-points/
-118.3284202,33.34393701,7480027012,227,East Whittley Avenue,,90704,Avalon,http://egis3.lacounty.gov/dataportal/2012/06/19/la-county-address-points/
-118.3274616,33.34269313,7480017016,227,Sumner Avenue,,90704,Avalon,http://egis3.lacounty.gov/dataportal/2012/06/19/la-county-address-points/
-118.326133,33.34193462,7480014021,227,Descanso Avenue,,90704,Avalon,http://egis3.lacounty.gov/dataportal/2012/06/19/la-county-address-points/
-118.3282926,33.34305647,7480018015,228,Beacon Street,,90704,Avalon,http://egis3.lacounty.gov/dataportal/2012/06/19/la-county-address-points/
-118.3278296,33.3430522,7480017009,228,Metropole Avenue,,90704,Avalon,http://egis3.lacounty.gov/dataportal/2012/06/19/la-county-address-points/
-118.32639,33.34192692,7480014009,228,Catalina Avenue,,90704,Avalon,http://egis3.lacounty.gov/dataportal/2012/06/19/la-county-address-points/
-118.3259488,33.34173193,7480013013,228,Descanso Avenue,,90704,Avalon,http://egis3.lacounty.gov/dataportal/2012/06/19/la-county-address-points/
-118.3255051,33.34148782,7480012002,228,Clarissa Avenue,,90704,Avalon,http://egis3.lacounty.gov/dataportal/2012/06/19/la-county-address-points/
-118.32831,33.34320426,7480018014,229,Metropole Avenue,,90704,Avalon,http://egis3.lacounty.gov/dataportal/2012/06/19/la-county-address-points/
-118.3293432,33.34432531,7480026001,229,West Whittley Avenue,,90704,Avalon,http://egis3.lacounty.gov/dataportal/2012/06/19/la-county-address-points/
-118.3274997,33.34265029,7480017015,229,Sumner Avenue,,90704,Avalon,http://egis3.lacounty.gov/dataportal/2012/06/19/la-county-address-points/
-118.3261765,33.34188626,7480014020,229,Descanso Avenue,,90704,Avalon,http://egis3.lacounty.gov/dataportal/2012/06/19/la-county-address-points/
-118.3278701,33.34300728,7480017010,230,Metropole Avenue,,90704,Avalon,http://egis3.lacounty.gov/dataportal/2012/06/19/la-county-address-points/
-118.3259921,33.34168362,7480013014,230,Descanso Avenue,,90704,Avalon,http://egis3.lacounty.gov/dataportal/2012/06/19/la-county-address-points/
-118.3255316,33.34143622,7480012003,230,Clarissa Avenue,,90704,Avalon,http://egis3.lacounty.gov/dataportal/2012/06/19/la-county-address-points/
-118.328395,33.34274374,7480030027,231,Beacon Street,,90704,Avalon,http://egis3.lacounty.gov/dataportal/2012/06/19/la-county-address-points/
-118.3262199,33.34183786,7480014019,231,Descanso Avenue,,90704,Avalon,http://egis3.lacounty.gov/dataportal/2012/06/19/la-county-address-points/
-118.3258197,33.34162206,7480013026,231,Clarissa Avenue,,90704,Avalon,http://egis3.lacounty.gov/dataportal/2012/06/19/la-county-address-points/
-118.32646,33.34184916,7480014010,232,Catalina Avenue,,90704,Avalon,http://egis3.lacounty.gov/dataportal/2012/06/19/la-county-address-points/
-118.3260356,33.34163543,7480013015,232,Descanso Avenue,,90704,Avalon,http://egis3.lacounty.gov/dataportal/2012/06/19/la-county-address-points/
-118.325556,33.34138451,7480012018,232,Clarissa Avenue,,90704,Avalon,http://egis3.lacounty.gov/dataportal/2012/06/19/la-county-address-points/
-118.329454,33.34426525,7480026002,233,West Whittley Avenue,,90704,Avalon,http://egis3.lacounty.gov/dataportal/2012/06/19/la-county-address-points/
-118.3275404,33.34260553,7480017014,233,Sumner Avenue,,90704,Avalon,http://egis3.lacounty.gov/dataportal/2012/06/19/la-county-address-points/
-118.3262632,33.3417897,7480014018,233,Descanso Avenue,,90704,Avalon,http://egis3.lacounty.gov/dataportal/2012/06/19/la-county-address-points/
-118.3258713,33.34156518,7480013025,233,Clarissa Avenue,,90704,Avalon,http://egis3.lacounty.gov/dataportal/2012/06/19/la-county-address-points/
-118.325499,33.34127533,7480012010,234,Clarissa Avenue,,90704,Avalon,http://egis3.lacounty.gov/dataportal/2012/06/19/la-county-address-points/
-118.3292613,33.34394176,7480027016,234,West Whittley Avenue,,90704,Avalon,http://egis3.lacounty.gov/dataportal/2012/06/19/la-county-address-points/
-118.3332587,33.33511821,7480052010,234,Bird Park Road,,90704,Avalon,http://egis3.lacounty.gov/dataportal/2012/06/19/la-county-address-points/
-118.3260791,33.34158724,7480013016,234,Descanso Avenue,,90704,Avalon,http://egis3.lacounty.gov/dataportal/2012/06/19/la-county-address-points/
-118.3256352,33.34136501,7480012006,234,Clarissa Avenue,,90704,Avalon,http://egis3.lacounty.gov/dataportal/2012/06/19/la-county-address-points/
-118.3310046,33.3449989,7480024023,235,Hiawatha Avenue,,90704,Avalon,http://egis3.lacounty.gov/dataportal/2012/06/19/la-county-address-points/
-118.3275863,33.34255461,7480017014,235,Sumner Avenue,,90704,Avalon,http://egis3.lacounty.gov/dataportal/2012/06/19/la-county-address-points/
-118.3263065,33.34174156,7480014017,235,Descanso Avenue,,90704,Avalon,http://egis3.lacounty.gov/dataportal/2012/06/19/la-county-address-points/
-118.3259213,33.3415091,7480013024,235,Clarissa Avenue,,90704,Avalon,http://egis3.lacounty.gov/dataportal/2012/06/19/la-county-address-points/
-118.327937,33.34286658,7480017011,236,Metropole Avenue,,90704,Avalon,http://egis3.lacounty.gov/dataportal/2012/06/19/la-county-address-points/
-118.3266287,33.34166149,7480014036,236,Catalina Avenue,,90704,Avalon,http://egis3.lacounty.gov/dataportal/2012/06/19/la-county-address-points/
-118.3265408,33.34175924,7480014034,236,Catalina Avenue,,90704,Avalon,http://egis3.lacounty.gov/dataportal/2012/06/19/la-county-address-points/
-118.3261223,33.34153872,7480013017,236,Descanso Avenue,,90704,Avalon,http://egis3.lacounty.gov/dataportal/2012/06/19/la-county-address-points/
-118.3256121,33.34127695,7480012019,236,Clarissa Avenue,,90704,Avalon,http://egis3.lacounty.gov/dataportal/2012/06/19/la-county-address-points/
-118.3295812,33.34419303,7480026003,237,West Whittley Avenue,,90704,Avalon,http://egis3.lacounty.gov/dataportal/2012/06/19/la-county-address-points/
-118.3276468,33.34248666,7480017014,237,Sumner Avenue,,90704,Avalon,http://egis3.lacounty.gov/dataportal/2012/06/19/la-county-address-points/
-118.3263499,33.34169319,7480014016,237,Descanso Avenue,,90704,Avalon,http://egis3.lacounty.gov/dataportal/2012/06/19/la-county-address-points/
-118.3297198,33.34426976,7480026004,238,Marilla Avenue,,90704,Avalon,http://egis3.lacounty.gov/dataportal/2012/06/19/la-county-address-points/
-118.3261658,33.34149049,7480013900,238,Descanso Avenue,,90704,Avalon,http://egis3.lacounty.gov/dataportal/2012/06/19/la-county-address-points/
-118.3256435,33.34120778,7480012020,238,Clarissa Avenue,,90704,Avalon,http://egis3.lacounty.gov/dataportal/2012/06/19/la-county-address-points/
-118.3263934,33.34164479,7480014015,239,Descanso Avenue,,90704,Avalon,http://egis3.lacounty.gov/dataportal/2012/06/19/la-county-address-points/
-118.3262091,33.34144237,7480013019,240,Descanso Avenue,,90704,Avalon,http://egis3.lacounty.gov/dataportal/2012/06/19/la-county-address-points/
-118.3264367,33.34159663,7480014014,241,Descanso Avenue,,90704,Avalon,http://egis3.lacounty.gov/dataportal/2012/06/19/la-county-address-points/
-118.325973,33.34145153,7480013023,241,Clarissa Avenue,,90704,Avalon,http://egis3.lacounty.gov/dataportal/2012/06/19/la-county-address-points/
-118.3293994,33.34382538,7480027018,242,West Whittley Avenue,,90704,Avalon,http://egis3.lacounty.gov/dataportal/2012/06/19/la-county-address-points/
-118.3297805,33.3442393,7480026034,242,Marilla Avenue,,90704,Avalon,http://egis3.lacounty.gov/dataportal/2012/06/19/la-county-address-points/
-118.3258053,33.34121044,7480012009,242,Clarissa Avenue,,90704,Avalon,http://egis3.lacounty.gov/dataportal/2012/06/19/la-county-address-points/
-118.3296579,33.3440436,7480026026,243,West Whittley Avenue,,90704,Avalon,http://egis3.lacounty.gov/dataportal/2012/06/19/la-county-address-points/
-118.326485,33.34154291,7480014013,243,Descanso Avenue,,90704,Avalon,http://egis3.lacounty.gov/dataportal/2012/06/19/la-county-address-points/
-118.3260333,33.34138452,7480013039,243,Clarissa Avenue,,90704,Avalon,http://egis3.lacounty.gov/dataportal/2012/06/19/la-county-address-points/
-118.3262545,33.34139199,7480013020,244,Descanso Avenue,,90704,Avalon,http://egis3.lacounty.gov/dataportal/2012/06/19/la-county-address-points/
-118.3258604,33.34114933,7480012014,244,Clarissa Avenue,,90704,Avalon,http://egis3.lacounty.gov/dataportal/2012/06/19/la-county-address-points/
-118.3311986,33.34497119,7480024022,245,Hiawatha Avenue,,90704,Avalon,http://egis3.lacounty.gov/dataportal/2012/06/19/la-county-address-points/
-118.3295326,33.34372421,7480027021,246,West Whittley Avenue,,90704,Avalon,http://egis3.lacounty.gov/dataportal/2012/06/19/la-county-address-points/
-118.3261007,33.34130966,7480013040,247,Clarissa Avenue,,90704,Avalon,http://egis3.lacounty.gov/dataportal/2012/06/19/la-county-address-points/
-118.3286576,33.34385141,7480027013,249,East Whittley Avenue,,90704,Avalon,http://egis3.lacounty.gov/dataportal/2012/06/19/la-county-address-points/
-118.3283648,33.34372843,7480018027,250,East Whitley Avenue,,90704,Avalon,http://egis3.lacounty.gov/dataportal/2012/06/19/la-county-address-points/
-118.3288202,33.34379637,7480027014,251,East Whittley Avenue,,90704,Avalon,http://egis3.lacounty.gov/dataportal/2012/06/19/la-county-address-points/
-118.3314154,33.34493153,7480024021,251,Hiawatha Avenue,,90704,Avalon,http://egis3.lacounty.gov/dataportal/2012/06/19/la-county-address-points/
-118.328969,33.34372974,7480027017,255,East Whittley Avenue,,90704,Avalon,http://egis3.lacounty.gov/dataportal/2012/06/19/la-county-address-points/
-118.3241171,33.34188889,7480010019,256,Middle Terrace Road,,90704,Avalon,http://egis3.lacounty.gov/dataportal/2012/06/19/la-county-address-points/
-118.3291011,33.34362035,7480027019,257,East Whittley Avenue,,90704,Avalon,http://egis3.lacounty.gov/dataportal/2012/06/19/la-county-address-points/
-118.3292107,33.34350035,7480027020,261,East Whittley Avenue,,90704,Avalon,http://egis3.lacounty.gov/dataportal/2012/06/19/la-county-address-points/
-118.329299,33.34340428,7480027023,265,East Whittley Avenue,,90704,Avalon,http://egis3.lacounty.gov/dataportal/2012/06/19/la-county-address-points/
-118.3259935,33.34100133,7480037001,300,Clarissa Avenue,,90704,Avalon,http://egis3.lacounty.gov/dataportal/2012/06/19/la-county-address-points/
-118.32639,33.34125215,7480036001,300,Descanso Avenue,,90704,Avalon,http://egis3.lacounty.gov/dataportal/2012/06/19/la-county-address-points/
-118.3267824,33.34148956,7480035001,300,Catalina Avenue,,90704,Avalon,http://egis3.lacounty.gov/dataportal/2012/06/19/la-county-address-points/
-118.3298834,33.34419271,7480026033,300,Marilla Avenue,,90704,Avalon,http://egis3.lacounty.gov/dataportal/2012/06/19/la-county-address-points/
-118.3303061,33.34547346,7480023025,300,Las Palmas Drive,,90704,Avalon,http://egis3.lacounty.gov/dataportal/2012/06/19/la-county-address-points/
-118.3297915,33.34396746,7480026010,301,West Whittley Avenue,,90704,Avalon,http://egis3.lacounty.gov/dataportal/2012/06/19/la-county-address-points/
-118.3262721,33.34110721,7480036041,301,Clarissa Avenue,,90704,Avalon,http://egis3.lacounty.gov/dataportal/2012/06/19/la-county-address-points/
-118.3270328,33.34162923,7480034001,301,Catalina Avenue,,90704,Avalon,http://egis3.lacounty.gov/dataportal/2012/06/19/la-county-address-points/
-118.3282566,33.34258193,7480031040,301,Beacon Street,,90704,Avalon,http://egis3.lacounty.gov/dataportal/2012/06/19/la-county-address-points/
-118.3267294,33.34401189,7480017005,301,Crescent Avenue,,90704,Avalon,http://egis3.lacounty.gov/dataportal/2012/06/19/la-county-address-points/
-118.3256985,33.34071704,7480038089,302,Clemente Avenue,,90704,Avalon,http://egis3.lacounty.gov/dataportal/2012/06/19/la-county-address-points/
-118.326043,33.34094646,7480037002,302,Clarissa Avenue,,90704,Avalon,http://egis3.lacounty.gov/dataportal/2012/06/19/la-county-address-points/
-118.3275498,33.34196702,7480033050,302,Sumner Avenue,,90704,Avalon,http://egis3.lacounty.gov/dataportal/2012/06/19/la-county-address-points/
-118.3261694,33.34445099,7480021007,302,Crescent Avenue,,90704,Avalon,http://egis3.lacounty.gov/dataportal/2012/06/19/la-county-address-points/
-118.3274707,33.34179154,7480033002,303,Eucalyptus Avenue,,90704,Avalon,http://egis3.lacounty.gov/dataportal/2012/06/19/la-county-address-points/
-118.3266177,33.34396328,7480017005,303,Crescent Avenue,,90704,Avalon,http://egis3.lacounty.gov/dataportal/2012/06/19/la-county-address-points/
-118.3256985,33.34071704,7480038089,304,Clemente Avenue,,90704,Avalon,http://egis3.lacounty.gov/dataportal/2012/06/19/la-county-address-points/
-118.3264363,33.3412005,7480036002,304,Descanso Avenue,,90704,Avalon,http://egis3.lacounty.gov/dataportal/2012/06/19/la-county-address-points/
-118.327254,33.34166508,7480034049,304,Eucalyptus Avenue,,90704,Avalon,http://egis3.lacounty.gov/dataportal/2012/06/19/la-county-address-points/
-118.3276074,33.34190283,7480033049,304,Sumner Avenue,,90704,Avalon,http://egis3.lacounty.gov/dataportal/2012/06/19/la-county-address-points/
-118.3300194,33.3441188,7480026032,304,Marilla Avenue,,90704,Avalon,http://egis3.lacounty.gov/dataportal/2012/06/19/la-county-address-points/
-118.3266509,33.34135853,7480035036,305,Descanso Avenue,,90704,Avalon,http://egis3.lacounty.gov/dataportal/2012/06/19/la-county-address-points/
-118.3270936,33.34156155,7480034002,305,Catalina Avenue,,90704,Avalon,http://egis3.lacounty.gov/dataportal/2012/06/19/la-county-address-points/
-118.3275278,33.34172803,7480033003,305,Eucalyptus Avenue,,90704,Avalon,http://egis3.lacounty.gov/dataportal/2012/06/19/la-county-address-points/
-118.3281782,33.34253224,7480031041,305,Beacon Street,,90704,Avalon,http://egis3.lacounty.gov/dataportal/2012/06/19/la-county-address-points/
-118.3281782,33.34253224,7480031041,305,Beacon Street,,90704,Avalon,http://egis3.lacounty.gov/dataportal/2012/06/19/la-county-address-points/
-118.3277715,33.34224813,7480031012,305,Sumner Avenue,,90704,Avalon,http://egis3.lacounty.gov/dataportal/2012/06/19/la-county-address-points/
-118.3296474,33.34363695,7480027022,306,West Whittley Avenue,,90704,Avalon,http://egis3.lacounty.gov/dataportal/2012/06/19/la-county-address-points/
-118.3256985,33.34071704,7480038089,306,Clemente Avenue,,90704,Avalon,http://egis3.lacounty.gov/dataportal/2012/06/19/la-county-address-points/
-118.3260923,33.34089151,7480037003,306,Clarissa Avenue,,90704,Avalon,http://egis3.lacounty.gov/dataportal/2012/06/19/la-county-address-points/
-118.3264877,33.34114347,7480036003,306,Descanso Avenue,,90704,Avalon,http://egis3.lacounty.gov/dataportal/2012/06/19/la-county-address-points/
-118.3268565,33.34140735,7480035002,306,Catalina Avenue,,90704,Avalon,http://egis3.lacounty.gov/dataportal/2012/06/19/la-county-address-points/
-118.32729,33.34162492,7480034048,306,Eucalyptus Avenue,,90704,Avalon,http://egis3.lacounty.gov/dataportal/2012/06/19/la-county-address-points/
-118.3276492,33.34185651,7480033048,306,Sumner Avenue,,90704,Avalon,http://egis3.lacounty.gov/dataportal/2012/06/19/la-county-address-points/
-118.329924,33.34388585,7480026011,307,West Whittley Avenue,,90704,Avalon,http://egis3.lacounty.gov/dataportal/2012/06/19/la-county-address-points/
-118.3259263,33.34080217,7480037038,307,Clemente Avenue,,90704,Avalon,http://egis3.lacounty.gov/dataportal/2012/06/19/la-county-address-points/
-118.3267308,33.34126931,7480035035,307,Descanso Avenue,,90704,Avalon,http://egis3.lacounty.gov/dataportal/2012/06/19/la-county-address-points/
-118.3271328,33.34151804,7480034003,307,Catalina Avenue,,90704,Avalon,http://egis3.lacounty.gov/dataportal/2012/06/19/la-county-address-points/
-118.3278444,33.34222232,7480031013,307,Sumner Avenue,,90704,Avalon,http://egis3.lacounty.gov/dataportal/2012/06/19/la-county-address-points/
-118.3258412,33.3405396,7480038085,308,Clemente Avenue,,90704,Avalon,http://egis3.lacounty.gov/dataportal/2012/06/19/la-county-address-points/
-118.3261414,33.34083673,7480037004,308,Clarissa Avenue,,90704,Avalon,http://egis3.lacounty.gov/dataportal/2012/06/19/la-county-address-points/
-118.3265389,33.34108648,7480036004,308,Descanso Avenue,,90704,Avalon,http://egis3.lacounty.gov/dataportal/2012/06/19/la-county-address-points/
-118.3269438,33.34131023,7480035003,308,Catalina Avenue,,90704,Avalon,http://egis3.lacounty.gov/dataportal/2012/06/19/la-county-address-points/
-118.3276886,33.3418125,7480033047,308,Sumner Avenue,,90704,Avalon,http://egis3.lacounty.gov/dataportal/2012/06/19/la-county-address-points/
-118.3301167,33.34406839,7480026012,308,Marilla Avenue,,90704,Avalon,http://egis3.lacounty.gov/dataportal/2012/06/19/la-county-address-points/
-118.3293999,33.34329449,7480027026,309,East Whittley Avenue,,90704,Avalon,http://egis3.lacounty.gov/dataportal/2012/06/19/la-county-address-points/
-118.3259814,33.3407406,7480037037,309,Clemente Avenue,,90704,Avalon,http://egis3.lacounty.gov/dataportal/2012/06/19/la-county-address-points/
-118.3263708,33.34099758,7480036040,309,Clarissa Avenue,,90704,Avalon,http://egis3.lacounty.gov/dataportal/2012/06/19/la-county-address-points/
-118.3267742,33.34122109,7480035034,309,Descanso Avenue,,90704,Avalon,http://egis3.lacounty.gov/dataportal/2012/06/19/la-county-address-points/
-118.3271708,33.34147574,7480034004,309,Catalina Avenue,,90704,Avalon,http://egis3.lacounty.gov/dataportal/2012/06/19/la-county-address-points/
-118.3280703,33.34241232,7480031901,309,Beacon Street,,90704,Avalon,http://egis3.lacounty.gov/dataportal/2012/06/19/la-county-address-points/
-118.3303083,33.3442828,7480024034,309,Marilla Avenue,,90704,Avalon,http://egis3.lacounty.gov/dataportal/2012/06/19/la-county-address-points/
-118.3296861,33.34349811,7480027025,310,West Whittley Avenue,A,90704,Avalon,http://egis3.lacounty.gov/dataportal/2012/06/19/la-county-address-points/
-118.329803,33.34362777,7480027024,310,West Whittley Avenue,B,90704,Avalon,http://egis3.lacounty.gov/dataportal/2012/06/19/la-county-address-points/
-118.3292468,33.34307904,7480030010,310,East Whittley Avenue,,90704,Avalon,http://egis3.lacounty.gov/dataportal/2012/06/19/la-county-address-points/
-118.3258412,33.3405396,7480038086,310,Clemente Avenue,,90704,Avalon,http://egis3.lacounty.gov/dataportal/2012/06/19/la-county-address-points/
-118.3261907,33.34078193,7480037005,310,Clarissa Avenue,,90704,Avalon,http://egis3.lacounty.gov/dataportal/2012/06/19/la-county-address-points/
-118.3265822,33.34103832,7480036005,310,Descanso Avenue,,90704,Avalon,http://egis3.lacounty.gov/dataportal/2012/06/19/la-county-address-points/
-118.3273393,33.34157015,7480034047,310,Eucalyptus Avenue,,90704,Avalon,http://egis3.lacounty.gov/dataportal/2012/06/19/la-county-address-points/
-118.3277275,33.34176922,7480033046,310,Sumner Avenue,,90704,Avalon,http://egis3.lacounty.gov/dataportal/2012/06/19/la-county-address-points/
-118.3283493,33.34242189,7480031039,310,Metropole Avenue,,90704,Avalon,http://egis3.lacounty.gov/dataportal/2012/06/19/la-county-address-points/
-118.3302179,33.34404469,7480026014,310,Marilla Avenue,,90704,Avalon,http://egis3.lacounty.gov/dataportal/2012/06/19/la-county-address-points/
-118.3278823,33.34271535,7480017011,310,Beacon Street,,90704,Avalon,http://egis3.lacounty.gov/dataportal/2012/06/19/la-county-address-points/
-118.3295196,33.34316287,7480027028,311,East Whittley Avenue,,90704,Avalon,http://egis3.lacounty.gov/dataportal/2012/06/19/la-county-address-points/
-118.3300752,33.3438264,7480026013,311,West Whittley Avenue,,90704,Avalon,http://egis3.lacounty.gov/dataportal/2012/06/19/la-county-address-points/
-118.3260445,33.34067045,7480037036,311,Clemente Avenue,,90704,Avalon,http://egis3.lacounty.gov/dataportal/2012/06/19/la-county-address-points/
-118.3264291,33.34093275,7480036039,311,Clarissa Avenue,,90704,Avalon,http://egis3.lacounty.gov/dataportal/2012/06/19/la-county-address-points/
-118.3268175,33.34117293,7480035900,311,Descanso Avenue,,90704,Avalon,http://egis3.lacounty.gov/dataportal/2012/06/19/la-county-address-points/
-118.3272095,33.34143269,7480034005,311,Catalina Avenue,,90704,Avalon,http://egis3.lacounty.gov/dataportal/2012/06/19/la-county-address-points/
-118.3275841,33.34166549,7480033004,311,Eucalyptus Avenue,,90704,Avalon,http://egis3.lacounty.gov/dataportal/2012/06/19/la-county-address-points/
-118.327882,33.34214715,7480031014,311,Sumner Avenue,,90704,Avalon,http://egis3.lacounty.gov/dataportal/2012/06/19/la-county-address-points/
-118.3304518,33.34434326,7480024031,311,Marilla Avenue,,90704,Avalon,http://egis3.lacounty.gov/dataportal/2012/06/19/la-county-address-points/
-118.3258412,33.3405396,7480038087,312,Clemente Avenue,,90704,Avalon,http://egis3.lacounty.gov/dataportal/2012/06/19/la-county-address-points/
-118.3262401,33.34072703,7480037006,312,Clarissa Avenue,,90704,Avalon,http://egis3.lacounty.gov/dataportal/2012/06/19/la-county-address-points/
-118.3266256,33.34099013,7480036006,312,Descanso Avenue,,90704,Avalon,http://egis3.lacounty.gov/dataportal/2012/06/19/la-county-address-points/
-118.3270188,33.3412268,7480035004,312,Catalina Avenue,,90704,Avalon,http://egis3.lacounty.gov/dataportal/2012/06/19/la-county-address-points/
-118.3273876,33.34151654,7480034046,312,Eucalyptus Avenue,,90704,Avalon,http://egis3.lacounty.gov/dataportal/2012/06/19/la-county-address-points/
-118.3277664,33.34172581,7480033045,312,Sumner Avenue,,90704,Avalon,http://egis3.lacounty.gov/dataportal/2012/06/19/la-county-address-points/
-118.3284501,33.34235492,7480031044,312,Metropole Avenue,,90704,Avalon,http://egis3.lacounty.gov/dataportal/2012/06/19/la-county-address-points/
-118.3277935,33.34263138,7480017013,312,Beacon Street,,90704,Avalon,http://egis3.lacounty.gov/dataportal/2012/06/19/la-county-address-points/
-118.3272491,33.3413888,7480034006,313,Catalina Avenue,,90704,Avalon,http://egis3.lacounty.gov/dataportal/2012/06/19/la-county-address-points/
-118.3279937,33.34236385,7480031902,313,Beacon Street,,90704,Avalon,http://egis3.lacounty.gov/dataportal/2012/06/19/la-county-address-points/
-118.3279405,33.34208235,7480031055,313,Sumner Avenue,,90704,Avalon,http://egis3.lacounty.gov/dataportal/2012/06/19/la-county-address-points/
-118.329906,33.343562,7480027032,314,West Whittley Avenue,,90704,Avalon,http://egis3.lacounty.gov/dataportal/2012/06/19/la-county-address-points/
-118.3259701,33.34036775,7480038084,314,Clemente Avenue,,90704,Avalon,http://egis3.lacounty.gov/dataportal/2012/06/19/la-county-address-points/
-118.327433,33.34146618,7480034045,314,Eucalyptus Avenue,,90704,Avalon,http://egis3.lacounty.gov/dataportal/2012/06/19/la-county-address-points/
-118.3278081,33.34167954,7480033044,314,Sumner Avenue,,90704,Avalon,http://egis3.lacounty.gov/dataportal/2012/06/19/la-county-address-points/
-118.3282937,33.34227191,7480031045,314,Metropole Avenue,,90704,Avalon,http://egis3.lacounty.gov/dataportal/2012/06/19/la-county-address-points/
-118.3303225,33.34397722,7480026016,314,Marilla Avenue,,90704,Avalon,http://egis3.lacounty.gov/dataportal/2012/06/19/la-county-address-points/
-118.3310657,33.34458855,7480024018,315,Camino Del Monte,,90704,Avalon,http://egis3.lacounty.gov/dataportal/2012/06/19/la-county-address-points/
-118.3301737,33.34375396,7480026015,315,West Whittley Avenue,,90704,Avalon,http://egis3.lacounty.gov/dataportal/2012/06/19/la-county-address-points/
-118.3260998,33.3406091,7480037035,315,Clemente Avenue,,90704,Avalon,http://egis3.lacounty.gov/dataportal/2012/06/19/la-county-address-points/
-118.3264785,33.34087805,7480036038,315,Clarissa Avenue,,90704,Avalon,http://egis3.lacounty.gov/dataportal/2012/06/19/la-county-address-points/
-118.326861,33.34112472,7480035032,315,Descanso Avenue,,90704,Avalon,http://egis3.lacounty.gov/dataportal/2012/06/19/la-county-address-points/
-118.3272866,33.34134694,7480034007,315,Catalina Avenue,,90704,Avalon,http://egis3.lacounty.gov/dataportal/2012/06/19/la-county-address-points/
-118.3276428,33.34160016,7480033005,315,Eucalyptus Avenue,,90704,Avalon,http://egis3.lacounty.gov/dataportal/2012/06/19/la-county-address-points/
-118.327982,33.34203597,7480031055,315,Sumner Avenue,,90704,Avalon,http://egis3.lacounty.gov/dataportal/2012/06/19/la-county-address-points/
-118.3305483,33.34420703,7480024026,315,Marilla Avenue,,90704,Avalon,http://egis3.lacounty.gov/dataportal/2012/06/19/la-county-address-points/
-118.3293361,33.3429291,,316,East Whittley Avenue,1,90704,Avalon,http://egis3.lacounty.gov/dataportal/2012/06/19/la-county-address-points/
-118.3292529,33.34288366,,316,East Whittley Avenue,2,90704,Avalon,http://egis3.lacounty.gov/dataportal/2012/06/19/la-county-address-points/
-118.3292003,33.34284883,,316,East Whittley Avenue,3,90704,Avalon,http://egis3.lacounty.gov/dataportal/2012/06/19/la-county-address-points/
-118.3291415,33.34282558,,316,East Whittley Avenue,4,90704,Avalon,http://egis3.lacounty.gov/dataportal/2012/06/19/la-county-address-points/
-118.3298709,33.34333782,7480027031,316,West Whittley Avenue,B,90704,Avalon,http://egis3.lacounty.gov/dataportal/2012/06/19/la-county-address-points/
-118.3300013,33.34348596,7480027030,316,West Whittley Avenue,A,90704,Avalon,http://egis3.lacounty.gov/dataportal/2012/06/19/la-county-address-points/
-118.3283496,33.34220188,7480031036,316,Metropole Avenue,A,90704,Avalon,http://egis3.lacounty.gov/dataportal/2012/06/19/la-county-address-points/
-118.3282857,33.34212696,7480031033,316,Metropole Avenue,B,90704,Avalon,http://egis3.lacounty.gov/dataportal/2012/06/19/la-county-address-points/
-118.3259701,33.34036775,7480038078,316,Clemente Avenue,,90704,Avalon,http://egis3.lacounty.gov/dataportal/2012/06/19/la-county-address-points/
-118.3262895,33.3406723,7480037007,316,Clarissa Avenue,,90704,Avalon,http://egis3.lacounty.gov/dataportal/2012/06/19/la-county-address-points/
-118.3266709,33.34093951,7480036007,316,Descanso Avenue,,90704,Avalon,http://egis3.lacounty.gov/dataportal/2012/06/19/la-county-address-points/
-118.32708,33.34115868,7480035005,316,Catalina Avenue,,90704,Avalon,http://egis3.lacounty.gov/dataportal/2012/06/19/la-county-address-points/
-118.3274828,33.3414103,7480034044,316,Eucalyptus Avenue,,90704,Avalon,http://egis3.lacounty.gov/dataportal/2012/06/19/la-county-address-points/
-118.3278493,33.3416339,7480033043,316,Sumner Avenue,,90704,Avalon,http://egis3.lacounty.gov/dataportal/2012/06/19/la-county-address-points/
-118.3284804,33.34228459,7480031037,316,Metropole Avenue,,90704,Avalon,http://egis3.lacounty.gov/dataportal/2012/06/19/la-county-address-points/
-118.3304344,33.34392024,7480026017,316,Marilla Avenue,,90704,Avalon,http://egis3.lacounty.gov/dataportal/2012/06/19/la-county-address-points/
-118.3308158,33.34418191,7480025011,316,Las Lomas Avenue,,90704,Avalon,http://egis3.lacounty.gov/dataportal/2012/06/19/la-county-address-points/
-118.3261451,33.34055863,7480037034,317,Clemente Avenue,,90704,Avalon,http://egis3.lacounty.gov/dataportal/2012/06/19/la-county-address-points/
-118.3265277,33.34082302,7480036037,317,Clarissa Avenue,,90704,Avalon,http://egis3.lacounty.gov/dataportal/2012/06/19/la-county-address-points/
-118.3269086,33.34107133,7480035031,317,Descanso Avenue,,90704,Avalon,http://egis3.lacounty.gov/dataportal/2012/06/19/la-county-address-points/
-118.3273264,33.34130266,7480034008,317,Catalina Avenue,,90704,Avalon,http://egis3.lacounty.gov/dataportal/2012/06/19/la-county-address-points/
-118.3277153,33.3415194,7480033006,317,Eucalyptus Avenue,,90704,Avalon,http://egis3.lacounty.gov/dataportal/2012/06/19/la-county-address-points/
-118.3280201,33.34199325,7480031017,317,Sumner Avenue,,90704,Avalon,http://egis3.lacounty.gov/dataportal/2012/06/19/la-county-address-points/
-118.3287043,33.34239177,7480030028,317,Metropole Avenue,,90704,Avalon,http://egis3.lacounty.gov/dataportal/2012/06/19/la-county-address-points/
-118.3309476,33.3443937,7480024019,317,Las Lomas Drive,,90704,Avalon,http://egis3.lacounty.gov/dataportal/2012/06/19/la-county-address-points/
-118.330636,33.34411072,7480024002,317,Marilla Avenue,,90704,Avalon,http://egis3.lacounty.gov/dataportal/2012/06/19/la-county-address-points/
-118.3293988,33.34287122,,318,East Whittley Avenue,1,90704,Avalon,http://egis3.lacounty.gov/dataportal/2012/06/19/la-county-address-points/
-118.3293496,33.34284557,,318,East Whittley Avenue,2,90704,Avalon,http://egis3.lacounty.gov/dataportal/2012/06/19/la-county-address-points/
-118.3292,33.34272628,,318,East Whittley Avenue,4,90704,Avalon,http://egis3.lacounty.gov/dataportal/2012/06/19/la-county-address-points/
-118.3300664,33.34337574,,318,West Whittley Avenue,1,90704,Avalon,http://egis3.lacounty.gov/dataportal/2012/06/19/la-county-address-points/
-118.3300664,33.34337574,,318,West Whittley Avenue,2,90704,Avalon,http://egis3.lacounty.gov/dataportal/2012/06/19/la-county-address-points/
-118.3300664,33.34337574,,318,West Whittley Avenue,3,90704,Avalon,http://egis3.lacounty.gov/dataportal/2012/06/19/la-county-address-points/
-118.3300664,33.34337574,,318,West Whittley Avenue,4,90704,Avalon,http://egis3.lacounty.gov/dataportal/2012/06/19/la-county-address-points/
-118.3300664,33.34337574,,318,West Whittley Avenue,5,90704,Avalon,http://egis3.lacounty.gov/dataportal/2012/06/19/la-county-address-points/
-118.3300664,33.34337574,,318,West Whittley Avenue,6,90704,Avalon,http://egis3.lacounty.gov/dataportal/2012/06/19/la-county-address-points/
-118.3292442,33.34278375,,318,West Whittley Avenue,3,90704,Avalon,http://egis3.lacounty.gov/dataportal/2012/06/19/la-county-address-points/
-118.3283841,33.34215479,7480031034,318,Metropole Avenue,A,90704,Avalon,http://egis3.lacounty.gov/dataportal/2012/06/19/la-county-address-points/
-118.3259701,33.34036775,7480038079,318,Clemente Avenue,,90704,Avalon,http://egis3.lacounty.gov/dataportal/2012/06/19/la-county-address-points/
-118.3263386,33.34061738,7480037008,318,Clarissa Avenue,,90704,Avalon,http://egis3.lacounty.gov/dataportal/2012/06/19/la-county-address-points/
-118.3267165,33.34088912,7480036008,318,Descanso Avenue,,90704,Avalon,http://egis3.lacounty.gov/dataportal/2012/06/19/la-county-address-points/
-118.3275293,33.34135903,7480034043,318,Eucalyptus Avenue,,90704,Avalon,http://egis3.lacounty.gov/dataportal/2012/06/19/la-county-address-points/
-118.327887,33.34159189,7480033042,318,Sumner Avenue,,90704,Avalon,http://egis3.lacounty.gov/dataportal/2012/06/19/la-county-address-points/
-118.3285148,33.34223755,7480031035,318,Metropole Avenue,,90704,Avalon,http://egis3.lacounty.gov/dataportal/2012/06/19/la-county-address-points/
-118.3302818,33.34369071,7480026018,319,West Whittley Avenue,,90704,Avalon,http://egis3.lacounty.gov/dataportal/2012/06/19/la-county-address-points/
-118.3261885,33.34051043,7480037033,319,Clemente Avenue,,90704,Avalon,http://egis3.lacounty.gov/dataportal/2012/06/19/la-county-address-points/
-118.3265769,33.3407682,7480036036,319,Clarissa Avenue,,90704,Avalon,http://egis3.lacounty.gov/dataportal/2012/06/19/la-county-address-points/
-118.326961,33.34101312,7480035030,319,Descanso Avenue,,90704,Avalon,http://egis3.lacounty.gov/dataportal/2012/06/19/la-county-address-points/
-118.3273673,33.34125727,7480034009,319,Catalina Avenue,,90704,Avalon,http://egis3.lacounty.gov/dataportal/2012/06/19/la-county-address-points/
-118.3281029,33.34197713,7480031054,319,Sumner Avenue,,90704,Avalon,http://egis3.lacounty.gov/dataportal/2012/06/19/la-county-address-points/
-118.3277355,33.34233734,7480031002,319,Beacon Street,,90704,Avalon,http://egis3.lacounty.gov/dataportal/2012/06/19/la-county-address-points/
-118.3311004,33.34422768,7480024007,319,Las Lomas Drive,,90704,Avalon,http://egis3.lacounty.gov/dataportal/2012/06/19/la-county-address-points/
-118.3283776,33.34204769,7480031032,320,Metropole Avenue,C,90704,Avalon,http://egis3.lacounty.gov/dataportal/2012/06/19/la-county-address-points/
-118.3284833,33.34212006,7480031031,320,Metropole Avenue,B,90704,Avalon,http://egis3.lacounty.gov/dataportal/2012/06/19/la-county-address-points/
-118.3293992,33.34271566,,320,East Whittley Avenue,,90704,Avalon,http://egis3.lacounty.gov/dataportal/2012/06/19/la-county-address-points/
-118.3263879,33.34056253,7480037009,320,Clarissa Avenue,,90704,Avalon,http://egis3.lacounty.gov/dataportal/2012/06/19/la-county-address-points/
-118.3267601,33.34084024,7480036009,320,Descanso Avenue,,90704,Avalon,http://egis3.lacounty.gov/dataportal/2012/06/19/la-county-address-points/
-118.327141,33.34109074,7480035006,320,Catalina Avenue,,90704,Avalon,http://egis3.lacounty.gov/dataportal/2012/06/19/la-county-address-points/
-118.3275701,33.34131344,7480034042,320,Eucalyptus Avenue,,90704,Avalon,http://egis3.lacounty.gov/dataportal/2012/06/19/la-county-address-points/
-118.3279254,33.34154904,7480033055,320,Sumner Avenue,,90704,Avalon,http://egis3.lacounty.gov/dataportal/2012/06/19/la-county-address-points/
-118.3285975,33.34217951,7480031030,320,Metropole Avenue,,90704,Avalon,http://egis3.lacounty.gov/dataportal/2012/06/19/la-county-address-points/
-118.3305638,33.34382083,7480026030,320,Marilla Avenue,,90704,Avalon,http://egis3.lacounty.gov/dataportal/2012/06/19/la-county-address-points/
-118.3262338,33.34045981,7480037032,321,Clemente Avenue,,90704,Avalon,http://egis3.lacounty.gov/dataportal/2012/06/19/la-county-address-points/
-118.3266262,33.34071353,7480036035,321,Clarissa Avenue,,90704,Avalon,http://egis3.lacounty.gov/dataportal/2012/06/19/la-county-address-points/
-118.3270089,33.34095985,7480035029,321,Descanso Avenue,,90704,Avalon,http://egis3.lacounty.gov/dataportal/2012/06/19/la-county-address-points/
-118.3274074,33.34121254,7480034010,321,Catalina Avenue,,90704,Avalon,http://egis3.lacounty.gov/dataportal/2012/06/19/la-county-address-points/
-118.3277766,33.34145127,7480033007,321,Eucalyptus Avenue,,90704,Avalon,http://egis3.lacounty.gov/dataportal/2012/06/19/la-county-address-points/
-118.3280979,33.34190692,7480031019,321,Sumner Avenue,,90704,Avalon,http://egis3.lacounty.gov/dataportal/2012/06/19/la-county-address-points/
-118.3307937,33.34399779,7480024001,321,Marilla Avenue,,90704,Avalon,http://egis3.lacounty.gov/dataportal/2012/06/19/la-county-address-points/
-118.3298629,33.34095156,7480002071,321,Tremont Street,,90704,Avalon,http://egis3.lacounty.gov/dataportal/2012/06/19/la-county-address-points/
-118.3293553,33.34263637,,322,East Whittley Avenue,,90704,Avalon,http://egis3.lacounty.gov/dataportal/2012/06/19/la-county-address-points/
-118.3268045,33.34079106,7480036010,322,Descanso Avenue,,90704,Avalon,http://egis3.lacounty.gov/dataportal/2012/06/19/la-county-address-points/
-118.327207,33.34101729,7480035007,322,Catalina Avenue,,90704,Avalon,http://egis3.lacounty.gov/dataportal/2012/06/19/la-county-address-points/
-118.327609,33.34127015,7480034041,322,Eucalyptus Avenue,,90704,Avalon,http://egis3.lacounty.gov/dataportal/2012/06/19/la-county-address-points/
-118.3279643,33.34150588,7480033040,322,Sumner Avenue,,90704,Avalon,http://egis3.lacounty.gov/dataportal/2012/06/19/la-county-address-points/
-118.3306526,33.34386844,7480026029,322,Marilla Avenue,,90704,Avalon,http://egis3.lacounty.gov/dataportal/2012/06/19/la-county-address-points/
-118.3303902,33.34362967,7480026020,323,West Whittley Avenue,,90704,Avalon,http://egis3.lacounty.gov/dataportal/2012/06/19/la-county-address-points/
-118.3262813,33.34040728,7480037031,323,Clemente Avenue,,90704,Avalon,http://egis3.lacounty.gov/dataportal/2012/06/19/la-county-address-points/
-118.3270521,33.34091168,7480035028,323,Descanso Avenue,,90704,Avalon,http://egis3.lacounty.gov/dataportal/2012/06/19/la-county-address-points/
-118.3274472,33.34116842,7480034011,323,Catalina Avenue,,90704,Avalon,http://egis3.lacounty.gov/dataportal/2012/06/19/la-county-address-points/
-118.3278162,33.34140688,7480033008,323,Eucalyptus Avenue,,90704,Avalon,http://egis3.lacounty.gov/dataportal/2012/06/19/la-county-address-points/
-118.3281572,33.34184092,7480031020,323,Sumner Avenue,,90704,Avalon,http://egis3.lacounty.gov/dataportal/2012/06/19/la-county-address-points/
-118.3276541,33.34228577,7480031001,323,Beacon Street,,90704,Avalon,http://egis3.lacounty.gov/dataportal/2012/06/19/la-county-address-points/
-118.32894,33.34240333,7480030014,323,Metropole Avenue,,90704,Avalon,http://egis3.lacounty.gov/dataportal/2012/06/19/la-county-address-points/
-118.3293441,33.34254294,,324,East Whittley Avenue,,90704,Avalon,http://egis3.lacounty.gov/dataportal/2012/06/19/la-county-address-points/
-118.326437,33.3405076,7480037010,324,Clarissa Avenue,,90704,Avalon,http://egis3.lacounty.gov/dataportal/2012/06/19/la-county-address-points/
-118.3268485,33.34074225,7480036011,324,Descanso Avenue,,90704,Avalon,http://egis3.lacounty.gov/dataportal/2012/06/19/la-county-address-points/
-118.3272918,33.34092292,7480035008,324,Catalina Avenue,,90704,Avalon,http://egis3.lacounty.gov/dataportal/2012/06/19/la-county-address-points/
-118.3276485,33.34122611,7480034040,324,Eucalyptus Avenue,,90704,Avalon,http://egis3.lacounty.gov/dataportal/2012/06/19/la-county-address-points/
-118.3280056,33.34145985,7480033039,324,Sumner Avenue,,90704,Avalon,http://egis3.lacounty.gov/dataportal/2012/06/19/la-county-address-points/
-118.3309938,33.34402912,7480025012,324,Las Lomas Avenue,,90704,Avalon,http://egis3.lacounty.gov/dataportal/2012/06/19/la-county-address-points/
-118.3298766,33.3427955,7480028053,325,East Whittley Avenue,,90704,Avalon,http://egis3.lacounty.gov/dataportal/2012/06/19/la-county-address-points/
-118.3263284,33.3403545,7480037030,325,Clemente Avenue,,90704,Avalon,http://egis3.lacounty.gov/dataportal/2012/06/19/la-county-address-points/
-118.3266757,33.34065866,7480036034,325,Clarissa Avenue,,90704,Avalon,http://egis3.lacounty.gov/dataportal/2012/06/19/la-county-address-points/
-118.3271011,33.34085711,7480035027,325,Descanso Avenue,,90704,Avalon,http://egis3.lacounty.gov/dataportal/2012/06/19/la-county-address-points/
-118.3274838,33.34112765,7480034012,325,Catalina Avenue,,90704,Avalon,http://egis3.lacounty.gov/dataportal/2012/06/19/la-county-address-points/
-118.3312248,33.34413945,7480024006,325,Las Lomas Drive,,90704,Avalon,http://egis3.lacounty.gov/dataportal/2012/06/19/la-county-address-points/
-118.3299617,33.34325626,7480028069,326,West Whittley Avenue,C,90704,Avalon,http://egis3.lacounty.gov/dataportal/2012/06/19/la-county-address-points/
-118.3301057,33.34307133,7480028069,326,West Whittley Avenue,D,90704,Avalon,http://egis3.lacounty.gov/dataportal/2012/06/19/la-county-address-points/
-118.3302053,33.3433484,7480028043,326,West Whittley Avenue,A,90704,Avalon,http://egis3.lacounty.gov/dataportal/2012/06/19/la-county-address-points/
-118.330008,33.34329332,,326,West Whittley Avenue,B,90704,Avalon,http://egis3.lacounty.gov/dataportal/2012/06/19/la-county-address-points/
-118.3293475,33.34247138,,326,East Whittley Avenue,,90704,Avalon,http://egis3.lacounty.gov/dataportal/2012/06/19/la-county-address-points/
-118.3264864,33.34045286,7480037011,326,Clarissa Avenue,,90704,Avalon,http://egis3.lacounty.gov/dataportal/2012/06/19/la-county-address-points/
-118.3268917,33.34069392,7480036012,326,Descanso Avenue,,90704,Avalon,http://egis3.lacounty.gov/dataportal/2012/06/19/la-county-address-points/
-118.3276881,33.34118206,7480034039,326,Eucalyptus Avenue,,90704,Avalon,http://egis3.lacounty.gov/dataportal/2012/06/19/la-county-address-points/
-118.3280455,33.34141543,7480033038,326,Sumner Avenue,,90704,Avalon,http://egis3.lacounty.gov/dataportal/2012/06/19/la-county-address-points/
-118.3282989,33.3419246,7480031053,326,Sunny Lane,,90704,Avalon,http://egis3.lacounty.gov/dataportal/2012/06/19/la-county-address-points/
-118.3263738,33.3403041,7480037029,327,Clemente Avenue,,90704,Avalon,http://egis3.lacounty.gov/dataportal/2012/06/19/la-county-address-points/
-118.326725,33.34060373,7480036033,327,Clarissa Avenue,,90704,Avalon,http://egis3.lacounty.gov/dataportal/2012/06/19/la-county-address-points/
-118.3275218,33.34108537,7480034013,327,Catalina Avenue,,90704,Avalon,http://egis3.lacounty.gov/dataportal/2012/06/19/la-county-address-points/
-118.3278772,33.34133921,7480033009,327,Eucalyptus Avenue,,90704,Avalon,http://egis3.lacounty.gov/dataportal/2012/06/19/la-county-address-points/
-118.3282865,33.34173363,7480031022,327,Sumner Avenue,,90704,Avalon,http://egis3.lacounty.gov/dataportal/2012/06/19/la-county-address-points/
-118.3290187,33.34231537,7480030038,327,Metropole Avenue,,90704,Avalon,http://egis3.lacounty.gov/dataportal/2012/06/19/la-county-address-points/
-118.3295498,33.34258302,7480030037,328,East Whittley Avenue,,90704,Avalon,http://egis3.lacounty.gov/dataportal/2012/06/19/la-county-address-points/
-118.3262428,33.34012197,7480038005,328,Clemente Avenue,,90704,Avalon,http://egis3.lacounty.gov/dataportal/2012/06/19/la-county-address-points/
-118.3265358,33.34039799,7480037012,328,Clarissa Avenue,,90704,Avalon,http://egis3.lacounty.gov/dataportal/2012/06/19/la-county-address-points/
-118.326935,33.34064558,7480036013,328,Descanso Avenue,,90704,Avalon,http://egis3.lacounty.gov/dataportal/2012/06/19/la-county-address-points/
-118.3277273,33.34113821,7480034038,328,Eucalyptus Avenue,,90704,Avalon,http://egis3.lacounty.gov/dataportal/2012/06/19/la-county-address-points/
-118.3280831,33.34137352,7480033054,328,Sumner Avenue,,90704,Avalon,http://egis3.lacounty.gov/dataportal/2012/06/19/la-county-address-points/
-118.3285535,33.34196941,7480031050,328,Metropole Avenue,,90704,Avalon,http://egis3.lacounty.gov/dataportal/2012/06/19/la-county-address-points/
-118.3264171,33.34025576,7480037028,329,Clemente Avenue,,90704,Avalon,http://egis3.lacounty.gov/dataportal/2012/06/19/la-county-address-points/
-118.3267743,33.34054891,7480036032,329,Clarissa Avenue,,90704,Avalon,http://egis3.lacounty.gov/dataportal/2012/06/19/la-county-address-points/
-118.3271559,33.34079639,7480035026,329,Descanso Avenue,,90704,Avalon,http://egis3.lacounty.gov/dataportal/2012/06/19/la-county-address-points/
-118.3275626,33.34103995,7480034014,329,Catalina Avenue,,90704,Avalon,http://egis3.lacounty.gov/dataportal/2012/06/19/la-county-address-points/
-118.3279391,33.34127013,7480033010,329,Eucalyptus Avenue,,90704,Avalon,http://egis3.lacounty.gov/dataportal/2012/06/19/la-county-address-points/
-118.3313998,33.3440988,7480024017,329,Los Lomas Drive,,90704,Avalon,http://egis3.lacounty.gov/dataportal/2012/06/19/la-county-address-points/
-118.3303102,33.3432827,7480028044,330,West Whittley Avenue,B,90704,Avalon,http://egis3.lacounty.gov/dataportal/2012/06/19/la-county-address-points/
-118.329714,33.34249852,7480029003,330,East Whittley Avenue,,90704,Avalon,http://egis3.lacounty.gov/dataportal/2012/06/19/la-county-address-points/
-118.3340753,33.33524741,7480052007,330,Triana Lane,,90704,Avalon,http://egis3.lacounty.gov/dataportal/2012/06/19/la-county-address-points/
-118.3265851,33.3403432,7480037013,330,Clarissa Avenue,,90704,Avalon,http://egis3.lacounty.gov/dataportal/2012/06/19/la-county-address-points/
-118.326988,33.34058695,7480036014,330,Descanso Avenue,,90704,Avalon,http://egis3.lacounty.gov/dataportal/2012/06/19/la-county-address-points/
-118.3277667,33.34109452,7480034037,330,Eucalyptus Avenue,,90704,Avalon,http://egis3.lacounty.gov/dataportal/2012/06/19/la-county-address-points/
-118.3281347,33.34131625,7480033053,330,Sumner Avenue,,90704,Avalon,http://egis3.lacounty.gov/dataportal/2012/06/19/la-county-address-points/
-118.3286727,33.34192458,7480031028,330,Metropole Avenue,,90704,Avalon,http://egis3.lacounty.gov/dataportal/2012/06/19/la-county-address-points/
-118.3264605,33.34020755,7480037027,331,Clemente Avenue,,90704,Avalon,http://egis3.lacounty.gov/dataportal/2012/06/19/la-county-address-points/
-118.3272047,33.34074168,7480035025,331,Descanso Avenue,,90704,Avalon,http://egis3.lacounty.gov/dataportal/2012/06/19/la-county-address-points/
-118.3276015,33.34099666,7480034015,331,Catalina Avenue,,90704,Avalon,http://egis3.lacounty.gov/dataportal/2012/06/19/la-county-address-points/
-118.3279817,33.34122272,7480033011,331,Eucalyptus Avenue,,90704,Avalon,http://egis3.lacounty.gov/dataportal/2012/06/19/la-county-address-points/
-118.3290976,33.34222779,7480030052,331,Metropole Avenue,,90704,Avalon,http://egis3.lacounty.gov/dataportal/2012/06/19/la-county-address-points/
-118.3262096,33.34004078,7480038005,332,Clemente Avenue,,90704,Avalon,http://egis3.lacounty.gov/dataportal/2012/06/19/la-county-address-points/
-118.3278062,33.34105082,7480034036,332,Eucalyptus Avenue,,90704,Avalon,http://egis3.lacounty.gov/dataportal/2012/06/19/la-county-address-points/
-118.3287321,33.34185879,7480031027,332,Metropole Avenue,,90704,Avalon,http://egis3.lacounty.gov/dataportal/2012/06/19/la-county-address-points/
-118.3345613,33.33527467,,332,Triana Lane,,90704,Avalon,http://egis3.lacounty.gov/dataportal/2012/06/19/la-county-address-points/
-118.326504,33.34015934,7480037026,333,Clemente Avenue,,90704,Avalon,http://egis3.lacounty.gov/dataportal/2012/06/19/la-county-address-points/
-118.3268235,33.34049407,7480036031,333,Clarissa Avenue,,90704,Avalon,http://egis3.lacounty.gov/dataportal/2012/06/19/la-county-address-points/
-118.3272485,33.34069308,7480035024,333,Descanso Avenue,,90704,Avalon,http://egis3.lacounty.gov/dataportal/2012/06/19/la-county-address-points/
-118.3276399,33.34095413,7480034016,333,Catalina Avenue,,90704,Avalon,http://egis3.lacounty.gov/dataportal/2012/06/19/la-county-address-points/
-118.3280242,33.34117532,7480033012,333,Eucalyptus Avenue,,90704,Avalon,http://egis3.lacounty.gov/dataportal/2012/06/19/la-county-address-points/
-118.3284247,33.34165328,7480031049,333,Sumner Avenue,,90704,Avalon,http://egis3.lacounty.gov/dataportal/2012/06/19/la-county-address-points/
-118.3311008,33.34394413,7480025010,333,Marilla Avenue,,90704,Avalon,http://egis3.lacounty.gov/dataportal/2012/06/19/la-county-address-points/
-118.3240189,33.34141382,7480007041,333,Wrigley Terrace Road,,90704,Avalon,http://egis3.lacounty.gov/dataportal/2012/06/19/la-county-address-points/
-118.3318144,33.34411133,7480001010,333,Las Lomas Avenue,,90704,Avalon,http://egis3.lacounty.gov/dataportal/2012/06/19/la-county-address-points/
-118.3304248,33.34328815,7480028013,334,West Whittley Avenue,,90704,Avalon,http://egis3.lacounty.gov/dataportal/2012/06/19/la-county-address-points/
-118.3266342,33.34028838,7480037014,334,Clarissa Avenue,,90704,Avalon,http://egis3.lacounty.gov/dataportal/2012/06/19/la-county-address-points/
-118.3270406,33.3405281,7480036015,334,Descanso Avenue,,90704,Avalon,http://egis3.lacounty.gov/dataportal/2012/06/19/la-county-address-points/
-118.3274618,33.34073378,7480035010,334,Catalina Avenue,,90704,Avalon,http://egis3.lacounty.gov/dataportal/2012/06/19/la-county-address-points/
-118.3278454,33.34100696,7480034035,334,Eucalyptus Avenue,,90704,Avalon,http://egis3.lacounty.gov/dataportal/2012/06/19/la-county-address-points/
-118.3281956,33.34124837,7480033051,334,Sumner Avenue,,90704,Avalon,http://egis3.lacounty.gov/dataportal/2012/06/19/la-county-address-points/
-118.3345909,33.33528115,,334,Triana Lane,,90704,Avalon,http://egis3.lacounty.gov/dataportal/2012/06/19/la-county-address-points/
-118.3290273,33.34204543,7480030022,335,Metropole Avenue,A,90704,Avalon,http://egis3.lacounty.gov/dataportal/2012/06/19/la-county-address-points/
-118.3292365,33.34217813,7480030021,335,Metropole Avenue,B,90704,Avalon,http://egis3.lacounty.gov/dataportal/2012/06/19/la-county-address-points/
-118.3306622,33.34355144,,335,West Whittley Avenue,,90704,Avalon,http://egis3.lacounty.gov/dataportal/2012/06/19/la-county-address-points/
-118.3265553,33.34010213,7480037025,335,Clemente Avenue,,90704,Avalon,http://egis3.lacounty.gov/dataportal/2012/06/19/la-county-address-points/
-118.3276796,33.34090974,7480034017,335,Catalina Avenue,,90704,Avalon,http://egis3.lacounty.gov/dataportal/2012/06/19/la-county-address-points/
-118.3280668,33.34112791,7480033013,335,Eucalyptus Avenue,,90704,Avalon,http://egis3.lacounty.gov/dataportal/2012/06/19/la-county-address-points/
-118.3237191,33.34147987,7480007044,335,Wrigley Terrace Road,,90704,Avalon,http://egis3.lacounty.gov/dataportal/2012/06/19/la-county-address-points/
-118.3305588,33.34325429,7480028042,336,West Whittley Avenue,,90704,Avalon,http://egis3.lacounty.gov/dataportal/2012/06/19/la-county-address-points/
-118.3306033,33.34313821,7480028041,336,West Whittley Avenue,,90704,Avalon,http://egis3.lacounty.gov/dataportal/2012/06/19/la-county-address-points/
-118.3266835,33.34023339,7480037015,336,Clarissa Avenue,,90704,Avalon,http://egis3.lacounty.gov/dataportal/2012/06/19/la-county-address-points/
-118.3278834,33.34096468,7480034055,336,Eucalyptus Avenue,,90704,Avalon,http://egis3.lacounty.gov/dataportal/2012/06/19/la-county-address-points/
-118.3282446,33.34119371,7480033033,336,Sumner Avenue,,90704,Avalon,http://egis3.lacounty.gov/dataportal/2012/06/19/la-county-address-points/
-118.3288108,33.34177095,7480032025,336,Metropole Avenue,,90704,Avalon,http://egis3.lacounty.gov/dataportal/2012/06/19/la-county-address-points/
-118.3346545,33.33529588,,336,Triana Lane,,90704,Avalon,http://egis3.lacounty.gov/dataportal/2012/06/19/la-county-address-points/
-118.3266242,33.34002529,7480037024,337,Clemente Avenue,,90704,Avalon,http://egis3.lacounty.gov/dataportal/2012/06/19/la-county-address-points/
-118.3268728,33.34043922,7480036030,337,Clarissa Avenue,,90704,Avalon,http://egis3.lacounty.gov/dataportal/2012/06/19/la-county-address-points/
-118.3272984,33.34063761,7480035023,337,Descanso Avenue,,90704,Avalon,http://egis3.lacounty.gov/dataportal/2012/06/19/la-county-address-points/
-118.3277201,33.3408647,7480034018,337,Catalina Avenue,,90704,Avalon,http://egis3.lacounty.gov/dataportal/2012/06/19/la-county-address-points/
-118.3281094,33.34108051,7480033014,337,Eucalyptus Avenue,,90704,Avalon,http://egis3.lacounty.gov/dataportal/2012/06/19/la-county-address-points/
-118.3284739,33.3415978,7480031046,337,Sumner Avenue,,90704,Avalon,http://egis3.lacounty.gov/dataportal/2012/06/19/la-county-address-points/
-118.3307203,33.34327729,7480028026,338,West Whittley Avenue,,90704,Avalon,http://egis3.lacounty.gov/dataportal/2012/06/19/la-county-address-points/
-118.3267329,33.34017849,7480037016,338,Clarissa Avenue,,90704,Avalon,http://egis3.lacounty.gov/dataportal/2012/06/19/la-county-address-points/
-118.3271058,33.34045574,7480036016,338,Descanso Avenue,,90704,Avalon,http://egis3.lacounty.gov/dataportal/2012/06/19/la-county-address-points/
-118.3279422,33.34089915,7480034054,338,Eucalyptus Avenue,,90704,Avalon,http://egis3.lacounty.gov/dataportal/2012/06/19/la-county-address-points/
-118.3282812,33.34115299,7480033032,338,Sumner Avenue,,90704,Avalon,http://egis3.lacounty.gov/dataportal/2012/06/19/la-county-address-points/
-118.3347155,33.3353145,,338,Triana Lane,,90704,Avalon,http://egis3.lacounty.gov/dataportal/2012/06/19/la-county-address-points/
-118.3293336,33.34210179,7480030024,339,Metropole Avenue,D,90704,Avalon,http://egis3.lacounty.gov/dataportal/2012/06/19/la-county-address-points/
-118.3291245,33.34196931,7480030023,339,Metropole Avenue,C,90704,Avalon,http://egis3.lacounty.gov/dataportal/2012/06/19/la-county-address-points/
-118.3269221,33.3403844,7480036029,339,Clarissa Avenue,,90704,Avalon,http://egis3.lacounty.gov/dataportal/2012/06/19/la-county-address-points/
-118.3273542,33.34057526,7480035022,339,Descanso Avenue,,90704,Avalon,http://egis3.lacounty.gov/dataportal/2012/06/19/la-county-address-points/
-118.3277597,33.34082047,7480034019,339,Catalina Avenue,,90704,Avalon,http://egis3.lacounty.gov/dataportal/2012/06/19/la-county-address-points/
-118.3285144,33.34155341,7480032001,339,Sumner Avenue,,90704,Avalon,http://egis3.lacounty.gov/dataportal/2012/06/19/la-county-address-points/
-118.3308709,33.34328923,7480028027,340,West Whittley Avenue,,90704,Avalon,http://egis3.lacounty.gov/dataportal/2012/06/19/la-county-address-points/
-118.3271974,33.34035366,7480036017,340,Descanso Avenue,,90704,Avalon,http://egis3.lacounty.gov/dataportal/2012/06/19/la-county-address-points/
-118.3283194,33.34111036,7480033031,340,Sumner Avenue,,90704,Avalon,http://egis3.lacounty.gov/dataportal/2012/06/19/la-county-address-points/
-118.3288077,33.34163153,7480032029,340,Metropole Avenue,,90704,Avalon,http://egis3.lacounty.gov/dataportal/2012/06/19/la-county-address-points/
-118.3228047,33.34111645,7480007043,340,Wrigley Terrace Road,,90704,Avalon,http://egis3.lacounty.gov/dataportal/2012/06/19/la-county-address-points/
-118.3324757,33.34431817,7480001020,341,Camino Del Monte,,90704,Avalon,http://egis3.lacounty.gov/dataportal/2012/06/19/la-county-address-points/
-118.3267021,33.33993881,7480037023,341,Clemente Avenue,,90704,Avalon,http://egis3.lacounty.gov/dataportal/2012/06/19/la-county-address-points/
-118.3269714,33.34032963,7480036028,341,Clarissa Avenue,,90704,Avalon,http://egis3.lacounty.gov/dataportal/2012/06/19/la-county-address-points/
-118.3274042,33.34051998,7480035021,341,Descanso Avenue,,90704,Avalon,http://egis3.lacounty.gov/dataportal/2012/06/19/la-county-address-points/
-118.3277996,33.34077631,7480034020,341,Catalina Avenue,,90704,Avalon,http://egis3.lacounty.gov/dataportal/2012/06/19/la-county-address-points/
-118.3281519,33.3410331,7480033015,341,Eucalyptus Avenue,,90704,Avalon,http://egis3.lacounty.gov/dataportal/2012/06/19/la-county-address-points/
-118.3285532,33.3415095,7480032002,341,Sumner Avenue,,90704,Avalon,http://egis3.lacounty.gov/dataportal/2012/06/19/la-county-address-points/
-118.3267822,33.34012367,7480037017,342,Clarissa Avenue,,90704,Avalon,http://egis3.lacounty.gov/dataportal/2012/06/19/la-county-address-points/
-118.3280034,33.34083111,7480034052,342,Eucalyptus Avenue,,90704,Avalon,http://egis3.lacounty.gov/dataportal/2012/06/19/la-county-address-points/
-118.3283604,33.34106506,7480033030,342,Sumner Avenue,,90704,Avalon,http://egis3.lacounty.gov/dataportal/2012/06/19/la-county-address-points/
-118.3289646,33.34173081,7480032024,342,Metropole Avenue,,90704,Avalon,http://egis3.lacounty.gov/dataportal/2012/06/19/la-county-address-points/
-118.3270207,33.34027464,7480036027,343,Clarissa Avenue,,90704,Avalon,http://egis3.lacounty.gov/dataportal/2012/06/19/la-county-address-points/
-118.3278385,33.34073288,7480034021,343,Catalina Avenue,,90704,Avalon,http://egis3.lacounty.gov/dataportal/2012/06/19/la-county-address-points/
-118.3281945,33.34098556,7480033016,343,Eucalyptus Avenue,,90704,Avalon,http://egis3.lacounty.gov/dataportal/2012/06/19/la-county-address-points/
-118.3286318,33.3414648,7480032030,343,Sumner Avenue,,90704,Avalon,http://egis3.lacounty.gov/dataportal/2012/06/19/la-county-address-points/
-118.3293339,33.34196441,7480030025,343,Metropole Avenue,,90704,Avalon,http://egis3.lacounty.gov/dataportal/2012/06/19/la-county-address-points/
-118.3310215,33.3433011,7480028028,344,West Whittley Avenue,,90704,Avalon,http://egis3.lacounty.gov/dataportal/2012/06/19/la-county-address-points/
-118.3268315,33.3400689,7480037018,344,Clarissa Avenue,,90704,Avalon,http://egis3.lacounty.gov/dataportal/2012/06/19/la-county-address-points/
-118.3280656,33.34076192,7480034056,344,Eucalyptus Avenue,,90704,Avalon,http://egis3.lacounty.gov/dataportal/2012/06/19/la-county-address-points/
-118.3283983,33.34102269,7480033029,344,Sumner Avenue,,90704,Avalon,http://egis3.lacounty.gov/dataportal/2012/06/19/la-county-address-points/
-118.3312942,33.34390537,7480025009,344,Las Lomas Avenue,,90704,Avalon,http://egis3.lacounty.gov/dataportal/2012/06/19/la-county-address-points/
-118.3344856,33.33551339,,344,Triana Lane,,90704,Avalon,http://egis3.lacounty.gov/dataportal/2012/06/19/la-county-address-points/
-118.3328208,33.3443964,7480001019,345,Camino Del Monte,,90704,Avalon,http://egis3.lacounty.gov/dataportal/2012/06/19/la-county-address-points/
-118.3270711,33.34021871,7480036026,345,Clarissa Avenue,,90704,Avalon,http://egis3.lacounty.gov/dataportal/2012/06/19/la-county-address-points/
-118.3274474,33.34047146,7480035020,345,Descanso Avenue,,90704,Avalon,http://egis3.lacounty.gov/dataportal/2012/06/19/la-county-address-points/
-118.3278762,33.34069099,7480034022,345,Catalina Avenue,,90704,Avalon,http://egis3.lacounty.gov/dataportal/2012/06/19/la-county-address-points/
-118.3282372,33.34093814,7480033017,345,Eucalyptus Avenue,,90704,Avalon,http://egis3.lacounty.gov/dataportal/2012/06/19/la-county-address-points/
-118.3285614,33.34137116,7480032004,345,Sumner Avenue,,90704,Avalon,http://egis3.lacounty.gov/dataportal/2012/06/19/la-county-address-points/
-118.3272909,33.34024975,7480036018,346,Descanso Avenue,,90704,Avalon,http://egis3.lacounty.gov/dataportal/2012/06/19/la-county-address-points/
-118.3275858,33.34059573,7480035011,346,Catalina Avenue,,90704,Avalon,http://egis3.lacounty.gov/dataportal/2012/06/19/la-county-address-points/
-118.32844,33.34097641,7480033028,346,Sumner Avenue,,90704,Avalon,http://egis3.lacounty.gov/dataportal/2012/06/19/la-county-address-points/
-118.3289686,33.34159566,7480032021,346,Metropole Avenue,,90704,Avalon,http://egis3.lacounty.gov/dataportal/2012/06/19/la-county-address-points/
-118.331558,33.34390431,7480025013,346,Las Lomas Avenue,,90704,Avalon,http://egis3.lacounty.gov/dataportal/2012/06/19/la-county-address-points/
-118.3345965,33.3355417,,346,Triana Lane,,90704,Avalon,http://egis3.lacounty.gov/dataportal/2012/06/19/la-county-address-points/
-118.3271222,33.34016163,7480036025,347,Clarissa Avenue,,90704,Avalon,http://egis3.lacounty.gov/dataportal/2012/06/19/la-county-address-points/
-118.3274926,33.34042126,7480035019,347,Descanso Avenue,,90704,Avalon,http://egis3.lacounty.gov/dataportal/2012/06/19/la-county-address-points/
-118.3279175,33.34064484,7480034023,347,Catalina Avenue,,90704,Avalon,http://egis3.lacounty.gov/dataportal/2012/06/19/la-county-address-points/
-118.3282797,33.34089074,7480033018,347,Eucalyptus Avenue,,90704,Avalon,http://egis3.lacounty.gov/dataportal/2012/06/19/la-county-address-points/
-118.3285981,33.34132951,7480032033,347,Sumner Avenue,,90704,Avalon,http://egis3.lacounty.gov/dataportal/2012/06/19/la-county-address-points/
-118.3277035,33.34046482,7480035012,348,Catalina Avenue,,90704,Avalon,http://egis3.lacounty.gov/dataportal/2012/06/19/la-county-address-points/
-118.3281266,33.34069368,7480034030,348,Eucalyptus Avenue,,90704,Avalon,http://egis3.lacounty.gov/dataportal/2012/06/19/la-county-address-points/
-118.328498,33.3409119,7480033027,348,Sumner Avenue,,90704,Avalon,http://egis3.lacounty.gov/dataportal/2012/06/19/la-county-address-points/
-118.3271863,33.34009042,7480036024,349,Clarissa Avenue,,90704,Avalon,http://egis3.lacounty.gov/dataportal/2012/06/19/la-county-address-points/
-118.3275456,33.34036217,7480035018,349,Descanso Avenue,,90704,Avalon,http://egis3.lacounty.gov/dataportal/2012/06/19/la-county-address-points/
-118.3283223,33.34084334,7480033019,349,Eucalyptus Avenue,,90704,Avalon,http://egis3.lacounty.gov/dataportal/2012/06/19/la-county-address-points/
-118.3286545,33.34129446,7480032008,349,Sumner Avenue,,90704,Avalon,http://egis3.lacounty.gov/dataportal/2012/06/19/la-county-address-points/
-118.3268955,33.33999759,7480037045,350,Claressa Avenue,,90704,Avalon,http://egis3.lacounty.gov/dataportal/2012/06/19/la-county-address-points/
-118.3281661,33.34065,7480034029,350,Eucalyptus Avenue,,90704,Avalon,http://egis3.lacounty.gov/dataportal/2012/06/19/la-county-address-points/
-118.3291104,33.34153921,7480032036,350,Metropole Avenue,,90704,Avalon,http://egis3.lacounty.gov/dataportal/2012/06/19/la-county-address-points/
-118.3320709,33.34390413,7480025024,350,Las Lomas Avenue,,90704,Avalon,http://egis3.lacounty.gov/dataportal/2012/06/19/la-county-address-points/
-118.3275993,33.34030249,7480035017,351,Descanso Avenue,,90704,Avalon,http://egis3.lacounty.gov/dataportal/2012/06/19/la-county-address-points/
-118.3279912,33.34056309,7480034024,351,Catalina Avenue,,90704,Avalon,http://egis3.lacounty.gov/dataportal/2012/06/19/la-county-address-points/
-118.3283624,33.34079868,7480033020,351,Eucalyptus Avenue,,90704,Avalon,http://egis3.lacounty.gov/dataportal/2012/06/19/la-county-address-points/
-118.3287715,33.34132013,7480032009,351,Sumner Avenue,,90704,Avalon,http://egis3.lacounty.gov/dataportal/2012/06/19/la-county-address-points/
-118.3311696,33.34331283,7480028029,352,West Whittley Avenue,,90704,Avalon,http://egis3.lacounty.gov/dataportal/2012/06/19/la-county-address-points/
-118.3268955,33.33999759,7480037046,352,Claressa Avenue,,90704,Avalon,http://egis3.lacounty.gov/dataportal/2012/06/19/la-county-address-points/
-118.3273657,33.34016661,7480036019,352,Descanso Avenue,,90704,Avalon,http://egis3.lacounty.gov/dataportal/2012/06/19/la-county-address-points/
-118.3277822,33.34037705,7480035013,352,Catalina Avenue,,90704,Avalon,http://egis3.lacounty.gov/dataportal/2012/06/19/la-county-address-points/
-118.3282233,33.34058645,7480034028,352,Eucalyptus Avenue,,90704,Avalon,http://egis3.lacounty.gov/dataportal/2012/06/19/la-county-address-points/
-118.328554,33.34084934,7480033026,352,Sumner Avenue,,90704,Avalon,http://egis3.lacounty.gov/dataportal/2012/06/19/la-county-address-points/
-118.3267798,33.3398521,7480037022,353,Clemente Avenue,,90704,Avalon,http://egis3.lacounty.gov/dataportal/2012/06/19/la-county-address-points/
-118.3272631,33.34000477,7480036023,353,Clarissa Avenue,,90704,Avalon,http://egis3.lacounty.gov/dataportal/2012/06/19/la-county-address-points/
-118.328405,33.34075127,7480033021,353,Eucalyptus Avenue,,90704,Avalon,http://egis3.lacounty.gov/dataportal/2012/06/19/la-county-address-points/
-118.3287931,33.34124328,,353,Sumner Avenue,,90704,Avalon,http://egis3.lacounty.gov/dataportal/2012/06/19/la-county-address-points/
-118.3287931,33.34124328,,353,Sumner Avenue,,90704,Avalon,http://egis3.lacounty.gov/dataportal/2012/06/19/la-county-address-points/
-118.3287931,33.34124328,,353,Sumner Avenue,,90704,Avalon,http://egis3.lacounty.gov/dataportal/2012/06/19/la-county-address-points/
-118.3269744,33.33990977,7480037043,354,Claressa Avenue,,90704,Avalon,http://egis3.lacounty.gov/dataportal/2012/06/19/la-county-address-points/
-118.3274249,33.34010075,7480036020,354,Descanso Avenue,,90704,Avalon,http://egis3.lacounty.gov/dataportal/2012/06/19/la-county-address-points/
-118.3285972,33.34080142,7480033025,354,Sumner Avenue,,90704,Avalon,http://egis3.lacounty.gov/dataportal/2012/06/19/la-county-address-points/
-118.3276597,33.34023516,7480035016,355,Descanso Avenue,,90704,Avalon,http://egis3.lacounty.gov/dataportal/2012/06/19/la-county-address-points/
-118.3280766,33.34046804,7480034025,355,Catalina Avenue,,90704,Avalon,http://egis3.lacounty.gov/dataportal/2012/06/19/la-county-address-points/
-118.3288343,33.34119704,7480032011,355,Sumner Avenue,,90704,Avalon,http://egis3.lacounty.gov/dataportal/2012/06/19/la-county-address-points/
-118.3292822,33.34179381,7480029009,355,Metropole Avenue,,90704,Avalon,http://egis3.lacounty.gov/dataportal/2012/06/19/la-county-address-points/
-118.3325162,33.3440414,7480025022,355,Las Lomas Avenue,,90704,Avalon,http://egis3.lacounty.gov/dataportal/2012/06/19/la-county-address-points/
-118.331335,33.34332594,7480028037,356,West Whittley Avenue,,90704,Avalon,http://egis3.lacounty.gov/dataportal/2012/06/19/la-county-address-points/
-118.3269744,33.33990977,7480037044,356,Claressa Avenue,,90704,Avalon,http://egis3.lacounty.gov/dataportal/2012/06/19/la-county-address-points/
-118.3278731,33.34027713,7480035014,356,Catalina Avenue,,90704,Avalon,http://egis3.lacounty.gov/dataportal/2012/06/19/la-county-address-points/
-118.3286359,33.34075803,7480033024,356,Sumner Avenue,,90704,Avalon,http://egis3.lacounty.gov/dataportal/2012/06/19/la-county-address-points/
-118.3290414,33.341366,7480032032,356,Metropole Avenue,,90704,Avalon,http://egis3.lacounty.gov/dataportal/2012/06/19/la-county-address-points/
-118.3310006,33.34356407,7480026022,357,West Whittley Avenue,,90704,Avalon,http://egis3.lacounty.gov/dataportal/2012/06/19/la-county-address-points/
-118.32733,33.3399325,7480036022,357,Clarissa Avenue,,90704,Avalon,http://egis3.lacounty.gov/dataportal/2012/06/19/la-county-address-points/
-118.3277275,33.34016136,7480035015,357,Descanso Avenue,,90704,Avalon,http://egis3.lacounty.gov/dataportal/2012/06/19/la-county-address-points/
-118.3288753,33.34115128,7480032012,357,Sumner Avenue,,90704,Avalon,http://egis3.lacounty.gov/dataportal/2012/06/19/la-county-address-points/
-118.3291201,33.34127845,7480032018,358,Metropole Avenue,A,90704,Avalon,http://egis3.lacounty.gov/dataportal/2012/06/19/la-county-address-points/
-118.3270611,33.33981413,7480037040,358,Clarissa Avenue,,90704,Avalon,http://egis3.lacounty.gov/dataportal/2012/06/19/la-county-address-points/
-118.3274885,33.34003162,7480036021,358,Descanso Avenue,,90704,Avalon,http://egis3.lacounty.gov/dataportal/2012/06/19/la-county-address-points/
-118.3286839,33.34070474,7480033023,358,Sumner Avenue,,90704,Avalon,http://egis3.lacounty.gov/dataportal/2012/06/19/la-county-address-points/
-118.3292495,33.34141056,7480032035,358,Metropole Avenue,,90704,Avalon,http://egis3.lacounty.gov/dataportal/2012/06/19/la-county-address-points/
-118.3306307,33.34286552,7480028017,359,East Whittley Avenue,,90704,Avalon,http://egis3.lacounty.gov/dataportal/2012/06/19/la-county-address-points/
-118.328143,33.3403956,7480034026,359,Catalina Avenue,,90704,Avalon,http://egis3.lacounty.gov/dataportal/2012/06/19/la-county-address-points/
-118.3289153,33.34110697,7480032013,359,Sumner Avenue,,90704,Avalon,http://egis3.lacounty.gov/dataportal/2012/06/19/la-county-address-points/
-118.326513,33.3395938,7480038075,360,Clemente Avenue,C65,90704,Avalon,http://egis3.lacounty.gov/dataportal/2012/06/19/la-county-address-points/
-118.326513,33.3395938,7480038074,360,Clemente Avenue,C64,90704,Avalon,http://egis3.lacounty.gov/dataportal/2012/06/19/la-county-address-points/
-118.326513,33.3395938,7480038073,360,Clemente Avenue,C63,90704,Avalon,http://egis3.lacounty.gov/dataportal/2012/06/19/la-county-address-points/
-118.326513,33.3395938,7480038072,360,Clemente Avenue,C62,90704,Avalon,http://egis3.lacounty.gov/dataportal/2012/06/19/la-county-address-points/
-118.326513,33.3395938,7480038070,360,Clemente Avenue,B46,90704,Avalon,http://egis3.lacounty.gov/dataportal/2012/06/19/la-county-address-points/
-118.326513,33.3395938,7480038069,360,Clemente Avenue,B45,90704,Avalon,http://egis3.lacounty.gov/dataportal/2012/06/19/la-county-address-points/
-118.326513,33.3395938,7480038068,360,Clemente Avenue,B44,90704,Avalon,http://egis3.lacounty.gov/dataportal/2012/06/19/la-county-address-points/
-118.326513,33.3395938,7480038067,360,Clemente Avenue,C61,90704,Avalon,http://egis3.lacounty.gov/dataportal/2012/06/19/la-county-address-points/
-118.326513,33.3395938,7480038066,360,Clemente Avenue,C60,90704,Avalon,http://egis3.lacounty.gov/dataportal/2012/06/19/la-county-address-points/
-118.326513,33.3395938,7480038065,360,Clemente Avenue,C59,90704,Avalon,http://egis3.lacounty.gov/dataportal/2012/06/19/la-county-address-points/
-118.326513,33.3395938,7480038064,360,Clemente Avenue,C58,90704,Avalon,http://egis3.lacounty.gov/dataportal/2012/06/19/la-county-address-points/
-118.326513,33.3395938,7480038063,360,Clemente Avenue,B43,90704,Avalon,http://egis3.lacounty.gov/dataportal/2012/06/19/la-county-address-points/
-118.326513,33.3395938,7480038062,360,Clemente Avenue,B42,90704,Avalon,http://egis3.lacounty.gov/dataportal/2012/06/19/la-county-address-points/
-118.326513,33.3395938,7480038061,360,Clemente Avenue,B41,90704,Avalon,http://egis3.lacounty.gov/dataportal/2012/06/19/la-county-address-points/
-118.326513,33.3395938,7480038060,360,Clemente Avenue,B40,90704,Avalon,http://egis3.lacounty.gov/dataportal/2012/06/19/la-county-address-points/
-118.326513,33.3395938,7480038059,360,Clemente Avenue,C57,90704,Avalon,http://egis3.lacounty.gov/dataportal/2012/06/19/la-county-address-points/
-118.326513,33.3395938,7480038058,360,Clemente Avenue,C56,90704,Avalon,http://egis3.lacounty.gov/dataportal/2012/06/19/la-county-address-points/
-118.326513,33.3395938,7480038057,360,Clemente Avenue,C55,90704,Avalon,http://egis3.lacounty.gov/dataportal/2012/06/19/la-county-address-points/
-118.326513,33.3395938,7480038056,360,Clemente Avenue,C54,90704,Avalon,http://egis3.lacounty.gov/dataportal/2012/06/19/la-county-address-points/
-118.326513,33.3395938,7480038055,360,Clemente Avenue,B39,90704,Avalon,http://egis3.lacounty.gov/dataportal/2012/06/19/la-county-address-points/
-118.326513,33.3395938,7480038054,360,Clemente Avenue,B38,90704,Avalon,http://egis3.lacounty.gov/dataportal/2012/06/19/la-county-address-points/
-118.326513,33.3395938,7480038053,360,Clemente Avenue,B37,90704,Avalon,http://egis3.lacounty.gov/dataportal/2012/06/19/la-county-address-points/
-118.326513,33.3395938,7480038052,360,Clemente Avenue,B36,90704,Avalon,http://egis3.lacounty.gov/dataportal/2012/06/19/la-county-address-points/
-118.326513,33.3395938,7480038051,360,Clemente Avenue,C53,90704,Avalon,http://egis3.lacounty.gov/dataportal/2012/06/19/la-county-address-points/
-118.326513,33.3395938,7480038050,360,Clemente Avenue,C52,90704,Avalon,http://egis3.lacounty.gov/dataportal/2012/06/19/la-county-address-points/
-118.326513,33.3395938,7480038049,360,Clemente Avenue,C51,90704,Avalon,http://egis3.lacounty.gov/dataportal/2012/06/19/la-county-address-points/
-118.326513,33.3395938,7480038048,360,Clemente Avenue,C50,90704,Avalon,http://egis3.lacounty.gov/dataportal/2012/06/19/la-county-address-points/
-118.326513,33.3395938,7480038047,360,Clemente Avenue,B35,90704,Avalon,http://egis3.lacounty.gov/dataportal/2012/06/19/la-county-address-points/
-118.326513,33.3395938,7480038046,360,Clemente Avenue,B34,90704,Avalon,http://egis3.lacounty.gov/dataportal/2012/06/19/la-county-address-points/
-118.326513,33.3395938,7480038045,360,Clemente Avenue,B33,90704,Avalon,http://egis3.lacounty.gov/dataportal/2012/06/19/la-county-address-points/
-118.326513,33.3395938,7480038044,360,Clemente Avenue,B32,90704,Avalon,http://egis3.lacounty.gov/dataportal/2012/06/19/la-county-address-points/
-118.326513,33.3395938,7480038043,360,Clemente Avenue,C49,90704,Avalon,http://egis3.lacounty.gov/dataportal/2012/06/19/la-county-address-points/
-118.326513,33.3395938,7480038042,360,Clemente Avenue,C48,90704,Avalon,http://egis3.lacounty.gov/dataportal/2012/06/19/la-county-address-points/
-118.326513,33.3395938,7480038041,360,Clemente Avenue,B31,90704,Avalon,http://egis3.lacounty.gov/dataportal/2012/06/19/la-county-address-points/
-118.326513,33.3395938,7480038040,360,Clemente Avenue,B30,90704,Avalon,http://egis3.lacounty.gov/dataportal/2012/06/19/la-county-address-points/
-118.326513,33.3395938,7480038039,360,Clemente Avenue,A29,90704,Avalon,http://egis3.lacounty.gov/dataportal/2012/06/19/la-county-address-points/
-118.326513,33.3395938,7480038038,360,Clemente Avenue,A28,90704,Avalon,http://egis3.lacounty.gov/dataportal/2012/06/19/la-county-address-points/
-118.326513,33.3395938,7480038037,360,Clemente Avenue,A27,90704,Avalon,http://egis3.lacounty.gov/dataportal/2012/06/19/la-county-address-points/
-118.326513,33.3395938,7480038036,360,Clemente Avenue,A26,90704,Avalon,http://egis3.lacounty.gov/dataportal/2012/06/19/la-county-address-points/
-118.326513,33.3395938,7480038035,360,Clemente Avenue,A25,90704,Avalon,http://egis3.lacounty.gov/dataportal/2012/06/19/la-county-address-points/
-118.326513,33.3395938,7480038034,360,Clemente Avenue,A24,90704,Avalon,http://egis3.lacounty.gov/dataportal/2012/06/19/la-county-address-points/
-118.326513,33.3395938,7480038033,360,Clemente Avenue,A23,90704,Avalon,http://egis3.lacounty.gov/dataportal/2012/06/19/la-county-address-points/
-118.326513,33.3395938,7480038032,360,Clemente Avenue,A22,90704,Avalon,http://egis3.lacounty.gov/dataportal/2012/06/19/la-county-address-points/
-118.326513,33.3395938,7480038031,360,Clemente Avenue,A21,90704,Avalon,http://egis3.lacounty.gov/dataportal/2012/06/19/la-county-address-points/
-118.326513,33.3395938,7480038030,360,Clemente Avenue,A20,90704,Avalon,http://egis3.lacounty.gov/dataportal/2012/06/19/la-county-address-points/
-118.326513,33.3395938,7480038029,360,Clemente Avenue,A19,90704,Avalon,http://egis3.lacounty.gov/dataportal/2012/06/19/la-county-address-points/
-118.326513,33.3395938,7480038028,360,Clemente Avenue,A18,90704,Avalon,http://egis3.lacounty.gov/dataportal/2012/06/19/la-county-address-points/
-118.326513,33.3395938,7480038027,360,Clemente Avenue,A17,90704,Avalon,http://egis3.lacounty.gov/dataportal/2012/06/19/la-county-address-points/
-118.326513,33.3395938,7480038026,360,Clemente Avenue,A16,90704,Avalon,http://egis3.lacounty.gov/dataportal/2012/06/19/la-county-address-points/
-118.326513,33.3395938,7480038025,360,Clemente Avenue,A15,90704,Avalon,http://egis3.lacounty.gov/dataportal/2012/06/19/la-county-address-points/
-118.326513,33.3395938,7480038024,360,Clemente Avenue,A14,90704,Avalon,http://egis3.lacounty.gov/dataportal/2012/06/19/la-county-address-points/
-118.326513,33.3395938,7480038023,360,Clemente Avenue,A13,90704,Avalon,http://egis3.lacounty.gov/dataportal/2012/06/19/la-county-address-points/
-118.326513,33.3395938,7480038022,360,Clemente Avenue,A12,90704,Avalon,http://egis3.lacounty.gov/dataportal/2012/06/19/la-county-address-points/
-118.326513,33.3395938,7480038021,360,Clemente Avenue,A11,90704,Avalon,http://egis3.lacounty.gov/dataportal/2012/06/19/la-county-address-points/
-118.326513,33.3395938,7480038020,360,Clemente Avenue,A10,90704,Avalon,http://egis3.lacounty.gov/dataportal/2012/06/19/la-county-address-points/
-118.326513,33.3395938,7480038019,360,Clemente Avenue,A9,90704,Avalon,http://egis3.lacounty.gov/dataportal/2012/06/19/la-county-address-points/
-118.326513,33.3395938,7480038018,360,Clemente Avenue,A8,90704,Avalon,http://egis3.lacounty.gov/dataportal/2012/06/19/la-county-address-points/
-118.326513,33.3395938,7480038017,360,Clemente Avenue,A7,90704,Avalon,http://egis3.lacounty.gov/dataportal/2012/06/19/la-county-address-points/
-118.326513,33.3395938,7480038016,360,Clemente Avenue,A6,90704,Avalon,http://egis3.lacounty.gov/dataportal/2012/06/19/la-county-address-points/
-118.326513,33.3395938,7480038015,360,Clemente Avenue,A5,90704,Avalon,http://egis3.lacounty.gov/dataportal/2012/06/19/la-county-address-points/
-118.326513,33.3395938,7480038014,360,Clemente Avenue,A4,90704,Avalon,http://egis3.lacounty.gov/dataportal/2012/06/19/la-county-address-points/
-118.326513,33.3395938,7480038013,360,Clemente Avenue,A3,90704,Avalon,http://egis3.lacounty.gov/dataportal/2012/06/19/la-county-address-points/
-118.326513,33.3395938,7480038012,360,Clemente Avenue,A2,90704,Avalon,http://egis3.lacounty.gov/dataportal/2012/06/19/la-county-address-points/
-118.326513,33.3395938,7480038011,360,Clemente Avenue,A1,90704,Avalon,http://egis3.lacounty.gov/dataportal/2012/06/19/la-county-address-points/
-118.3314925,33.34333842,7480028032,360,West Whittley Avenue,,90704,Avalon,http://egis3.lacounty.gov/dataportal/2012/06/19/la-county-address-points/
-118.326513,33.3395938,7480038071,360,Clemente Avenue,,90704,Avalon,http://egis3.lacounty.gov/dataportal/2012/06/19/la-county-address-points/
-118.3283018,33.34050037,7480034027,360,Eucalyptus Avenue,,90704,Avalon,http://egis3.lacounty.gov/dataportal/2012/06/19/la-county-address-points/
-118.3312004,33.34357824,7480026036,360,Marilla Avenue,,90704,Avalon,http://egis3.lacounty.gov/dataportal/2012/06/19/la-county-address-points/
-118.3324434,33.34387183,7480025020,360,Las Lomas Avenue,,90704,Avalon,http://egis3.lacounty.gov/dataportal/2012/06/19/la-county-address-points/
-118.330631,33.34296002,7480028070,361,East Whittley Avenue,A,90704,Avalon,http://egis3.lacounty.gov/dataportal/2012/06/19/la-county-address-points/
-118.330695,33.34287648,7480028018,361,East Whittley Avenue,,90704,Avalon,http://egis3.lacounty.gov/dataportal/2012/06/19/la-county-address-points/
-118.3289538,33.3410641,7480032014,361,Sumner Avenue,,90704,Avalon,http://egis3.lacounty.gov/dataportal/2012/06/19/la-county-address-points/
-118.3318145,33.34388472,7480025008,361,Marilla Avenue,,90704,Avalon,http://egis3.lacounty.gov/dataportal/2012/06/19/la-county-address-points/
-118.3313705,33.34362001,7480026035,362,Marilla Avenue,,90704,Avalon,http://egis3.lacounty.gov/dataportal/2012/06/19/la-county-address-points/
-118.3307653,33.34299742,7480028040,363,East Whittley Avenue,,90704,Avalon,http://egis3.lacounty.gov/dataportal/2012/06/19/la-county-address-points/
-118.3307592,33.34288701,7480028020,363,East Whittley Avenue,,90704,Avalon,http://egis3.lacounty.gov/dataportal/2012/06/19/la-county-address-points/
-118.3316228,33.3433489,7480028033,364,West Whittley Avenue,,90704,Avalon,http://egis3.lacounty.gov/dataportal/2012/06/19/la-county-address-points/
-118.3290105,33.34100102,,365,Sumner Avenue,1,90704,Avalon,http://egis3.lacounty.gov/dataportal/2012/06/19/la-county-address-points/
-118.3290105,33.34100102,,365,Sumner Avenue,2,90704,Avalon,http://egis3.lacounty.gov/dataportal/2012/06/19/la-county-address-points/
-118.3290105,33.34100102,,365,Sumner Avenue,3,90704,Avalon,http://egis3.lacounty.gov/dataportal/2012/06/19/la-county-address-points/
-118.3290105,33.34100102,,365,Sumner Avenue,4,90704,Avalon,http://egis3.lacounty.gov/dataportal/2012/06/19/la-county-address-points/
-118.3290105,33.34100102,,365,Sumner Avenue,5,90704,Avalon,http://egis3.lacounty.gov/dataportal/2012/06/19/la-county-address-points/
-118.3290105,33.34100102,,365,Sumner Avenue,6,90704,Avalon,http://egis3.lacounty.gov/dataportal/2012/06/19/la-county-address-points/
-118.3308916,33.34295029,7480028022,365,East Whittley Avenue,,90704,Avalon,http://egis3.lacounty.gov/dataportal/2012/06/19/la-county-address-points/
-118.3291021,33.34089898,7480032016,367,Sumner Avenue,,90704,Avalon,http://egis3.lacounty.gov/dataportal/2012/06/19/la-county-address-points/
-118.3317534,33.34335898,7480028034,368,West Whittley Avenue,,90704,Avalon,http://egis3.lacounty.gov/dataportal/2012/06/19/la-county-address-points/
-118.3310362,33.34297824,7480028023,371,East Whittley Avenue,,90704,Avalon,http://egis3.lacounty.gov/dataportal/2012/06/19/la-county-address-points/
-118.3317261,33.34356298,7480025014,371,West Whittley Avenue,,90704,Avalon,http://egis3.lacounty.gov/dataportal/2012/06/19/la-county-address-points/
-118.3312006,33.34295859,7480028024,373,East Whittley Avenue,,90704,Avalon,http://egis3.lacounty.gov/dataportal/2012/06/19/la-county-address-points/
-118.3318709,33.34338636,7480028068,374,West Whittley Avenue,,90704,Avalon,http://egis3.lacounty.gov/dataportal/2012/06/19/la-county-address-points/
-118.3321364,33.34338359,7480025007,375,Las Lomas Avenue,,90704,Avalon,http://egis3.lacounty.gov/dataportal/2012/06/19/la-county-address-points/
-118.3313171,33.34300521,7480028048,381,East Whittley Avenue,,90704,Avalon,http://egis3.lacounty.gov/dataportal/2012/06/19/la-county-address-points/
-118.3314338,33.34302604,7480028047,383,East Whittley Avenue,,90704,Avalon,http://egis3.lacounty.gov/dataportal/2012/06/19/la-county-address-points/
-118.3315685,33.34307894,7480028046,385,East Whittley Avenue,,90704,Avalon,http://egis3.lacounty.gov/dataportal/2012/06/19/la-county-address-points/
-118.3312609,33.34476279,7480024011,400,Camino Del Monte,,90704,Avalon,http://egis3.lacounty.gov/dataportal/2012/06/19/la-county-address-points/
-118.3280366,33.33911886,7480051004,400,Avalon Canyon Road,,90704,Avalon,http://egis3.lacounty.gov/dataportal/2012/06/19/la-county-address-points/
-118.3259701,33.34375923,7480016006,401,Crescent Avenue,,90704,Avalon,http://egis3.lacounty.gov/dataportal/2012/06/19/la-county-address-points/
-118.3274027,33.34186737,7480033001,409,Beacon Street,,90704,Avalon,http://egis3.lacounty.gov/dataportal/2012/06/19/la-county-address-points/
-118.3259266,33.34372159,7480016005,409,Crescent Avenue,,90704,Avalon,http://egis3.lacounty.gov/dataportal/2012/06/19/la-county-address-points/
-118.3284949,33.34065182,7480033022,410,Tremont Street,,90704,Avalon,http://egis3.lacounty.gov/dataportal/2012/06/19/la-county-address-points/
-118.3258147,33.34363902,7480016005,411,Crescent Avenue,,90704,Avalon,http://egis3.lacounty.gov/dataportal/2012/06/19/la-county-address-points/
-118.3272252,33.3417487,7480034051,415,Beacon Street,,90704,Avalon,http://egis3.lacounty.gov/dataportal/2012/06/19/la-county-address-points/
-118.3257481,33.34357723,7480016004,415,Crescent Avenue,,90704,Avalon,http://egis3.lacounty.gov/dataportal/2012/06/19/la-county-address-points/
-118.3256345,33.34349871,7480016002,417,Crescent Avenue,,90704,Avalon,http://egis3.lacounty.gov/dataportal/2012/06/19/la-county-address-points/
-118.3271557,33.34170472,7480034050,419,Beacon Street,,90704,Avalon,http://egis3.lacounty.gov/dataportal/2012/06/19/la-county-address-points/
-118.3254314,33.34336718,7480016001,423,Crescent Avenue,,90704,Avalon,http://egis3.lacounty.gov/dataportal/2012/06/19/la-county-address-points/
-118.3325445,33.34356895,7480025015,475,Las Lomas Avenue,,90704,Avalon,http://egis3.lacounty.gov/dataportal/2012/06/19/la-county-address-points/
-118.3251686,33.34282375,7480015001,513,Crescent Avenue,,90704,Avalon,http://egis3.lacounty.gov/dataportal/2012/06/19/la-county-address-points/
-118.3258573,33.34087875,7480037039,603,Beacon Street,,90704,Avalon,http://egis3.lacounty.gov/dataportal/2012/06/19/la-county-address-points/
-118.3243605,33.34250042,7480011037,603,Crescent Avenue,,90704,Avalon,http://egis3.lacounty.gov/dataportal/2012/06/19/la-county-address-points/
-118.3255043,33.34118505,7480012019,604,Beacon Street,,90704,Avalon,http://egis3.lacounty.gov/dataportal/2012/06/19/la-county-address-points/
-118.3241062,33.34239076,7480011023,613,Crescent Avenue,,90704,Avalon,http://egis3.lacounty.gov/dataportal/2012/06/19/la-county-address-points/
-118.3234775,33.34286453,7480005019,702,Crescent Avenue,,90704,Avalon,http://egis3.lacounty.gov/dataportal/2012/06/19/la-county-address-points/
-118.3234057,33.34268339,7480005034,708,Crescent Avenue,,90704,Avalon,http://egis3.lacounty.gov/dataportal/2012/06/19/la-county-address-points/
-118.3230834,33.34287629,7480005023,718,Crescent Avenue,,90704,Avalon,http://egis3.lacounty.gov/dataportal/2012/06/19/la-county-address-points/
-118.3232916,33.34279396,7480005006,718,Crescent Avenue,,90704,Avalon,http://egis3.lacounty.gov/dataportal/2012/06/19/la-county-address-points/
-118.3231286,33.34263617,7480005002,720,Crescent Avenue,,90704,Avalon,http://egis3.lacounty.gov/dataportal/2012/06/19/la-county-address-points/
-118.3230261,33.34266795,7480005008,724,Crescent Avenue,,90704,Avalon,http://egis3.lacounty.gov/dataportal/2012/06/19/la-county-address-points/
-118.3232218,33.34266697,7480005007,724,Crescent Avenue,,90704,Avalon,http://egis3.lacounty.gov/dataportal/2012/06/19/la-county-address-points/
-118.3252732,33.3409423,7480008005,800,Beacon Street,,90704,Avalon,http://egis3.lacounty.gov/dataportal/2012/06/19/la-county-address-points/
-118.3228436,33.34272282,7480005011,800,Crescent Avenue,,90704,Avalon,http://egis3.lacounty.gov/dataportal/2012/06/19/la-county-address-points/
-118.3323806,33.34060201,7480002003,888,Country Club Drive,,90704,Avalon,http://egis3.lacounty.gov/dataportal/2012/06/19/la-county-address-points/
-118.3418854,33.32377354,7480045011,1400,Avalon Canyon Road,,90704,Avalon,http://egis3.lacounty.gov/dataportal/2012/06/19/la-county-address-points/
-118.4161253,33.37690826,7480042020,5151,Cape Canyon Trail,,90704,Avalon,http://egis3.lacounty.gov/dataportal/2012/06/19/la-county-address-points/
-118.4693165,33.42631822,7480040012,6126 T,Little Harbor Road,,90704,Avalon,http://egis3.lacounty.gov/dataportal/2012/06/19/la-county-address-points/